zip,primary_city,state,area_codes,country
56688,Wirt,MN,218,US
56701,Thief River Falls,MN,218,US
56710,Alvarado,MN,218,US
56711,Angle Inlet,MN,218,US
56713,Argyle,MN,218,US
56714,Badger,MN,218,US
56715,Brooks,MN,218,US
56716,Crookston,MN,218,US
56720,Donaldson,MN,218,US
56721,East Grand Forks,MN,"2,18,701",US
56722,Euclid,MN,218,US
56723,Fisher,MN,218,US
56724,Gatzke,MN,218,US
56725,Goodridge,MN,218,US
56726,Greenbush,MN,218,US
56727,Grygla,MN,218,US
56728,Hallock,MN,218,US
56729,Halma,MN,218,US
56731,Humboldt,MN,218,US
56732,Karlstad,MN,218,US
56733,Kennedy,MN,218,US
56734,Lake Bronson,MN,218,US
56735,Lancaster,MN,218,US
56736,Mentor,MN,218,US
56737,Middle River,MN,218,US
56738,Newfolden,MN,218,US
56740,Noyes,MN,218,US
56741,Oak Island,MN,218,US
56742,Oklee,MN,218,US
56744,Oslo,MN,"2,18,701",US
56748,Plummer,MN,218,US
56750,Red Lake Falls,MN,218,US
56751,Roseau,MN,218,US
56754,Saint Hilaire,MN,218,US
56755,Saint Vincent,MN,218,US
56756,Salol,MN,218,US
56757,Stephen,MN,218,US
56758,Strandquist,MN,218,US
56759,Strathcona,MN,218,US
56760,Viking,MN,218,US
56761,Wannaska,MN,218,US
56762,Warren,MN,218,US
56763,Warroad,MN,218,US
56901,Parcel Return Service,DC,202,US
56902,Parcel Return Service,DC,202,US
56904,Parcel Return Service,DC,202,US
56915,Parcel Return Service,DC,202,US
56920,Parcel Return Service,DC,202,US
56933,Parcel Return Service,DC,202,US
56944,Parcel Return Service,DC,202,US
56945,Parcel Return Service,DC,202,US
56950,Parcel Return Service,DC,202,US
56965,Parcel Return Service,DC,202,US
56972,Parcel Return Service,DC,202,US
57001,Alcester,SD,605,US
57002,Aurora,SD,605,US
57003,Baltic,SD,605,US
57004,Beresford,SD,605,US
57005,Brandon,SD,605,US
57006,Brookings,SD,605,US
57007,Brookings,SD,605,US
57010,Burbank,SD,605,US
57012,Canistota,SD,605,US
57013,Canton,SD,605,US
57014,Centerville,SD,605,US
57015,Chancellor,SD,605,US
57016,Chester,SD,605,US
57017,Colman,SD,605,US
57018,Colton,SD,605,US
57020,Crooks,SD,605,US
57021,Davis,SD,605,US
57022,Dell Rapids,SD,605,US
57024,Egan,SD,605,US
57025,Elk Point,SD,605,US
57026,Elkton,SD,"6,05,507",US
57027,Fairview,SD,605,US
57028,Flandreau,SD,605,US
57029,Freeman,SD,605,US
57030,Garretson,SD,"6,05,507",US
57031,Gayville,SD,605,US
57032,Harrisburg,SD,605,US
57033,Hartford,SD,605,US
57034,Hudson,SD,"6,05,712",US
57035,Humboldt,SD,605,US
57036,Hurley,SD,605,US
57037,Irene,SD,605,US
57038,Jefferson,SD,605,US
57039,Lennox,SD,605,US
57040,Lesterville,SD,605,US
57041,Lyons,SD,605,US
57042,Madison,SD,605,US
57043,Marion,SD,605,US
57045,Menno,SD,605,US
57046,Mission Hill,SD,605,US
57047,Monroe,SD,605,US
57048,Montrose,SD,605,US
57049,North Sioux City,SD,605,US
57050,Nunda,SD,605,US
57051,Oldham,SD,605,US
57052,Olivet,SD,605,US
57053,Parker,SD,605,US
57054,Ramona,SD,605,US
57055,Renner,SD,605,US
57056,Rowena,SD,605,US
57057,Rutland,SD,605,US
57058,Salem,SD,605,US
57059,Scotland,SD,605,US
57061,Sinai,SD,605,US
57062,Springfield,SD,605,US
57063,Tabor,SD,605,US
57064,Tea,SD,605,US
57065,Trent,SD,605,US
57066,Tyndall,SD,605,US
57067,Utica,SD,605,US
57068,Valley Springs,SD,"6,05,507",US
57069,Vermillion,SD,605,US
57070,Viborg,SD,605,US
57071,Volga,SD,605,US
57072,Volin,SD,605,US
57073,Wakonda,SD,605,US
57075,Wentworth,SD,605,US
57076,Winfred,SD,605,US
57077,Worthing,SD,605,US
57078,Yankton,SD,"6,05,402",US
57079,Yankton,SD,605,US
57101,Sioux Falls,SD,605,US
57103,Sioux Falls,SD,605,US
57104,Sioux Falls,SD,605,US
57105,Sioux Falls,SD,605,US
57106,Sioux Falls,SD,605,US
57107,Sioux Falls,SD,605,US
57108,Sioux Falls,SD,605,US
57109,Sioux Falls,SD,605,US
57110,Sioux Falls,SD,605,US
57117,Sioux Falls,SD,605,US
57118,Sioux Falls,SD,605,US
57186,Sioux Falls,SD,605,US
57188,Sioux Falls,SD,605,US
57189,Sioux Falls,SD,605,US
57192,Sioux Falls,SD,605,US
57193,Sioux Falls,SD,605,US
57194,Sioux Falls,SD,605,US
57195,Sioux Falls,SD,605,US
57196,Sioux Falls,SD,605,US
57197,Sioux Falls,SD,605,US
57198,Sioux Falls,SD,605,US
57201,Watertown,SD,605,US
57212,Arlington,SD,605,US
57213,Astoria,SD,605,US
57214,Badger,SD,605,US
57216,Big Stone City,SD,605,US
57217,Bradley,SD,605,US
57218,Brandt,SD,605,US
57219,Bristol,SD,605,US
57220,Bruce,SD,605,US
57221,Bryant,SD,605,US
57223,Castlewood,SD,605,US
57224,Claire City,SD,605,US
57225,Clark,SD,605,US
57226,Clear Lake,SD,605,US
57227,Corona,SD,605,US
57231,De Smet,SD,605,US
57232,Eden,SD,605,US
57233,Erwin,SD,605,US
57234,Estelline,SD,605,US
57235,Florence,SD,605,US
57236,Garden City,SD,605,US
57237,Gary,SD,"6,05,507",US
57238,Goodwin,SD,605,US
57239,Grenville,SD,605,US
57241,Hayti,SD,605,US
57242,Hazel,SD,605,US
57243,Henry,SD,605,US
57245,Kranzburg,SD,605,US
57246,Labolt,SD,605,US
57247,Lake City,SD,605,US
57248,Lake Norden,SD,605,US
57249,Lake Preston,SD,605,US
57251,Marvin,SD,605,US
57252,Milbank,SD,605,US
57253,Milbank,SD,605,US
57255,New Effington,SD,605,US
57256,Ortley,SD,605,US
57257,Peever,SD,605,US
57258,Raymond,SD,605,US
57259,Revillo,SD,605,US
57260,Rosholt,SD,605,US
57261,Roslyn,SD,605,US
57262,Sisseton,SD,605,US
57263,South Shore,SD,605,US
57264,Stockholm,SD,605,US
57265,Strandburg,SD,605,US
57266,Summit,SD,605,US
57268,Toronto,SD,605,US
57269,Twin Brooks,SD,605,US
57270,Veblen,SD,605,US
57271,Vienna,SD,605,US
57272,Wallace,SD,605,US
57273,Waubay,SD,605,US
57274,Webster,SD,605,US
57276,White,SD,605,US
57278,Willow Lake,SD,605,US
57279,Wilmot,SD,605,US
57301,Mitchell,SD,605,US
57311,Alexandria,SD,605,US
57312,Alpena,SD,605,US
57313,Armour,SD,605,US
57314,Artesian,SD,605,US
57315,Avon,SD,605,US
57317,Bonesteel,SD,605,US
57319,Bridgewater,SD,605,US
57321,Canova,SD,605,US
57322,Carpenter,SD,605,US
57323,Carthage,SD,605,US
57324,Cavour,SD,605,US
57325,Chamberlain,SD,605,US
57326,Chamberlain,SD,605,US
57328,Corsica,SD,605,US
57329,Dante,SD,605,US
57330,Delmont,SD,605,US
57331,Dimock,SD,605,US
57332,Emery,SD,605,US
57334,Ethan,SD,605,US
57335,Fairfax,SD,605,US
57337,Fedora,SD,605,US
57339,Fort Thompson,SD,605,US
57340,Fulton,SD,605,US
57341,Gann Valley,SD,605,US
57342,Geddes,SD,605,US
57344,Harrison,SD,605,US
57345,Highmore,SD,605,US
57346,Stephan,SD,605,US
57348,Hitchcock,SD,605,US
57349,Howard,SD,605,US
57350,Huron,SD,605,US
57353,Iroquois,SD,605,US
57354,Kaylor,SD,605,US
57355,Kimball,SD,605,US
57356,Lake Andes,SD,605,US
57358,Lane,SD,605,US
57359,Letcher,SD,605,US
57361,Marty,SD,605,US
57362,Miller,SD,605,US
57363,Mount Vernon,SD,605,US
57364,New Holland,SD,605,US
57365,Oacoma,SD,605,US
57366,Parkston,SD,605,US
57367,Pickstown,SD,605,US
57368,Plankinton,SD,605,US
57369,Platte,SD,605,US
57370,Pukwana,SD,605,US
57371,Ree Heights,SD,605,US
57373,Saint Lawrence,SD,605,US
57374,Spencer,SD,605,US
57375,Stickney,SD,605,US
57376,Tripp,SD,605,US
57379,Virgil,SD,605,US
57380,Wagner,SD,605,US
57381,Wessington,SD,605,US
57382,Wessington Springs,SD,605,US
57383,White Lake,SD,605,US
57384,Wolsey,SD,605,US
57385,Woonsocket,SD,605,US
57386,Yale,SD,605,US
57399,Huron,SD,605,US
57401,Aberdeen,SD,605,US
57402,Aberdeen,SD,605,US
57420,Akaska,SD,605,US
57421,Amherst,SD,605,US
57422,Andover,SD,605,US
57424,Ashton,SD,605,US
57426,Barnard,SD,605,US
57427,Bath,SD,605,US
57428,Bowdle,SD,605,US
57429,Brentford,SD,605,US
57430,Britton,SD,605,US
57432,Claremont,SD,605,US
57433,Columbia,SD,605,US
57434,Conde,SD,605,US
57435,Cresbard,SD,605,US
57436,Doland,SD,605,US
57437,Eureka,SD,605,US
57438,Faulkton,SD,605,US
57439,Ferney,SD,605,US
57440,Frankfort,SD,605,US
57441,Frederick,SD,605,US
57442,Gettysburg,SD,605,US
57445,Groton,SD,605,US
57446,Hecla,SD,605,US
57448,Hosmer,SD,605,US
57449,Houghton,SD,605,US
57450,Hoven,SD,605,US
57451,Ipswich,SD,605,US
57452,Java,SD,605,US
57454,Langford,SD,605,US
57455,Lebanon,SD,605,US
57456,Leola,SD,605,US
57457,Long Lake,SD,605,US
57460,Mansfield,SD,605,US
57461,Mellette,SD,605,US
57465,Northville,SD,605,US
57466,Onaka,SD,605,US
57467,Orient,SD,605,US
57468,Pierpont,SD,605,US
57469,Redfield,SD,605,US
57470,Rockham,SD,605,US
57471,Roscoe,SD,605,US
57472,Selby,SD,605,US
57473,Seneca,SD,605,US
57474,Stratford,SD,605,US
57475,Tolstoy,SD,605,US
57476,Tulare,SD,605,US
57477,Turton,SD,605,US
57479,Warner,SD,605,US
57481,Westport,SD,605,US
57501,Pierre,SD,605,US
57520,Agar,SD,605,US
57521,Belvidere,SD,605,US
57522,Blunt,SD,605,US
57523,Burke,SD,605,US
57528,Colome,SD,605,US
57529,Dallas,SD,605,US
57531,Draper,SD,605,US
57532,Fort Pierre,SD,605,US
57533,Gregory,SD,605,US
57534,Hamill,SD,605,US
57536,Harrold,SD,605,US
57537,Hayes,SD,605,US
57538,Herrick,SD,605,US
57540,Holabird,SD,605,US
57541,Ideal,SD,605,US
57543,Kadoka,SD,605,US
57544,Kennebec,SD,605,US
57547,Long Valley,SD,605,US
57548,Lower Brule,SD,605,US
57551,Martin,SD,605,US
57552,Midland,SD,605,US
57553,Milesville,SD,605,US
57555,Mission,SD,605,US
57559,Murdo,SD,605,US
57560,Norris,SD,605,US
57562,Okaton,SD,605,US
57563,Okreek,SD,605,US
57564,Onida,SD,605,US
57566,Parmelee,SD,605,US
57567,Philip,SD,605,US
57568,Presho,SD,605,US
57569,Reliance,SD,605,US
57570,Rosebud,SD,605,US
57571,Saint Charles,SD,605,US
57572,Saint Francis,SD,605,US
57574,Tuthill,SD,605,US
57576,Vivian,SD,605,US
57577,Wanblee,SD,605,US
57579,White River,SD,605,US
57580,Winner,SD,605,US
57584,Witten,SD,605,US
57585,Wood,SD,605,US
57601,Mobridge,SD,605,US
57620,Bison,SD,605,US
57621,Bullhead,SD,605,US
57622,Cherry Creek,SD,605,US
57623,Dupree,SD,605,US
57625,Eagle Butte,SD,605,US
57626,Faith,SD,605,US
57630,Glencross,SD,605,US
57631,Glenham,SD,605,US
57632,Herreid,SD,605,US
57633,Isabel,SD,605,US
57634,Keldron,SD,605,US
57636,Lantry,SD,605,US
57638,Lemmon,SD,"7,01,605",US
57639,Little Eagle,SD,605,US
57640,Lodgepole,SD,605,US
57641,Mc Intosh,SD,605,US
57642,Mc Laughlin,SD,605,US
57644,Meadow,SD,605,US
57645,Morristown,SD,605,US
57646,Mound City,SD,605,US
57648,Pollock,SD,605,US
57649,Prairie City,SD,605,US
57650,Ralph,SD,605,US
57651,Reva,SD,605,US
57652,Ridgeview,SD,605,US
57656,Timber Lake,SD,605,US
57657,Trail City,SD,605,US
57658,Wakpala,SD,605,US
57659,Walker,SD,605,US
57660,Watauga,SD,605,US
57661,Whitehorse,SD,605,US
57701,Rapid City,SD,605,US
57702,Rapid City,SD,605,US
57703,Rapid City,SD,605,US
57706,Ellsworth Afb,SD,605,US
57709,Rapid City,SD,605,US
57714,Allen,SD,605,US
57716,Batesland,SD,605,US
57717,Belle Fourche,SD,"6,05,307",US
57718,Black Hawk,SD,605,US
57719,Box Elder,SD,605,US
57720,Buffalo,SD,605,US
57722,Buffalo Gap,SD,605,US
57724,Camp Crook,SD,"6,05,406",US
57725,Caputa,SD,605,US
57730,Custer,SD,605,US
57732,Deadwood,SD,605,US
57735,Edgemont,SD,"60,53,07,308",US
57737,Enning,SD,605,US
57738,Fairburn,SD,605,US
57741,Fort Meade,SD,605,US
57744,Hermosa,SD,605,US
57745,Hill City,SD,605,US
57747,Hot Springs,SD,605,US
57748,Howes,SD,605,US
57750,Interior,SD,605,US
57751,Keystone,SD,605,US
57752,Kyle,SD,605,US
57754,Lead,SD,605,US
57755,Ludlow,SD,605,US
57756,Manderson,SD,605,US
57758,Mud Butte,SD,605,US
57759,Nemo,SD,605,US
57760,Newell,SD,605,US
57761,New Underwood,SD,605,US
57762,Nisland,SD,605,US
57763,Oelrichs,SD,605,US
57764,Oglala,SD,605,US
57766,Oral,SD,605,US
57767,Owanka,SD,605,US
57769,Piedmont,SD,605,US
57770,Pine Ridge,SD,605,US
57772,Porcupine,SD,605,US
57773,Pringle,SD,605,US
57775,Quinn,SD,605,US
57776,Redig,SD,605,US
57779,Saint Onge,SD,605,US
57780,Scenic,SD,605,US
57782,Smithwick,SD,605,US
57783,Spearfish,SD,605,US
57785,Sturgis,SD,605,US
57787,Union Center,SD,605,US
57788,Vale,SD,605,US
57790,Wall,SD,605,US
57791,Wasta,SD,605,US
57792,White Owl,SD,605,US
57793,Whitewood,SD,605,US
57794,Wounded Knee,SD,605,US
57799,Spearfish,SD,605,US
58001,Abercrombie,ND,701,US
58002,Absaraka,ND,701,US
58004,Amenia,ND,701,US
58005,Argusville,ND,701,US
58006,Arthur,ND,701,US
58007,Ayr,ND,701,US
58008,Barney,ND,701,US
58009,Blanchard,ND,701,US
58011,Buffalo,ND,701,US
58012,Casselton,ND,701,US
58013,Cayuga,ND,701,US
58015,Christine,ND,701,US
58016,Clifford,ND,701,US
58017,Cogswell,ND,701,US
58018,Colfax,ND,701,US
58021,Davenport,ND,701,US
58027,Enderlin,ND,701,US
58029,Erie,ND,701,US
58030,Fairmount,ND,701,US
58031,Fingal,ND,701,US
58032,Forman,ND,701,US
58033,Fort Ransom,ND,701,US
58035,Galesburg,ND,701,US
58036,Gardner,ND,701,US
58038,Grandin,ND,701,US
58040,Gwinner,ND,701,US
58041,Hankinson,ND,701,US
58042,Harwood,ND,701,US
58043,Havana,ND,701,US
58045,Hillsboro,ND,701,US
58046,Hope,ND,701,US
58047,Horace,ND,701,US
58048,Hunter,ND,701,US
58049,Kathryn,ND,701,US
58051,Kindred,ND,701,US
58052,Leonard,ND,701,US
58053,Lidgerwood,ND,701,US
58054,Lisbon,ND,701,US
58056,Luverne,ND,701,US
58057,Mcleod,ND,701,US
58058,Mantador,ND,701,US
58059,Mapleton,ND,701,US
58060,Milnor,ND,701,US
58061,Mooreton,ND,701,US
58062,Nome,ND,701,US
58063,Oriska,ND,701,US
58064,Page,ND,701,US
58065,Pillsbury,ND,701,US
58067,Rutland,ND,701,US
58068,Sheldon,ND,701,US
58069,Stirum,ND,701,US
58071,Tower City,ND,701,US
58072,Valley City,ND,701,US
58074,Wahpeton,ND,701,US
58075,Wahpeton,ND,701,US
58076,Wahpeton,ND,701,US
58077,Walcott,ND,701,US
58078,West Fargo,ND,701,US
58079,Wheatland,ND,701,US
58081,Wyndmere,ND,701,US
58102,Fargo,ND,701,US
58103,Fargo,ND,701,US
58104,Fargo,ND,701,US
58105,Fargo,ND,701,US
58106,Fargo,ND,701,US
58107,Fargo,ND,701,US
58108,Fargo,ND,701,US
58109,Fargo,ND,701,US
58121,Fargo,ND,701,US
58122,Fargo,ND,701,US
58124,Fargo,ND,701,US
58125,Fargo,ND,701,US
58126,Fargo,ND,701,US
58201,Grand Forks,ND,701,US
58202,Grand Forks,ND,701,US
58203,Grand Forks,ND,701,US
58204,Grand Forks Afb,ND,701,US
58205,Grand Forks Afb,ND,701,US
58206,Grand Forks,ND,701,US
58207,Grand Forks,ND,701,US
58208,Grand Forks,ND,701,US
58210,Adams,ND,701,US
58212,Aneta,ND,701,US
58214,Arvilla,ND,701,US
58216,Bathgate,ND,701,US
58218,Buxton,ND,701,US
58219,Caledonia,ND,701,US
58220,Cavalier,ND,701,US
58222,Crystal,ND,701,US
58223,Cummings,ND,701,US
58224,Dahlen,ND,701,US
58225,Drayton,ND,"7,01,218",US
58227,Edinburg,ND,701,US
58228,Emerado,ND,701,US
58229,Fairdale,ND,701,US
58230,Finley,ND,701,US
58231,Fordville,ND,701,US
58233,Forest River,ND,701,US
58235,Gilby,ND,701,US
58236,Glasston,ND,701,US
58237,Grafton,ND,701,US
58238,Hamilton,ND,701,US
58239,Hannah,ND,701,US
58240,Hatton,ND,701,US
58241,Hensel,ND,701,US
58243,Hoople,ND,701,US
58244,Inkster,ND,701,US
58249,Langdon,ND,701,US
58250,Lankin,ND,701,US
58251,Larimore,ND,701,US
58254,Mcville,ND,701,US
58255,Maida,ND,701,US
58256,Manvel,ND,701,US
58257,Mayville,ND,701,US
58258,Mekinock,ND,701,US
58259,Michigan,ND,701,US
58260,Milton,ND,701,US
58261,Minto,ND,701,US
58262,Mountain,ND,701,US
58265,Neche,ND,701,US
58266,Niagara,ND,701,US
58267,Northwood,ND,701,US
58269,Osnabrock,ND,701,US
58270,Park River,ND,701,US
58271,Pembina,ND,701,US
58272,Petersburg,ND,701,US
58273,Pisek,ND,701,US
58274,Portland,ND,701,US
58275,Reynolds,ND,701,US
58276,Saint Thomas,ND,701,US
58277,Sharon,ND,701,US
58278,Thompson,ND,701,US
58281,Wales,ND,701,US
58282,Walhalla,ND,701,US
58301,Devils Lake,ND,701,US
58310,Agate,ND,701,US
58311,Alsen,ND,701,US
58313,Balta,ND,701,US
58316,Belcourt,ND,701,US
58317,Bisbee,ND,701,US
58318,Bottineau,ND,701,US
58319,Bremen,ND,701,US
58321,Brocket,ND,701,US
58323,Calvin,ND,701,US
58324,Cando,ND,701,US
58325,Churchs Ferry,ND,701,US
58327,Crary,ND,701,US
58329,Dunseith,ND,701,US
58330,Edmore,ND,701,US
58331,Egeland,ND,701,US
58332,Esmond,ND,701,US
58335,Fort Totten,ND,701,US
58338,Hampden,ND,701,US
58339,Hansboro,ND,701,US
58341,Harvey,ND,701,US
58343,Knox,ND,701,US
58344,Lakota,ND,701,US
58345,Lawton,ND,701,US
58346,Leeds,ND,701,US
58348,Maddock,ND,701,US
58351,Minnewaukan,ND,701,US
58352,Munich,ND,701,US
58353,Mylo,ND,701,US
58355,Nekoma,ND,701,US
58356,New Rockford,ND,701,US
58357,Oberon,ND,701,US
58361,Pekin,ND,701,US
58362,Penn,ND,701,US
58363,Perth,ND,701,US
58365,Rocklake,ND,701,US
58366,Rolette,ND,701,US
58367,Rolla,ND,701,US
58368,Rugby,ND,701,US
58369,Saint John,ND,701,US
58370,Saint Michael,ND,701,US
58372,Sarles,ND,701,US
58374,Sheyenne,ND,701,US
58377,Starkweather,ND,701,US
58379,Tokio,ND,701,US
58380,Tolna,ND,701,US
58381,Warwick,ND,701,US
58382,Webster,ND,701,US
58384,Willow City,ND,701,US
58385,Wolford,ND,701,US
58386,York,ND,701,US
58401,Jamestown,ND,701,US
58402,Jamestown,ND,701,US
58405,Jamestown,ND,701,US
58413,Ashley,ND,701,US
58415,Berlin,ND,701,US
58416,Binford,ND,701,US
58418,Bowdon,ND,701,US
58420,Buchanan,ND,701,US
58421,Carrington,ND,701,US
58422,Cathay,ND,701,US
58423,Chaseley,ND,701,US
58424,Cleveland,ND,701,US
58425,Cooperstown,ND,701,US
58426,Courtenay,ND,701,US
58428,Dawson,ND,701,US
58429,Dazey,ND,701,US
58430,Denhoff,ND,701,US
58431,Dickey,ND,701,US
58433,Edgeley,ND,701,US
58436,Ellendale,ND,701,US
58438,Fessenden,ND,701,US
58439,Forbes,ND,"6,05,701",US
58440,Fredonia,ND,701,US
58441,Fullerton,ND,701,US
58442,Gackle,ND,701,US
58443,Glenfield,ND,701,US
58444,Goodrich,ND,701,US
58445,Grace City,ND,701,US
58448,Hannaford,ND,701,US
58451,Hurdsfield,ND,701,US
58452,Jessie,ND,701,US
58454,Jud,ND,701,US
58455,Kensal,ND,701,US
58456,Kulm,ND,701,US
58458,Lamoure,ND,701,US
58460,Lehr,ND,701,US
58461,Litchville,ND,701,US
58463,Mcclusky,ND,701,US
58464,Mchenry,ND,701,US
58466,Marion,ND,701,US
58467,Medina,ND,701,US
58472,Montpelier,ND,701,US
58474,Oakes,ND,701,US
58475,Pettibone,ND,701,US
58476,Pingree,ND,701,US
58477,Regan,ND,701,US
58478,Robinson,ND,701,US
58479,Rogers,ND,701,US
58480,Sanborn,ND,701,US
58481,Spiritwood,ND,701,US
58482,Steele,ND,701,US
58483,Streeter,ND,701,US
58484,Sutton,ND,701,US
58486,Sykeston,ND,701,US
58487,Tappen,ND,701,US
58488,Tuttle,ND,701,US
58490,Verona,ND,701,US
58492,Wimbledon,ND,701,US
58494,Wing,ND,701,US
58495,Wishek,ND,701,US
58496,Woodworth,ND,701,US
58497,Ypsilanti,ND,701,US
58501,Bismarck,ND,701,US
58502,Bismarck,ND,701,US
58503,Bismarck,ND,701,US
58504,Bismarck,ND,701,US
58505,Bismarck,ND,701,US
58506,Bismarck,ND,701,US
58507,Bismarck,ND,701,US
58520,Almont,ND,701,US
58521,Baldwin,ND,701,US
58523,Beulah,ND,701,US
58524,Braddock,ND,701,US
58528,Cannon Ball,ND,701,US
58529,Carson,ND,701,US
58530,Center,ND,701,US
58531,Coleharbor,ND,701,US
58532,Driscoll,ND,701,US
58533,Elgin,ND,701,US
58535,Flasher,ND,701,US
58538,Fort Yates,ND,701,US
58540,Garrison,ND,701,US
58541,Golden Valley,ND,701,US
58542,Hague,ND,701,US
58544,Hazelton,ND,701,US
58545,Hazen,ND,701,US
58549,Kintyre,ND,701,US
58552,Linton,ND,701,US
58554,Mandan,ND,701,US
58558,Menoken,ND,701,US
58559,Mercer,ND,701,US
58560,Moffit,ND,701,US
58561,Napoleon,ND,701,US
58562,New Leipzig,ND,701,US
58563,New Salem,ND,701,US
58564,Raleigh,ND,701,US
58565,Riverdale,ND,701,US
58566,Saint Anthony,ND,701,US
58568,Selfridge,ND,701,US
58569,Shields,ND,701,US
58570,Solen,ND,701,US
58571,Stanton,ND,701,US
58572,Sterling,ND,701,US
58573,Strasburg,ND,701,US
58575,Turtle Lake,ND,701,US
58576,Underwood,ND,701,US
58577,Washburn,ND,701,US
58579,Wilton,ND,701,US
58580,Zap,ND,701,US
58581,Zeeland,ND,701,US
58601,Dickinson,ND,701,US
58602,Dickinson,ND,701,US
58620,Amidon,ND,701,US
58621,Beach,ND,701,US
58622,Belfield,ND,701,US
58623,Bowman,ND,"7,01,605",US
58625,Dodge,ND,701,US
58626,Dunn Center,ND,701,US
58627,Fairfield,ND,701,US
58630,Gladstone,ND,701,US
58631,Glen Ullin,ND,701,US
58632,Golva,ND,701,US
58634,Grassy Butte,ND,701,US
58636,Halliday,ND,701,US
58638,Hebron,ND,701,US
58639,Hettinger,ND,"7,01,605",US
58640,Killdeer,ND,701,US
58641,Lefor,ND,701,US
58642,Manning,ND,701,US
58643,Marmarth,ND,701,US
58644,Marshall,ND,701,US
58645,Medora,ND,701,US
58646,Mott,ND,701,US
58647,New England,ND,701,US
58649,Reeder,ND,701,US
58650,Regent,ND,701,US
58651,Rhame,ND,701,US
58652,Richardton,ND,701,US
58653,Scranton,ND,"7,01,605",US
58654,Sentinel Butte,ND,701,US
58655,South Heart,ND,701,US
58656,Taylor,ND,701,US
58701,Minot,ND,701,US
58702,Minot,ND,701,US
58703,Minot,ND,701,US
58704,Minot Afb,ND,701,US
58705,Minot Afb,ND,701,US
58707,Minot,ND,701,US
58710,Anamoose,ND,701,US
58711,Antler,ND,701,US
58712,Balfour,ND,701,US
58713,Bantry,ND,701,US
58716,Benedict,ND,701,US
58718,Berthold,ND,701,US
58721,Bowbells,ND,701,US
58722,Burlington,ND,701,US
58723,Butte,ND,701,US
58725,Carpio,ND,701,US
58727,Columbus,ND,701,US
58730,Crosby,ND,701,US
58731,Deering,ND,701,US
58733,Des Lacs,ND,701,US
58734,Donnybrook,ND,701,US
58735,Douglas,ND,701,US
58736,Drake,ND,701,US
58737,Flaxton,ND,701,US
58740,Glenburn,ND,701,US
58741,Granville,ND,701,US
58744,Karlsruhe,ND,701,US
58746,Kenmare,ND,701,US
58748,Kramer,ND,701,US
58750,Lansford,ND,701,US
58752,Lignite,ND,701,US
58755,Mcgregor,ND,701,US
58756,Makoti,ND,701,US
58757,Mandaree,ND,701,US
58758,Martin,ND,701,US
58759,Max,ND,701,US
58760,Maxbass,ND,701,US
58761,Mohall,ND,701,US
58762,Newburg,ND,701,US
58763,New Town,ND,701,US
58765,Noonan,ND,701,US
58768,Norwich,ND,701,US
58769,Palermo,ND,701,US
58770,Parshall,ND,701,US
58771,Plaza,ND,701,US
58772,Portal,ND,701,US
58773,Powers Lake,ND,701,US
58775,Roseglen,ND,701,US
58776,Ross,ND,701,US
58778,Ruso,ND,701,US
58779,Ryder,ND,701,US
58781,Sawyer,ND,701,US
58782,Sherwood,ND,701,US
58783,Souris,ND,701,US
58784,Stanley,ND,701,US
58785,Surrey,ND,701,US
58787,Tolley,ND,701,US
58788,Towner,ND,701,US
58789,Upham,ND,701,US
58790,Velva,ND,701,US
58792,Voltaire,ND,701,US
58793,Westhope,ND,701,US
58794,White Earth,ND,701,US
58795,Wildrose,ND,701,US
58801,Williston,ND,701,US
58802,Williston,ND,701,US
58830,Alamo,ND,701,US
58831,Alexander,ND,701,US
58833,Ambrose,ND,701,US
58835,Arnegard,ND,701,US
58838,Cartwright,ND,701,US
58843,Epping,ND,701,US
58844,Fortuna,ND,701,US
58845,Grenora,ND,701,US
58847,Keene,ND,701,US
58849,Ray,ND,701,US
58852,Tioga,ND,701,US
58853,Trenton,ND,701,US
58854,Watford City,ND,701,US
58856,Zahl,ND,701,US
59001,Absarokee,MT,406,US
59002,Acton,MT,406,US
59003,Ashland,MT,406,US
59004,Ashland,MT,406,US
59006,Ballantine,MT,406,US
59007,Bearcreek,MT,406,US
59008,Belfry,MT,"4,06,307",US
59010,Bighorn,MT,406,US
59011,Big Timber,MT,406,US
59012,Birney,MT,406,US
59013,Boyd,MT,406,US
59014,Bridger,MT,406,US
59015,Broadview,MT,406,US
59016,Busby,MT,406,US
59018,Clyde Park,MT,406,US
59019,Columbus,MT,406,US
59020,Cooke City,MT,406,US
59022,Crow Agency,MT,406,US
59024,Custer,MT,406,US
59025,Decker,MT,"4,06,307",US
59026,Edgar,MT,406,US
59027,Emigrant,MT,406,US
59028,Fishtail,MT,406,US
59029,Fromberg,MT,406,US
59030,Gardiner,MT,406,US
59031,Garryowen,MT,406,US
59032,Grass Range,MT,406,US
59033,Greycliff,MT,406,US
59034,Hardin,MT,406,US
59035,Fort Smith,MT,406,US
59036,Harlowton,MT,406,US
59037,Huntley,MT,406,US
59038,Hysham,MT,406,US
59039,Ingomar,MT,406,US
59041,Joliet,MT,406,US
59043,Lame Deer,MT,406,US
59044,Laurel,MT,406,US
59046,Lavina,MT,406,US
59047,Livingston,MT,406,US
59050,Lodge Grass,MT,406,US
59052,Mc Leod,MT,406,US
59053,Martinsdale,MT,406,US
59054,Melstone,MT,406,US
59055,Melville,MT,406,US
59057,Molt,MT,406,US
59058,Mosby,MT,406,US
59059,Musselshell,MT,406,US
59061,Nye,MT,406,US
59062,Otter,MT,406,US
59063,Park City,MT,406,US
59064,Pompeys Pillar,MT,406,US
59065,Pray,MT,406,US
59066,Pryor,MT,406,US
59067,Rapelje,MT,406,US
59068,Red Lodge,MT,406,US
59069,Reed Point,MT,406,US
59070,Roberts,MT,406,US
59071,Roscoe,MT,406,US
59072,Roundup,MT,406,US
59073,Roundup,MT,406,US
59074,Ryegate,MT,406,US
59075,Saint Xavier,MT,406,US
59076,Sanders,MT,406,US
59077,Sand Springs,MT,406,US
59078,Shawmut,MT,406,US
59079,Shepherd,MT,406,US
59081,Silver Gate,MT,406,US
59082,Springdale,MT,406,US
59083,Sumatra,MT,406,US
59084,Teigen,MT,406,US
59085,Two Dot,MT,406,US
59086,Wilsall,MT,406,US
59087,Winnett,MT,406,US
59088,Worden,MT,406,US
59089,Wyola,MT,406,US
59101,Billings,MT,406,US
59102,Billings,MT,406,US
59103,Billings,MT,406,US
59104,Billings,MT,406,US
59105,Billings,MT,406,US
59106,Billings,MT,406,US
59107,Billings,MT,406,US
59108,Billings,MT,406,US
59111,Billings,MT,406,US
59112,Billings,MT,406,US
59114,Billings,MT,406,US
59115,Billings,MT,406,US
59116,Billings,MT,406,US
59117,Billings,MT,406,US
59201,Wolf Point,MT,406,US
59211,Antelope,MT,406,US
59212,Bainville,MT,406,US
59213,Brockton,MT,406,US
59214,Brockway,MT,406,US
59215,Circle,MT,406,US
59217,Crane,MT,406,US
59218,Culbertson,MT,406,US
59219,Dagmar,MT,406,US
59221,Fairview,MT,"4,06,701",US
59222,Flaxville,MT,406,US
59223,Fort Peck,MT,406,US
59225,Frazer,MT,406,US
59226,Froid,MT,406,US
59230,Glasgow,MT,406,US
59231,Saint Marie,MT,406,US
59240,Glentana,MT,406,US
59241,Hinsdale,MT,406,US
59242,Homestead,MT,406,US
59243,Lambert,MT,406,US
59244,Larslan,MT,406,US
59247,Medicine Lake,MT,406,US
59248,Nashua,MT,406,US
59250,Opheim,MT,406,US
59252,Outlook,MT,406,US
59253,Peerless,MT,406,US
59254,Plentywood,MT,406,US
59255,Poplar,MT,406,US
59256,Raymond,MT,406,US
59257,Redstone,MT,406,US
59258,Reserve,MT,406,US
59259,Richey,MT,406,US
59260,Richland,MT,406,US
59261,Saco,MT,406,US
59262,Savage,MT,406,US
59263,Scobey,MT,406,US
59270,Sidney,MT,"4,06,701",US
59273,Vandalia,MT,406,US
59274,Vida,MT,406,US
59275,Westby,MT,"4,06,701",US
59276,Whitetail,MT,406,US
59301,Miles City,MT,406,US
59311,Alzada,MT,"3,07,406",US
59312,Angela,MT,406,US
59313,Baker,MT,406,US
59314,Biddle,MT,406,US
59315,Bloomfield,MT,406,US
59316,Boyes,MT,406,US
59317,Broadus,MT,406,US
59318,Brusett,MT,406,US
59319,Capitol,MT,406,US
59322,Cohagen,MT,406,US
59323,Colstrip,MT,406,US
59324,Ekalaka,MT,406,US
59326,Fallon,MT,406,US
59327,Forsyth,MT,406,US
59330,Glendive,MT,406,US
59332,Hammond,MT,406,US
59333,Hathaway,MT,406,US
59336,Ismay,MT,406,US
59337,Jordan,MT,406,US
59338,Kinsey,MT,406,US
59339,Lindsay,MT,406,US
59341,Mildred,MT,406,US
59343,Olive,MT,406,US
59344,Plevna,MT,406,US
59345,Powderville,MT,406,US
59347,Rosebud,MT,406,US
59349,Terry,MT,406,US
59351,Volborg,MT,406,US
59353,Wibaux,MT,406,US
59354,Willard,MT,406,US
59401,Great Falls,MT,406,US
59402,Malmstrom A F B,MT,406,US
59403,Great Falls,MT,406,US
59404,Great Falls,MT,406,US
59405,Great Falls,MT,406,US
59406,Great Falls,MT,406,US
59410,Augusta,MT,406,US
59411,Babb,MT,406,US
59412,Belt,MT,406,US
59414,Black Eagle,MT,406,US
59416,Brady,MT,406,US
59417,Browning,MT,406,US
59418,Buffalo,MT,406,US
59419,Bynum,MT,406,US
59420,Carter,MT,406,US
59421,Cascade,MT,406,US
59422,Choteau,MT,406,US
59424,Coffee Creek,MT,406,US
59425,Conrad,MT,406,US
59427,Cut Bank,MT,406,US
59430,Denton,MT,406,US
59432,Dupuyer,MT,406,US
59433,Dutton,MT,406,US
59434,East Glacier Park,MT,406,US
59435,Ethridge,MT,406,US
59436,Fairfield,MT,406,US
59440,Floweree,MT,406,US
59441,Forest Grove,MT,406,US
59442,Fort Benton,MT,406,US
59443,Fort Shaw,MT,406,US
59444,Galata,MT,406,US
59446,Geraldine,MT,406,US
59447,Geyser,MT,406,US
59448,Heart Butte,MT,406,US
59450,Highwood,MT,406,US
59451,Hilger,MT,406,US
59452,Hobson,MT,406,US
59453,Judith Gap,MT,406,US
59454,Kevin,MT,406,US
59456,Ledger,MT,406,US
59457,Lewistown,MT,406,US
59460,Loma,MT,406,US
59461,Lothair,MT,406,US
59462,Moccasin,MT,406,US
59463,Monarch,MT,406,US
59464,Moore,MT,406,US
59465,Neihart,MT,406,US
59466,Oilmont,MT,406,US
59467,Pendroy,MT,406,US
59468,Power,MT,406,US
59469,Raynesford,MT,406,US
59471,Roy,MT,406,US
59472,Sand Coulee,MT,406,US
59474,Shelby,MT,406,US
59477,Simms,MT,406,US
59479,Stanford,MT,406,US
59480,Stockett,MT,406,US
59482,Sunburst,MT,406,US
59483,Sun River,MT,406,US
59484,Sweet Grass,MT,406,US
59485,Ulm,MT,406,US
59486,Valier,MT,406,US
59487,Vaughn,MT,406,US
59489,Winifred,MT,406,US
59501,Havre,MT,406,US
59520,Big Sandy,MT,406,US
59521,Box Elder,MT,406,US
59522,Chester,MT,406,US
59523,Chinook,MT,406,US
59524,Dodson,MT,406,US
59525,Gildford,MT,406,US
59526,Harlem,MT,406,US
59527,Hays,MT,406,US
59528,Hingham,MT,406,US
59529,Hogeland,MT,406,US
59530,Inverness,MT,406,US
59531,Joplin,MT,406,US
59532,Kremlin,MT,406,US
59535,Lloyd,MT,406,US
59537,Loring,MT,406,US
59538,Malta,MT,406,US
59540,Rudyard,MT,406,US
59542,Turner,MT,406,US
59544,Whitewater,MT,406,US
59545,Whitlash,MT,406,US
59546,Zortman,MT,406,US
59547,Zurich,MT,406,US
59601,Helena,MT,406,US
59602,Helena,MT,406,US
59604,Helena,MT,406,US
59620,Helena,MT,406,US
59623,Helena,MT,406,US
59624,Helena,MT,406,US
59625,Helena,MT,406,US
59626,Helena,MT,406,US
59631,Basin,MT,406,US
59632,Boulder,MT,406,US
59633,Canyon Creek,MT,406,US
59634,Clancy,MT,406,US
59635,East Helena,MT,406,US
59636,Fort Harrison,MT,406,US
59638,Jefferson City,MT,406,US
59639,Lincoln,MT,406,US
59640,Marysville,MT,406,US
59641,Radersburg,MT,406,US
59642,Ringling,MT,406,US
59643,Toston,MT,406,US
59644,Townsend,MT,406,US
59645,White Sulphur Springs,MT,406,US
59647,Winston,MT,406,US
59648,Wolf Creek,MT,406,US
59701,Butte,MT,406,US
59702,Butte,MT,406,US
59703,Butte,MT,406,US
59707,Butte,MT,406,US
59710,Alder,MT,406,US
59711,Anaconda,MT,406,US
59713,Avon,MT,406,US
59714,Belgrade,MT,406,US
59715,Bozeman,MT,406,US
59716,Big Sky,MT,406,US
59717,Bozeman,MT,406,US
59718,Bozeman,MT,406,US
59719,Bozeman,MT,406,US
59720,Cameron,MT,406,US
59721,Cardwell,MT,406,US
59722,Deer Lodge,MT,406,US
59724,Dell,MT,406,US
59725,Dillon,MT,406,US
59727,Divide,MT,406,US
59728,Elliston,MT,406,US
59729,Ennis,MT,406,US
59730,Gallatin Gateway,MT,406,US
59731,Garrison,MT,406,US
59732,Glen,MT,406,US
59733,Gold Creek,MT,406,US
59735,Harrison,MT,406,US
59736,Jackson,MT,406,US
59739,Lima,MT,406,US
59740,Mc Allister,MT,406,US
59741,Manhattan,MT,406,US
59743,Melrose,MT,406,US
59745,Norris,MT,406,US
59746,Polaris,MT,406,US
59747,Pony,MT,406,US
59748,Ramsay,MT,406,US
59749,Sheridan,MT,406,US
59750,Butte,MT,406,US
59751,Silver Star,MT,406,US
59752,Three Forks,MT,406,US
59754,Twin Bridges,MT,406,US
59755,Virginia City,MT,406,US
59756,Warm Springs,MT,406,US
59758,West Yellowstone,MT,406,US
59759,Whitehall,MT,406,US
59760,Willow Creek,MT,406,US
59761,Wisdom,MT,406,US
59762,Wise River,MT,406,US
59771,Bozeman,MT,406,US
59772,Bozeman,MT,406,US
59773,Bozeman,MT,406,US
59801,Missoula,MT,406,US
59802,Missoula,MT,406,US
59803,Missoula,MT,406,US
59804,Missoula,MT,406,US
59806,Missoula,MT,406,US
59807,Missoula,MT,406,US
59808,Missoula,MT,406,US
59812,Missoula,MT,406,US
59820,Alberton,MT,406,US
59821,Arlee,MT,406,US
59823,Bonner,MT,406,US
59824,Charlo,MT,406,US
59825,Clinton,MT,406,US
59826,Condon,MT,406,US
59827,Conner,MT,406,US
59828,Corvallis,MT,406,US
59829,Darby,MT,406,US
59830,De Borgia,MT,406,US
59831,Dixon,MT,406,US
59832,Drummond,MT,406,US
59833,Florence,MT,406,US
59834,Frenchtown,MT,406,US
59835,Grantsdale,MT,406,US
59837,Hall,MT,406,US
59840,Hamilton,MT,406,US
59841,Pinesdale,MT,406,US
59842,Haugan,MT,406,US
59843,Helmville,MT,406,US
59844,Heron,MT,406,US
59845,Hot Springs,MT,406,US
59846,Huson,MT,406,US
59847,Lolo,MT,"2,08,406",US
59848,Lonepine,MT,406,US
59851,Milltown,MT,406,US
59853,Noxon,MT,406,US
59854,Ovando,MT,406,US
59855,Pablo,MT,406,US
59856,Paradise,MT,406,US
59858,Philipsburg,MT,406,US
59859,Plains,MT,406,US
59860,Polson,MT,406,US
59863,Ravalli,MT,406,US
59864,Ronan,MT,406,US
59865,Saint Ignatius,MT,406,US
59866,Saint Regis,MT,406,US
59867,Saltese,MT,406,US
59868,Seeley Lake,MT,406,US
59870,Stevensville,MT,406,US
59871,Sula,MT,406,US
59872,Superior,MT,406,US
59873,Thompson Falls,MT,406,US
59874,Trout Creek,MT,406,US
59875,Victor,MT,406,US
59901,Kalispell,MT,406,US
59903,Kalispell,MT,406,US
59904,Kalispell,MT,406,US
59910,Big Arm,MT,406,US
59911,Bigfork,MT,406,US
59912,Columbia Falls,MT,406,US
59913,Coram,MT,406,US
59914,Dayton,MT,406,US
59915,Elmo,MT,406,US
59916,Essex,MT,406,US
59917,Eureka,MT,406,US
59918,Fortine,MT,406,US
59919,Hungry Horse,MT,406,US
59920,Kila,MT,406,US
59921,Lake Mc Donald,MT,406,US
59922,Lakeside,MT,406,US
59923,Libby,MT,406,US
59925,Marion,MT,406,US
59926,Martin City,MT,406,US
59927,Olney,MT,406,US
59928,Polebridge,MT,406,US
59929,Proctor,MT,406,US
59930,Rexford,MT,406,US
59931,Rollins,MT,406,US
59932,Somers,MT,406,US
59933,Stryker,MT,406,US
59934,Trego,MT,406,US
59935,Troy,MT,406,US
59936,West Glacier,MT,406,US
59937,Whitefish,MT,406,US
60001,Alden,IL,,US
60002,Antioch,IL,"8,47,224",US
60004,Arlington Heights,IL,"84,73,12,224",US
60005,Arlington Heights,IL,"6,30,84,77,73,224",US
60006,Arlington Heights,IL,847,US
60007,Elk Grove Village,IL,"84,77,73,63,02,24,708",US
60008,Rolling Meadows,IL,"7,08,84,73,12,224",US
60009,Elk Grove Village,IL,847,US
60010,Barrington,IL,"8,47,63,03,12,224",US
60011,Barrington,IL,847,US
60012,Crystal Lake,IL,815,US
60013,Cary,IL,"6,30,81,58,47,224",US
60014,Crystal Lake,IL,"81,56,30,312",US
60015,Deerfield,IL,"8,47,63,02,24,31,27,08,000",US
60016,Des Plaines,IL,"6,30,84,77,73,224",US
60017,Des Plaines,IL,847,US
60018,Des Plaines,IL,"7,08,77,38,47,31,26,30,000",US
60019,Des Plaines,IL,224,US
60020,Fox Lake,IL,"8,47,224",US
60021,Fox River Grove,IL,847,US
60022,Glencoe,IL,847,US
60025,Glenview,IL,"3,12,847",US
60026,Glenview,IL,"2,24,31,26,30,70,88,15,000",US
60029,Golf,IL,,US
60030,Grayslake,IL,847,US
60031,Gurnee,IL,847,US
60033,Harvard,IL,815,US
60034,Hebron,IL,815,US
60035,Highland Park,IL,"8,47,630",US
60037,Fort Sheridan,IL,"8,47,224",US
60038,Palatine,IL,224,US
60039,Crystal Lake,IL,815,US
60040,Highwood,IL,847,US
60041,Ingleside,IL,"8,15,847",US
60042,Island Lake,IL,847,US
60043,Kenilworth,IL,847,US
60044,Lake Bluff,IL,"8,47,224",US
60045,Lake Forest,IL,"8,47,224",US
60046,Lake Villa,IL,"8,47,224",US
60047,Lake Zurich,IL,"84,73,12,224",US
60048,Libertyville,IL,"84,77,73,224",US
60049,Lake Zurich,IL,847,US
60050,Mchenry,IL,"8,15,847",US
60051,Mchenry,IL,815,US
60053,Morton Grove,IL,"8,47,224",US
60055,Palatine,IL,224,US
60056,Mount Prospect,IL,"84,77,73,22,46,30,708",US
60060,Mundelein,IL,"8,47,224",US
60061,Vernon Hills,IL,"84,76,30,224",US
60062,Northbrook,IL,"63,08,47,70,82,24,312",US
60064,North Chicago,IL,"8,47,224",US
60065,Northbrook,IL,"6,30,847",US
60067,Palatine,IL,"8,47,224",US
60068,Park Ridge,IL,"3,12,84,76,30,224",US
60069,Lincolnshire,IL,"84,73,12,224",US
60070,Prospect Heights,IL,"8,47,31,26,30,708",US
60071,Richmond,IL,815,US
60072,Ringwood,IL,815,US
60073,Round Lake,IL,"84,77,73,224",US
60074,Palatine,IL,"84,76,30,224",US
60075,Russell,IL,,US
60076,Skokie,IL,"8,47,773",US
60077,Skokie,IL,"84,77,73,224",US
60078,Palatine,IL,847,US
60079,Waukegan,IL,847,US
60081,Spring Grove,IL,"70,88,15,847",US
60082,Techny,IL,,US
60083,Wadsworth,IL,847,US
60084,Wauconda,IL,"8,47,224",US
60085,Waukegan,IL,"8,47,224",US
60086,North Chicago,IL,224,US
60087,Waukegan,IL,"8,47,224",US
60088,Great Lakes,IL,847,US
60089,Buffalo Grove,IL,"8,47,70,83,12,630",US
60090,Wheeling,IL,"3,12,63,08,15,84,77,08,000",US
60091,Wilmette,IL,847,US
60092,Libertyville,IL,224,US
60093,Winnetka,IL,847,US
60094,Palatine,IL,224,US
60095,Palatine,IL,"2,24,847",US
60096,Winthrop Harbor,IL,"8,47,224",US
60097,Wonder Lake,IL,815,US
60098,Woodstock,IL,815,US
60099,Zion,IL,"8,47,224",US
60101,Addison,IL,630,US
60102,Algonquin,IL,"31,28,47,224",US
60103,Bartlett,IL,630,US
60104,Bellwood,IL,708,US
60105,Bensenville,IL,630,US
60106,Bensenville,IL,"6,30,84,73,12,708",US
60107,Streamwood,IL,"6,30,847",US
60108,Bloomingdale,IL,"63,07,08,847",US
60109,Burlington,IL,847,US
60110,Carpentersville,IL,847,US
60111,Clare,IL,815,US
60112,Cortland,IL,815,US
60113,Creston,IL,815,US
60115,Dekalb,IL,815,US
60116,Carol Stream,IL,630,US
60117,Bloomingdale,IL,630,US
60118,Dundee,IL,"8,47,224",US
60119,Elburn,IL,630,US
60120,Elgin,IL,"8,47,224",US
60121,Elgin,IL,224,US
60122,Carol Stream,IL,630,US
60123,Elgin,IL,"8,47,70,82,24,630",US
60124,Elgin,IL,224,US
60125,Carol Stream,IL,630,US
60126,Elmhurst,IL,"63,07,73,708",US
60128,Carol Stream,IL,630,US
60129,Esmond,IL,815,US
60130,Forest Park,IL,"6,30,708",US
60131,Franklin Park,IL,"84,77,08,773",US
60132,Carol Stream,IL,630,US
60133,Hanover Park,IL,"63,08,47,224",US
60134,Geneva,IL,"63,08,47,331",US
60135,Genoa,IL,"8,15,779",US
60136,Gilberts,IL,847,US
60137,Glen Ellyn,IL,"6,30,847",US
60138,Glen Ellyn,IL,630,US
60139,Glendale Heights,IL,630,US
60140,Hampshire,IL,"8,47,224",US
60141,Hines,IL,708,US
60142,Huntley,IL,"84,78,15,224",US
60143,Itasca,IL,"6,30,708",US
60144,Kaneville,IL,630,US
60145,Kingston,IL,815,US
60146,Kirkland,IL,815,US
60147,Lafox,IL,,US
60148,Lombard,IL,"6,30,77,33,12,847",US
60150,Malta,IL,815,US
60151,Maple Park,IL,"8,15,630",US
60152,Marengo,IL,815,US
60153,Maywood,IL,"7,08,773",US
60154,Westchester,IL,"63,07,08,314",US
60155,Broadview,IL,"7,73,708",US
60156,Lake In The Hills,IL,"8,47,224",US
60157,Medinah,IL,"63,02,24,31,27,08,847",US
60159,Schaumburg,IL,847,US
60160,Melrose Park,IL,"7,08,630",US
60161,Melrose Park,IL,708,US
60162,Hillside,IL,708,US
60163,Berkeley,IL,708,US
60164,Melrose Park,IL,"70,88,47,630",US
60165,Stone Park,IL,708,US
60168,Schaumburg,IL,847,US
60169,Hoffman Estates,IL,224,US
60170,Plato Center,IL,847,US
60171,River Grove,IL,"6,30,708",US
60172,Roselle,IL,"63,08,47,224",US
60173,Schaumburg,IL,"70,88,47,77,36,30,224",US
60174,Saint Charles,IL,"6,30,847",US
60175,Saint Charles,IL,"6,30,847",US
60176,Schiller Park,IL,"84,77,08,773",US
60177,South Elgin,IL,"84,72,24,630",US
60178,Sycamore,IL,"81,57,08,847",US
60179,Hoffman Estates,IL,847,US
60180,Union,IL,815,US
60181,Villa Park,IL,"31,26,30,708",US
60183,Wasco,IL,,US
60184,Wayne,IL,630,US
60185,West Chicago,IL,"6,30,708",US
60186,West Chicago,IL,630,US
60187,Wheaton,IL,630,US
60188,Carol Stream,IL,630,US
60189,Wheaton,IL,630,US
60190,Winfield,IL,630,US
60191,Wood Dale,IL,"6,30,84,77,08,773",US
60192,Hoffman Estates,IL,847,US
60193,Schaumburg,IL,"84,76,30,22,43,12,708",US
60194,Schaumburg,IL,"8,47,708",US
60195,Schaumburg,IL,"8,47,708",US
60196,Schaumburg,IL,847,US
60197,Carol Stream,IL,630,US
60199,Carol Stream,IL,630,US
60201,Evanston,IL,"8,47,312",US
60202,Evanston,IL,"8,47,224",US
60203,Evanston,IL,"8,47,224",US
60204,Evanston,IL,847,US
60208,Evanston,IL,847,US
60209,Evanston,IL,224,US
60290,Chicago,IL,312,US
60301,Oak Park,IL,"7,08,773",US
60302,Oak Park,IL,"31,27,08,773",US
60303,Oak Park,IL,708,US
60304,Oak Park,IL,"7,08,630",US
60305,River Forest,IL,"7,08,630",US
60399,Wood Dale,IL,630,US
60401,Beecher,IL,"7,08,815",US
60402,Berwyn,IL,"70,87,73,630",US
60403,Crest Hill,IL,,US
60404,Shorewood,IL,,US
60406,Blue Island,IL,"31,27,08,630",US
60407,Braceville,IL,815,US
60408,Braidwood,IL,815,US
60409,Calumet City,IL,708,US
60410,Channahon,IL,815,US
60411,Chicago Heights,IL,708,US
60412,Chicago Heights,IL,"7,08,773",US
60415,Chicago Ridge,IL,708,US
60416,Coal City,IL,815,US
60417,Crete,IL,708,US
60419,Dolton,IL,"7,08,630",US
60420,Dwight,IL,"8,15,630",US
60421,Elwood,IL,815,US
60422,Flossmoor,IL,708,US
60423,Frankfort,IL,"8,15,708",US
60424,Gardner,IL,815,US
60425,Glenwood,IL,708,US
60426,Harvey,IL,708,US
60428,Markham,IL,708,US
60429,Hazel Crest,IL,708,US
60430,Homewood,IL,708,US
60431,Joliet,IL,815,US
60432,Joliet,IL,"81,57,08,779",US
60433,Joliet,IL,815,US
60434,Joliet,IL,815,US
60435,Joliet,IL,815,US
60436,Joliet,IL,815,US
60437,Kinsman,IL,815,US
60438,Lansing,IL,708,US
60439,Lemont,IL,630,US
60440,Bolingbrook,IL,"6,30,815",US
60441,Lockport,IL,"70,88,15,630",US
60442,Manhattan,IL,815,US
60443,Matteson,IL,708,US
60444,Mazon,IL,815,US
60445,Midlothian,IL,708,US
60446,Romeoville,IL,"8,15,630",US
60447,Minooka,IL,815,US
60448,Mokena,IL,"7,08,815",US
60449,Monee,IL,708,US
60450,Morris,IL,815,US
60451,New Lenox,IL,815,US
60452,Oak Forest,IL,708,US
60453,Oak Lawn,IL,"7,08,312",US
60454,Oak Lawn,IL,708,US
60455,Bridgeview,IL,"7,08,630",US
60456,Hometown,IL,708,US
60457,Hickory Hills,IL,708,US
60458,Justice,IL,708,US
60459,Burbank,IL,708,US
60460,Odell,IL,815,US
60461,Olympia Fields,IL,708,US
60462,Orland Park,IL,708,US
60463,Palos Heights,IL,708,US
60464,Palos Park,IL,708,US
60465,Palos Hills,IL,"7,08,773",US
60466,Park Forest,IL,708,US
60467,Orland Park,IL,708,US
60468,Peotone,IL,708,US
60469,Posen,IL,708,US
60470,Ransom,IL,815,US
60471,Richton Park,IL,708,US
60472,Robbins,IL,708,US
60473,South Holland,IL,708,US
60474,South Wilmington,IL,815,US
60475,Steger,IL,708,US
60476,Thornton,IL,708,US
60477,Tinley Park,IL,"7,08,815",US
60478,Country Club Hills,IL,"70,87,73,312",US
60479,Verona,IL,815,US
60480,Willow Springs,IL,708,US
60481,Wilmington,IL,"8,15,779",US
60482,Worth,IL,708,US
60484,University Park,IL,,US
60487,Tinley Park,IL,708,US
60490,Bolingbrook,IL,630,US
60491,Homer Glen,IL,,US
60499,Bedford Park,IL,,US
60501,Summit Argo,IL,708,US
60502,Aurora,IL,630,US
60503,Aurora,IL,630,US
60504,Aurora,IL,"6,30,847",US
60505,Aurora,IL,"63,03,12,331",US
60506,Aurora,IL,630,US
60507,Aurora,IL,630,US
60510,Batavia,IL,"63,07,08,847",US
60511,Big Rock,IL,630,US
60512,Bristol,IL,630,US
60513,Brookfield,IL,"70,83,12,63,08,15,847",US
60514,Clarendon Hills,IL,"6,30,31,27,08,847",US
60515,Downers Grove,IL,"6,30,708",US
60516,Downers Grove,IL,"6,30,773",US
60517,Woodridge,IL,630,US
60518,Earlville,IL,815,US
60519,Eola,IL,630,US
60520,Hinckley,IL,815,US
60521,Hinsdale,IL,"6,30,708",US
60522,Hinsdale,IL,"31,26,30,708",US
60523,Oak Brook,IL,"6,30,81,57,08,31,28,47,000",US
60525,La Grange,IL,"6,30,70,87,73,847",US
60526,La Grange Park,IL,708,US
60527,Willowbrook,IL,"63,07,08,312",US
60530,Lee,IL,815,US
60531,Leland,IL,815,US
60532,Lisle,IL,"6,30,847",US
60534,Lyons,IL,"7,08,773",US
60536,Millbrook,IL,,US
60537,Millington,IL,815,US
60538,Montgomery,IL,630,US
60539,Mooseheart,IL,630,US
60540,Naperville,IL,630,US
60541,Newark,IL,"8,15,630",US
60542,North Aurora,IL,630,US
60543,Oswego,IL,"6,30,847",US
60544,Plainfield,IL,"81,56,30,312",US
60545,Plano,IL,"6,30,815",US
60546,Riverside,IL,"70,87,73,630",US
60548,Sandwich,IL,"8,15,630",US
60549,Serena,IL,815,US
60550,Shabbona,IL,815,US
60551,Sheridan,IL,"8,15,630",US
60552,Somonauk,IL,815,US
60553,Steward,IL,815,US
60554,Sugar Grove,IL,630,US
60555,Warrenville,IL,630,US
60556,Waterman,IL,815,US
60557,Wedron,IL,815,US
60558,Western Springs,IL,"70,83,12,63,08,47,815",US
60559,Westmont,IL,630,US
60560,Yorkville,IL,"6,30,815",US
60561,Darien,IL,"31,26,30,708",US
60563,Naperville,IL,"6,30,847",US
60564,Naperville,IL,630,US
60565,Naperville,IL,630,US
60566,Naperville,IL,630,US
60567,Naperville,IL,630,US
60568,Aurora,IL,630,US
60570,Hinsdale,IL,630,US
60572,Aurora,IL,630,US
60585,Plainfield,IL,815,US
60586,Plainfield,IL,815,US
60597,Fox Valley,IL,630,US
60598,Aurora,IL,630,US
60599,Fox Valley,IL,630,US
60601,Chicago,IL,"31,27,73,630",US
60602,Chicago,IL,"31,26,30,773",US
60603,Chicago,IL,"3,12,63,07,73,21,77,08,000",US
60604,Chicago,IL,"31,26,30,77,32,24,708",US
60605,Chicago,IL,"31,27,73,21,76,30,708",US
60606,Chicago,IL,"3,12,77,38,47,63,07,08,000",US
60607,Chicago,IL,"31,27,73,847",US
60608,Chicago,IL,"31,27,73,630",US
60609,Chicago,IL,"7,73,312",US
60610,Chicago,IL,"31,27,73,630",US
60611,Chicago,IL,"31,27,73,630",US
60612,Chicago,IL,"3,12,773",US
60613,Chicago,IL,"7,73,312",US
60614,Chicago,IL,"3,12,773",US
60615,Chicago,IL,"77,33,12,847",US
60616,Chicago,IL,"31,27,73,630",US
60617,Chicago,IL,"77,33,12,708",US
60618,Chicago,IL,"77,38,47,312",US
60619,Chicago,IL,"7,73,312",US
60620,Chicago,IL,"7,73,312",US
60621,Chicago,IL,"7,73,312",US
60622,Chicago,IL,"31,27,73,847",US
60623,Chicago,IL,"77,33,12,708",US
60624,Chicago,IL,"7,73,312",US
60625,Chicago,IL,"31,27,73,847",US
60626,Chicago,IL,"77,33,12,847",US
60628,Chicago,IL,"77,33,12,847",US
60629,Chicago,IL,"70,87,73,312",US
60630,Chicago,IL,"77,38,47,312",US
60631,Chicago,IL,"7,73,70,88,47,224",US
60632,Chicago,IL,"77,38,47,312",US
60633,Chicago,IL,"31,27,73,708",US
60634,Chicago,IL,"31,27,73,847",US
60636,Chicago,IL,"7,73,312",US
60637,Chicago,IL,"3,12,773",US
60638,Chicago,IL,"7,08,77,33,12,630",US
60639,Chicago,IL,"7,73,84,73,12,815",US
60640,Chicago,IL,"31,27,73,847",US
60641,Chicago,IL,"31,27,73,630",US
60642,Chicago,IL,312,US
60643,Chicago,IL,"31,27,73,847",US
60644,Chicago,IL,"7,73,312",US
60645,Chicago,IL,"77,33,12,847",US
60646,Chicago,IL,"77,38,47,312",US
60647,Chicago,IL,"3,12,773",US
60649,Chicago,IL,"77,33,12,847",US
60651,Chicago,IL,"77,33,12,847",US
60652,Chicago,IL,"7,73,312",US
60653,Chicago,IL,"7,73,312",US
60654,Chicago,IL,"3,12,70,87,73,815",US
60655,Chicago,IL,"7,73,312",US
60656,Chicago,IL,"31,27,73,84,77,08,224",US
60657,Chicago,IL,"3,12,773",US
60659,Chicago,IL,"77,33,12,847",US
60660,Chicago,IL,"77,38,47,312",US
60661,Chicago,IL,"63,03,12,77,38,47,708",US
60663,Chicago,IL,312,US
60664,Chicago,IL,773,US
60666,Chicago,IL,773,US
60668,Chicago,IL,312,US
60669,Chicago,IL,312,US
60670,Chicago,IL,312,US
60673,Chicago,IL,312,US
60674,Chicago,IL,312,US
60675,Chicago,IL,312,US
60677,Chicago,IL,312,US
60678,Chicago,IL,312,US
60679,Chicago,IL,312,US
60680,Chicago,IL,773,US
60681,Chicago,IL,312,US
60682,Chicago,IL,312,US
60684,Chicago,IL,312,US
60685,Chicago,IL,312,US
60686,Chicago,IL,312,US
60687,Chicago,IL,312,US
60688,Chicago,IL,773,US
60689,Chicago,IL,312,US
60690,Chicago,IL,312,US
60691,Chicago,IL,312,US
60693,Chicago,IL,312,US
60694,Chicago,IL,312,US
60695,Chicago,IL,312,US
60696,Chicago,IL,312,US
60697,Chicago,IL,312,US
60699,Chicago,IL,773,US
60701,Chicago,IL,773,US
60706,Harwood Heights,IL,"70,87,73,31,28,47,224",US
60707,Elmwood Park,IL,"70,87,73,312",US
60712,Lincolnwood,IL,"7,73,847",US
60714,Niles,IL,"8,47,773",US
60803,Alsip,IL,708,US
60804,Cicero,IL,"6,30,70,87,73,312",US
60805,Evergreen Park,IL,"7,08,773",US
60827,Riverdale,IL,"7,08,773",US
60901,Kankakee,IL,"7,08,815",US
60910,Aroma Park,IL,815,US
60911,Ashkum,IL,815,US
60912,Beaverville,IL,815,US
60913,Bonfield,IL,815,US
60914,Bourbonnais,IL,815,US
60915,Bradley,IL,815,US
60917,Buckingham,IL,815,US
60918,Buckley,IL,"2,17,815",US
60919,Cabery,IL,815,US
60920,Campus,IL,815,US
60921,Chatsworth,IL,"8,15,217",US
60922,Chebanse,IL,815,US
60924,Cissna Park,IL,"8,15,217",US
60926,Claytonville,IL,815,US
60927,Clifton,IL,815,US
60928,Crescent City,IL,815,US
60929,Cullom,IL,815,US
60930,Danforth,IL,815,US
60931,Donovan,IL,815,US
60932,East Lynn,IL,217,US
60933,Elliott,IL,217,US
60934,Emington,IL,815,US
60935,Essex,IL,815,US
60936,Gibson City,IL,217,US
60938,Gilman,IL,815,US
60939,Goodwine,IL,,US
60940,Grant Park,IL,815,US
60941,Herscher,IL,815,US
60942,Hoopeston,IL,"2,17,815",US
60944,Hopkins Park,IL,815,US
60945,Iroquois,IL,815,US
60946,Kempton,IL,815,US
60948,Loda,IL,217,US
60949,Ludlow,IL,217,US
60950,Manteno,IL,815,US
60951,Martinton,IL,815,US
60952,Melvin,IL,217,US
60953,Milford,IL,815,US
60954,Momence,IL,815,US
60955,Onarga,IL,"8,15,217",US
60956,Papineau,IL,815,US
60957,Paxton,IL,217,US
60958,Pembroke Township,IL,815,US
60959,Piper City,IL,815,US
60960,Rankin,IL,217,US
60961,Reddick,IL,815,US
60962,Roberts,IL,"2,17,815",US
60963,Rossville,IL,217,US
60964,Saint Anne,IL,815,US
60966,Sheldon,IL,815,US
60967,Stockland,IL,815,US
60968,Thawville,IL,"2,17,815",US
60969,Union Hill,IL,815,US
60970,Watseka,IL,815,US
60973,Wellington,IL,815,US
60974,Woodland,IL,815,US
61001,Apple River,IL,815,US
61006,Ashton,IL,815,US
61007,Baileyville,IL,815,US
61008,Belvidere,IL,"8,15,779",US
61010,Byron,IL,815,US
61011,Caledonia,IL,815,US
61012,Capron,IL,815,US
61013,Cedarville,IL,815,US
61014,Chadwick,IL,815,US
61015,Chana,IL,815,US
61016,Cherry Valley,IL,815,US
61018,Dakota,IL,815,US
61019,Davis,IL,815,US
61020,Davis Junction,IL,815,US
61021,Dixon,IL,815,US
61024,Durand,IL,815,US
61025,East Dubuque,IL,815,US
61027,Eleroy,IL,815,US
61028,Elizabeth,IL,815,US
61030,Forreston,IL,815,US
61031,Franklin Grove,IL,815,US
61032,Freeport,IL,815,US
61036,Galena,IL,815,US
61037,Galt,IL,,US
61038,Garden Prairie,IL,815,US
61039,German Valley,IL,815,US
61041,Hanover,IL,815,US
61042,Harmon,IL,815,US
61043,Holcomb,IL,815,US
61044,Kent,IL,815,US
61046,Lanark,IL,815,US
61047,Leaf River,IL,815,US
61048,Lena,IL,"8,15,773",US
61049,Lindenwood,IL,815,US
61050,Mc Connell,IL,815,US
61051,Milledgeville,IL,815,US
61052,Monroe Center,IL,815,US
61053,Mount Carroll,IL,815,US
61054,Mount Morris,IL,815,US
61057,Nachusa,IL,815,US
61059,Nora,IL,815,US
61060,Orangeville,IL,815,US
61061,Oregon,IL,815,US
61062,Pearl City,IL,815,US
61063,Pecatonica,IL,815,US
61064,Polo,IL,815,US
61065,Poplar Grove,IL,815,US
61067,Ridott,IL,815,US
61068,Rochelle,IL,815,US
61070,Rock City,IL,815,US
61071,Rock Falls,IL,815,US
61072,Rockton,IL,815,US
61073,Roscoe,IL,815,US
61074,Savanna,IL,815,US
61075,Scales Mound,IL,815,US
61077,Seward,IL,815,US
61078,Shannon,IL,815,US
61079,Shirland,IL,815,US
61080,South Beloit,IL,"81,56,08,779",US
61081,Sterling,IL,815,US
61084,Stillman Valley,IL,815,US
61085,Stockton,IL,815,US
61087,Warren,IL,"8,15,608",US
61088,Winnebago,IL,815,US
61089,Winslow,IL,815,US
61091,Woosung,IL,815,US
61101,Rockford,IL,815,US
61102,Rockford,IL,815,US
61103,Rockford,IL,815,US
61104,Rockford,IL,"8,15,779",US
61105,Rockford,IL,815,US
61106,Rockford,IL,815,US
61107,Rockford,IL,815,US
61108,Rockford,IL,815,US
61109,Rockford,IL,815,US
61110,Rockford,IL,815,US
61111,Loves Park,IL,815,US
61112,Rockford,IL,815,US
61114,Rockford,IL,815,US
61115,Machesney Park,IL,815,US
61125,Rockford,IL,815,US
61126,Rockford,IL,815,US
61130,Loves Park,IL,815,US
61131,Loves Park,IL,815,US
61132,Loves Park,IL,815,US
61201,Rock Island,IL,309,US
61204,Rock Island,IL,309,US
61230,Albany,IL,309,US
61231,Aledo,IL,309,US
61232,Andalusia,IL,309,US
61233,Andover,IL,309,US
61234,Annawan,IL,"3,09,815",US
61235,Atkinson,IL,"3,09,815",US
61236,Barstow,IL,309,US
61237,Buffalo Prairie,IL,309,US
61238,Cambridge,IL,309,US
61239,Carbon Cliff,IL,309,US
61240,Coal Valley,IL,"3,09,563",US
61241,Colona,IL,309,US
61242,Cordova,IL,309,US
61243,Deer Grove,IL,815,US
61244,East Moline,IL,309,US
61250,Erie,IL,309,US
61251,Fenton,IL,"8,15,309",US
61252,Fulton,IL,"8,15,309",US
61254,Geneseo,IL,"3,09,563",US
61256,Hampton,IL,309,US
61257,Hillsdale,IL,309,US
61258,Hooppole,IL,815,US
61259,Illinois City,IL,309,US
61260,Joy,IL,309,US
61261,Lyndon,IL,815,US
61262,Lynn Center,IL,309,US
61263,Matherville,IL,309,US
61264,Milan,IL,309,US
61265,Moline,IL,309,US
61266,Moline,IL,309,US
61270,Morrison,IL,815,US
61272,New Boston,IL,309,US
61273,Orion,IL,309,US
61274,Osco,IL,309,US
61275,Port Byron,IL,309,US
61276,Preemption,IL,309,US
61277,Prophetstown,IL,"8,15,309",US
61278,Rapids City,IL,309,US
61279,Reynolds,IL,309,US
61281,Sherrard,IL,309,US
61282,Silvis,IL,309,US
61283,Tampico,IL,815,US
61284,Taylor Ridge,IL,309,US
61285,Thomson,IL,815,US
61299,Rock Island,IL,309,US
61301,La Salle,IL,815,US
61310,Amboy,IL,815,US
61311,Ancona,IL,815,US
61312,Arlington,IL,815,US
61313,Blackstone,IL,815,US
61314,Buda,IL,"3,09,815",US
61315,Bureau,IL,815,US
61316,Cedar Point,IL,815,US
61317,Cherry,IL,815,US
61318,Compton,IL,815,US
61319,Cornell,IL,815,US
61320,Dalzell,IL,815,US
61321,Dana,IL,815,US
61322,Depue,IL,815,US
61323,Dover,IL,815,US
61324,Eldena,IL,815,US
61325,Grand Ridge,IL,815,US
61326,Granville,IL,815,US
61327,Hennepin,IL,815,US
61328,Kasbeer,IL,,US
61329,Ladd,IL,815,US
61330,La Moille,IL,815,US
61331,Lee Center,IL,815,US
61332,Leonore,IL,815,US
61333,Long Point,IL,815,US
61334,Lostant,IL,815,US
61335,Mc Nabb,IL,815,US
61336,Magnolia,IL,"8,15,309",US
61337,Malden,IL,815,US
61338,Manlius,IL,815,US
61340,Mark,IL,815,US
61341,Marseilles,IL,815,US
61342,Mendota,IL,815,US
61344,Mineral,IL,"3,09,815",US
61345,Neponset,IL,309,US
61346,New Bedford,IL,815,US
61348,Oglesby,IL,815,US
61349,Ohio,IL,815,US
61350,Ottawa,IL,815,US
61353,Paw Paw,IL,815,US
61354,Peru,IL,815,US
61356,Princeton,IL,815,US
61358,Rutland,IL,815,US
61359,Seatonville,IL,815,US
61360,Seneca,IL,815,US
61361,Sheffield,IL,"81,53,09,779",US
61362,Spring Valley,IL,815,US
61363,Standard,IL,815,US
61364,Streator,IL,"8,15,309",US
61367,Sublette,IL,815,US
61368,Tiskilwa,IL,"8,15,309",US
61369,Toluca,IL,"8,15,309",US
61370,Tonica,IL,815,US
61371,Triumph,IL,815,US
61372,Troy Grove,IL,815,US
61373,Utica,IL,815,US
61374,Van Orin,IL,815,US
61375,Varna,IL,309,US
61376,Walnut,IL,815,US
61377,Wenona,IL,815,US
61378,West Brooklyn,IL,815,US
61379,Wyanet,IL,"8,15,309",US
61401,Galesburg,IL,"3,09,217",US
61402,Galesburg,IL,"3,09,217",US
61410,Abingdon,IL,309,US
61411,Adair,IL,309,US
61412,Alexis,IL,309,US
61413,Alpha,IL,309,US
61414,Altona,IL,309,US
61415,Avon,IL,309,US
61416,Bardolph,IL,309,US
61417,Berwick,IL,309,US
61418,Biggsville,IL,309,US
61419,Bishop Hill,IL,309,US
61420,Blandinsville,IL,"3,09,217",US
61421,Bradford,IL,"3,09,815",US
61422,Bushnell,IL,309,US
61423,Cameron,IL,309,US
61424,Camp Grove,IL,309,US
61425,Carman,IL,309,US
61426,Castleton,IL,309,US
61427,Cuba,IL,309,US
61428,Dahinda,IL,309,US
61430,East Galesburg,IL,309,US
61431,Ellisville,IL,309,US
61432,Fairview,IL,309,US
61433,Fiatt,IL,309,US
61434,Galva,IL,309,US
61435,Gerlaw,IL,309,US
61436,Gilson,IL,309,US
61437,Gladstone,IL,309,US
61438,Good Hope,IL,309,US
61439,Henderson,IL,309,US
61440,Industry,IL,309,US
61441,Ipava,IL,309,US
61442,Keithsburg,IL,309,US
61443,Kewanee,IL,"3,09,815",US
61447,Kirkwood,IL,309,US
61448,Knoxville,IL,309,US
61449,La Fayette,IL,309,US
61450,La Harpe,IL,217,US
61451,Laura,IL,309,US
61452,Littleton,IL,309,US
61453,Little York,IL,309,US
61454,Lomax,IL,217,US
61455,Macomb,IL,"3,09,217",US
61458,Maquon,IL,309,US
61459,Marietta,IL,309,US
61460,Media,IL,309,US
61462,Monmouth,IL,309,US
61465,New Windsor,IL,309,US
61466,North Henderson,IL,309,US
61467,Oneida,IL,309,US
61468,Ophiem,IL,309,US
61469,Oquawka,IL,309,US
61470,Prairie City,IL,309,US
61471,Raritan,IL,309,US
61472,Rio,IL,309,US
61473,Roseville,IL,309,US
61474,Saint Augustine,IL,309,US
61475,Sciota,IL,309,US
61476,Seaton,IL,309,US
61477,Smithfield,IL,309,US
61478,Smithshire,IL,309,US
61479,Speer,IL,309,US
61480,Stronghurst,IL,309,US
61482,Table Grove,IL,309,US
61483,Toulon,IL,309,US
61484,Vermont,IL,309,US
61485,Victoria,IL,309,US
61486,Viola,IL,309,US
61488,Wataga,IL,309,US
61489,Williamsfield,IL,309,US
61490,Woodhull,IL,309,US
61491,Wyoming,IL,309,US
61501,Astoria,IL,309,US
61516,Benson,IL,309,US
61517,Brimfield,IL,309,US
61519,Bryant,IL,309,US
61520,Canton,IL,309,US
61523,Chillicothe,IL,309,US
61524,Dunfermline,IL,309,US
61525,Dunlap,IL,309,US
61526,Edelstein,IL,309,US
61528,Edwards,IL,309,US
61529,Elmwood,IL,309,US
61530,Eureka,IL,309,US
61531,Farmington,IL,309,US
61532,Forest City,IL,309,US
61533,Glasford,IL,309,US
61534,Green Valley,IL,309,US
61535,Groveland,IL,309,US
61536,Hanna City,IL,309,US
61537,Henry,IL,309,US
61539,Kingston Mines,IL,309,US
61540,Lacon,IL,309,US
61541,La Rose,IL,309,US
61542,Lewistown,IL,309,US
61543,Liverpool,IL,309,US
61544,London Mills,IL,309,US
61545,Lowpoint,IL,309,US
61546,Manito,IL,309,US
61547,Mapleton,IL,309,US
61548,Metamora,IL,309,US
61550,Morton,IL,309,US
61552,Mossville,IL,309,US
61553,Norris,IL,309,US
61554,Pekin,IL,309,US
61555,Pekin,IL,309,US
61558,Pekin,IL,309,US
61559,Princeville,IL,309,US
61560,Putnam,IL,"8,15,309",US
61561,Roanoke,IL,309,US
61562,Rome,IL,309,US
61563,Saint David,IL,309,US
61564,South Pekin,IL,309,US
61565,Sparland,IL,309,US
61567,Topeka,IL,309,US
61568,Tremont,IL,309,US
61569,Trivoli,IL,309,US
61570,Washburn,IL,309,US
61571,Washington,IL,309,US
61572,Yates City,IL,309,US
61601,Peoria,IL,309,US
61602,Peoria,IL,309,US
61603,Peoria,IL,309,US
61604,Peoria,IL,309,US
61605,Peoria,IL,309,US
61606,Peoria,IL,309,US
61607,Peoria,IL,309,US
61610,Creve Coeur,IL,309,US
61611,East Peoria,IL,"3,09,630",US
61612,Peoria,IL,309,US
61613,Peoria,IL,309,US
61614,Peoria,IL,309,US
61615,Peoria,IL,309,US
61616,Peoria Heights,IL,309,US
61625,Peoria,IL,309,US
61629,Peoria,IL,309,US
61630,Peoria,IL,309,US
61633,Peoria,IL,309,US
61634,Peoria,IL,309,US
61635,East Peoria,IL,309,US
61636,Peoria,IL,309,US
61637,Peoria,IL,309,US
61638,Peoria,IL,309,US
61639,Peoria,IL,309,US
61641,Peoria,IL,309,US
61643,Peoria,IL,309,US
61650,Peoria,IL,309,US
61651,Peoria,IL,309,US
61652,Peoria,IL,309,US
61653,Peoria,IL,309,US
61654,Peoria,IL,309,US
61655,Peoria,IL,309,US
61656,Peoria,IL,309,US
61701,Bloomington,IL,309,US
61702,Bloomington,IL,309,US
61704,Bloomington,IL,309,US
61705,Bloomington,IL,309,US
61709,Bloomington,IL,309,US
61710,Bloomington,IL,309,US
61720,Anchor,IL,309,US
61721,Armington,IL,309,US
61722,Arrowsmith,IL,309,US
61723,Atlanta,IL,"2,17,309",US
61724,Bellflower,IL,309,US
61725,Carlock,IL,309,US
61726,Chenoa,IL,"8,15,309",US
61727,Clinton,IL,217,US
61728,Colfax,IL,309,US
61729,Congerville,IL,309,US
61730,Cooksville,IL,309,US
61731,Cropsey,IL,309,US
61732,Danvers,IL,309,US
61733,Deer Creek,IL,309,US
61734,Delavan,IL,"3,09,217",US
61735,Dewitt,IL,"2,17,309",US
61736,Downs,IL,309,US
61737,Ellsworth,IL,309,US
61738,El Paso,IL,309,US
61739,Fairbury,IL,"8,15,309",US
61740,Flanagan,IL,815,US
61741,Forrest,IL,815,US
61742,Goodfield,IL,309,US
61743,Graymont,IL,815,US
61744,Gridley,IL,309,US
61745,Heyworth,IL,309,US
61747,Hopedale,IL,309,US
61748,Hudson,IL,309,US
61749,Kenney,IL,217,US
61750,Lane,IL,217,US
61751,Lawndale,IL,217,US
61752,Le Roy,IL,309,US
61753,Lexington,IL,309,US
61754,Mc Lean,IL,"3,09,217",US
61755,Mackinaw,IL,309,US
61756,Maroa,IL,217,US
61758,Merna,IL,309,US
61759,Minier,IL,309,US
61760,Minonk,IL,"3,09,815",US
61761,Normal,IL,309,US
61764,Pontiac,IL,815,US
61769,Saunemin,IL,815,US
61770,Saybrook,IL,309,US
61771,Secor,IL,309,US
61772,Shirley,IL,309,US
61773,Sibley,IL,217,US
61774,Stanford,IL,309,US
61775,Strawn,IL,"81,52,17,309",US
61776,Towanda,IL,309,US
61777,Wapella,IL,"2,17,309",US
61778,Waynesville,IL,"2,17,309",US
61790,Normal,IL,309,US
61791,Bloomington,IL,309,US
61799,Bloomington,IL,309,US
61801,Urbana,IL,217,US
61802,Urbana,IL,"6,30,217",US
61803,Urbana,IL,217,US
61810,Allerton,IL,217,US
61811,Alvin,IL,217,US
61812,Armstrong,IL,217,US
61813,Bement,IL,217,US
61814,Bismarck,IL,217,US
61815,Bondville,IL,217,US
61816,Broadlands,IL,217,US
61817,Catlin,IL,217,US
61818,Cerro Gordo,IL,217,US
61820,Champaign,IL,"21,73,12,618",US
61821,Champaign,IL,217,US
61822,Champaign,IL,217,US
61824,Champaign,IL,217,US
61825,Champaign,IL,217,US
61826,Champaign,IL,217,US
61830,Cisco,IL,217,US
61831,Collison,IL,217,US
61832,Danville,IL,217,US
61833,Tilton,IL,217,US
61834,Danville,IL,217,US
61839,De Land,IL,217,US
61840,Dewey,IL,217,US
61841,Fairmount,IL,217,US
61842,Farmer City,IL,"2,17,309",US
61843,Fisher,IL,217,US
61844,Fithian,IL,217,US
61845,Foosland,IL,217,US
61846,Georgetown,IL,217,US
61847,Gifford,IL,217,US
61848,Henning,IL,217,US
61849,Homer,IL,217,US
61850,Indianola,IL,217,US
61851,Ivesdale,IL,217,US
61852,Longview,IL,217,US
61853,Mahomet,IL,217,US
61854,Mansfield,IL,217,US
61855,Milmine,IL,217,US
61856,Monticello,IL,217,US
61857,Muncie,IL,217,US
61858,Oakwood,IL,217,US
61859,Ogden,IL,217,US
61862,Penfield,IL,217,US
61863,Pesotum,IL,217,US
61864,Philo,IL,217,US
61865,Potomac,IL,217,US
61866,Rantoul,IL,217,US
61870,Ridge Farm,IL,217,US
61871,Royal,IL,217,US
61872,Sadorus,IL,217,US
61873,Saint Joseph,IL,217,US
61874,Savoy,IL,217,US
61875,Seymour,IL,217,US
61876,Sidell,IL,217,US
61877,Sidney,IL,217,US
61878,Thomasboro,IL,217,US
61880,Tolono,IL,217,US
61882,Weldon,IL,217,US
61883,Westville,IL,217,US
61884,White Heath,IL,217,US
61910,Arcola,IL,217,US
61911,Arthur,IL,217,US
61912,Ashmore,IL,217,US
61913,Atwood,IL,217,US
61914,Bethany,IL,217,US
61917,Brocton,IL,217,US
61919,Camargo,IL,217,US
61920,Charleston,IL,217,US
61924,Chrisman,IL,217,US
61925,Dalton City,IL,217,US
61928,Gays,IL,217,US
61929,Hammond,IL,217,US
61930,Hindsboro,IL,217,US
61931,Humboldt,IL,217,US
61932,Hume,IL,217,US
61933,Kansas,IL,217,US
61936,La Place,IL,217,US
61937,Lovington,IL,217,US
61938,Mattoon,IL,217,US
61940,Metcalf,IL,217,US
61941,Murdock,IL,217,US
61942,Newman,IL,217,US
61943,Oakland,IL,217,US
61944,Paris,IL,217,US
61949,Redmon,IL,217,US
61951,Sullivan,IL,217,US
61953,Tuscola,IL,217,US
61955,Vermilion,IL,217,US
61956,Villa Grove,IL,217,US
61957,Windsor,IL,217,US
62001,Alhambra,IL,618,US
62002,Alton,IL,618,US
62006,Batchtown,IL,618,US
62009,Benld,IL,217,US
62010,Bethalto,IL,618,US
62011,Bingham,IL,"2,17,618",US
62012,Brighton,IL,618,US
62013,Brussels,IL,618,US
62014,Bunker Hill,IL,618,US
62015,Butler,IL,217,US
62016,Carrollton,IL,217,US
62017,Coffeen,IL,217,US
62018,Cottage Hills,IL,618,US
62019,Donnellson,IL,217,US
62021,Dorsey,IL,618,US
62022,Dow,IL,618,US
62023,Eagarville,IL,217,US
62024,East Alton,IL,618,US
62025,Edwardsville,IL,618,US
62026,Edwardsville,IL,618,US
62027,Eldred,IL,217,US
62028,Elsah,IL,"6,18,314",US
62030,Fidelity,IL,618,US
62031,Fieldon,IL,618,US
62032,Fillmore,IL,217,US
62033,Gillespie,IL,"2,17,618",US
62034,Glen Carbon,IL,618,US
62035,Godfrey,IL,618,US
62036,Golden Eagle,IL,618,US
62037,Grafton,IL,618,US
62040,Granite City,IL,618,US
62044,Greenfield,IL,217,US
62045,Hamburg,IL,618,US
62046,Hamel,IL,618,US
62047,Hardin,IL,618,US
62048,Hartford,IL,618,US
62049,Hillsboro,IL,217,US
62050,Hillview,IL,217,US
62051,Irving,IL,217,US
62052,Jerseyville,IL,618,US
62053,Kampsville,IL,618,US
62054,Kane,IL,217,US
62056,Litchfield,IL,217,US
62058,Livingston,IL,618,US
62059,Lovejoy,IL,618,US
62060,Madison,IL,618,US
62061,Marine,IL,618,US
62062,Maryville,IL,618,US
62063,Medora,IL,618,US
62065,Michael,IL,618,US
62067,Moro,IL,618,US
62069,Mount Olive,IL,217,US
62070,Mozier,IL,618,US
62071,National Stock Yards,IL,618,US
62074,New Douglas,IL,"2,17,618",US
62075,Nokomis,IL,217,US
62076,Ohlman,IL,217,US
62077,Panama,IL,217,US
62078,Patterson,IL,217,US
62079,Piasa,IL,618,US
62080,Ramsey,IL,"6,18,217",US
62081,Rockbridge,IL,618,US
62082,Roodhouse,IL,217,US
62083,Rosamond,IL,217,US
62084,Roxana,IL,618,US
62085,Sawyerville,IL,217,US
62086,Sorento,IL,"2,17,618",US
62087,South Roxana,IL,618,US
62088,Staunton,IL,"6,18,217",US
62089,Taylor Springs,IL,217,US
62090,Venice,IL,618,US
62091,Walshville,IL,217,US
62092,White Hall,IL,217,US
62093,Wilsonville,IL,217,US
62094,Witt,IL,217,US
62095,Wood River,IL,618,US
62097,Worden,IL,618,US
62098,Wrights,IL,217,US
62201,East Saint Louis,IL,618,US
62202,East Saint Louis,IL,618,US
62203,East Saint Louis,IL,618,US
62204,East Saint Louis,IL,618,US
62205,East Saint Louis,IL,618,US
62206,East Saint Louis,IL,618,US
62207,East Saint Louis,IL,618,US
62208,Fairview Heights,IL,618,US
62214,Addieville,IL,618,US
62215,Albers,IL,618,US
62216,Aviston,IL,618,US
62217,Baldwin,IL,618,US
62218,Bartelso,IL,618,US
62219,Beckemeyer,IL,618,US
62220,Belleville,IL,618,US
62221,Belleville,IL,618,US
62222,Belleville,IL,618,US
62223,Belleville,IL,618,US
62224,Mascoutah,IL,618,US
62225,Scott Air Force Base,IL,618,US
62226,Belleville,IL,618,US
62230,Breese,IL,618,US
62231,Carlyle,IL,618,US
62232,Caseyville,IL,618,US
62233,Chester,IL,618,US
62234,Collinsville,IL,618,US
62236,Columbia,IL,618,US
62237,Coulterville,IL,618,US
62238,Cutler,IL,618,US
62239,Dupo,IL,618,US
62240,East Carondelet,IL,618,US
62241,Ellis Grove,IL,618,US
62242,Evansville,IL,618,US
62243,Freeburg,IL,618,US
62244,Fults,IL,618,US
62245,Germantown,IL,618,US
62246,Greenville,IL,"6,18,217",US
62247,Hagarstown,IL,618,US
62248,Hecker,IL,618,US
62249,Highland,IL,618,US
62250,Hoffman,IL,618,US
62252,Huey,IL,618,US
62253,Keyesport,IL,618,US
62254,Lebanon,IL,618,US
62255,Lenzburg,IL,618,US
62256,Maeystown,IL,618,US
62257,Marissa,IL,618,US
62258,Mascoutah,IL,618,US
62259,Menard,IL,618,US
62260,Millstadt,IL,618,US
62261,Modoc,IL,618,US
62262,Mulberry Grove,IL,618,US
62263,Nashville,IL,618,US
62264,New Athens,IL,618,US
62265,New Baden,IL,618,US
62266,New Memphis,IL,618,US
62268,Oakdale,IL,618,US
62269,O Fallon,IL,618,US
62271,Okawville,IL,618,US
62272,Percy,IL,618,US
62273,Pierron,IL,618,US
62274,Pinckneyville,IL,"6,18,608",US
62275,Pocahontas,IL,618,US
62277,Prairie Du Rocher,IL,618,US
62278,Red Bud,IL,618,US
62279,Renault,IL,618,US
62280,Rockwood,IL,618,US
62281,Saint Jacob,IL,618,US
62282,Saint Libory,IL,618,US
62284,Smithboro,IL,618,US
62285,Smithton,IL,618,US
62286,Sparta,IL,618,US
62288,Steeleville,IL,618,US
62289,Summerfield,IL,618,US
62292,Tilden,IL,618,US
62293,Trenton,IL,618,US
62294,Troy,IL,618,US
62295,Valmeyer,IL,618,US
62297,Walsh,IL,618,US
62298,Waterloo,IL,618,US
62301,Quincy,IL,217,US
62305,Quincy,IL,217,US
62306,Quincy,IL,217,US
62311,Augusta,IL,217,US
62312,Barry,IL,217,US
62313,Basco,IL,217,US
62314,Baylis,IL,217,US
62316,Bowen,IL,217,US
62319,Camden,IL,217,US
62320,Camp Point,IL,217,US
62321,Carthage,IL,217,US
62323,Chambersburg,IL,217,US
62324,Clayton,IL,217,US
62325,Coatsburg,IL,217,US
62326,Colchester,IL,309,US
62329,Colusa,IL,217,US
62330,Dallas City,IL,217,US
62334,Elvaston,IL,217,US
62336,Ferris,IL,217,US
62338,Fowler,IL,217,US
62339,Golden,IL,217,US
62340,Griggsville,IL,217,US
62341,Hamilton,IL,217,US
62343,Hull,IL,217,US
62344,Huntsville,IL,217,US
62345,Kinderhook,IL,217,US
62346,La Prairie,IL,217,US
62347,Liberty,IL,217,US
62348,Lima,IL,217,US
62349,Loraine,IL,217,US
62351,Mendon,IL,217,US
62352,Milton,IL,217,US
62353,Mount Sterling,IL,217,US
62354,Nauvoo,IL,217,US
62355,Nebo,IL,217,US
62356,New Canton,IL,217,US
62357,New Salem,IL,217,US
62358,Niota,IL,217,US
62359,Paloma,IL,217,US
62360,Payson,IL,217,US
62361,Pearl,IL,217,US
62362,Perry,IL,217,US
62363,Pittsfield,IL,217,US
62365,Plainville,IL,217,US
62366,Pleasant Hill,IL,217,US
62367,Plymouth,IL,"3,09,217",US
62370,Rockport,IL,217,US
62373,Sutter,IL,217,US
62374,Tennessee,IL,"3,09,217",US
62375,Timewell,IL,217,US
62376,Ursa,IL,217,US
62378,Versailles,IL,217,US
62379,Warsaw,IL,217,US
62380,West Point,IL,217,US
62401,Effingham,IL,217,US
62410,Allendale,IL,618,US
62411,Altamont,IL,"6,18,217",US
62413,Annapolis,IL,618,US
62414,Beecher City,IL,"6,18,217",US
62417,Bridgeport,IL,618,US
62418,Brownstown,IL,618,US
62419,Calhoun,IL,618,US
62420,Casey,IL,217,US
62421,Claremont,IL,618,US
62422,Cowden,IL,"2,17,618",US
62423,Dennison,IL,217,US
62424,Dieterich,IL,"2,17,618",US
62425,Dundas,IL,618,US
62426,Edgewood,IL,618,US
62427,Flat Rock,IL,618,US
62428,Greenup,IL,217,US
62431,Herrick,IL,"6,18,217",US
62432,Hidalgo,IL,618,US
62433,Hutsonville,IL,618,US
62434,Ingraham,IL,618,US
62435,Janesville,IL,,US
62436,Jewett,IL,217,US
62438,Lakewood,IL,217,US
62439,Lawrenceville,IL,618,US
62440,Lerna,IL,217,US
62441,Marshall,IL,217,US
62442,Martinsville,IL,"2,17,618",US
62443,Mason,IL,"6,18,217",US
62444,Mode,IL,217,US
62445,Montrose,IL,217,US
62446,Mount Erie,IL,618,US
62447,Neoga,IL,217,US
62448,Newton,IL,"6,18,217",US
62449,Oblong,IL,618,US
62450,Olney,IL,618,US
62451,Palestine,IL,618,US
62452,Parkersburg,IL,618,US
62454,Robinson,IL,618,US
62458,Saint Elmo,IL,618,US
62459,Sainte Marie,IL,618,US
62460,Saint Francisville,IL,618,US
62461,Shumway,IL,"2,17,618",US
62462,Sigel,IL,217,US
62463,Stewardson,IL,217,US
62464,Stoy,IL,618,US
62465,Strasburg,IL,217,US
62466,Sumner,IL,618,US
62467,Teutopolis,IL,217,US
62468,Toledo,IL,217,US
62469,Trilla,IL,217,US
62471,Vandalia,IL,618,US
62473,Watson,IL,217,US
62474,Westfield,IL,217,US
62475,West Liberty,IL,618,US
62476,West Salem,IL,618,US
62477,West Union,IL,217,US
62478,West York,IL,"6,18,217",US
62479,Wheeler,IL,"2,17,618",US
62480,Willow Hill,IL,618,US
62481,Yale,IL,618,US
62501,Argenta,IL,217,US
62510,Assumption,IL,217,US
62512,Beason,IL,217,US
62513,Blue Mound,IL,217,US
62514,Boody,IL,217,US
62515,Buffalo,IL,217,US
62517,Bulpitt,IL,217,US
62518,Chestnut,IL,217,US
62519,Cornland,IL,217,US
62520,Dawson,IL,217,US
62521,Decatur,IL,217,US
62522,Decatur,IL,217,US
62523,Decatur,IL,217,US
62524,Decatur,IL,217,US
62525,Decatur,IL,217,US
62526,Decatur,IL,217,US
62530,Divernon,IL,217,US
62531,Edinburg,IL,217,US
62532,Elwin,IL,217,US
62533,Farmersville,IL,217,US
62534,Findlay,IL,217,US
62535,Forsyth,IL,217,US
62536,Glenarm,IL,217,US
62537,Harristown,IL,217,US
62538,Harvel,IL,217,US
62539,Illiopolis,IL,217,US
62540,Kincaid,IL,217,US
62541,Lake Fork,IL,217,US
62543,Latham,IL,217,US
62544,Macon,IL,217,US
62545,Mechanicsburg,IL,217,US
62546,Morrisonville,IL,217,US
62547,Mount Auburn,IL,217,US
62548,Mount Pulaski,IL,217,US
62549,Mt Zion,IL,217,US
62550,Moweaqua,IL,217,US
62551,Niantic,IL,217,US
62553,Oconee,IL,217,US
62554,Oreana,IL,217,US
62555,Owaneco,IL,217,US
62556,Palmer,IL,217,US
62557,Pana,IL,217,US
62558,Pawnee,IL,217,US
62560,Raymond,IL,217,US
62561,Riverton,IL,217,US
62563,Rochester,IL,217,US
62565,Shelbyville,IL,217,US
62567,Stonington,IL,217,US
62568,Taylorville,IL,217,US
62570,Tovey,IL,217,US
62571,Tower Hill,IL,217,US
62572,Waggoner,IL,217,US
62573,Warrensburg,IL,217,US
62601,Alexander,IL,217,US
62610,Alsey,IL,217,US
62611,Arenzville,IL,217,US
62612,Ashland,IL,217,US
62613,Athens,IL,217,US
62615,Auburn,IL,217,US
62617,Bath,IL,309,US
62618,Beardstown,IL,217,US
62621,Bluffs,IL,217,US
62622,Bluff Springs,IL,217,US
62624,Browning,IL,"3,09,217",US
62625,Cantrall,IL,217,US
62626,Carlinville,IL,"2,17,618",US
62627,Chandlerville,IL,"2,17,309",US
62628,Chapin,IL,217,US
62629,Chatham,IL,217,US
62630,Chesterfield,IL,618,US
62631,Concord,IL,217,US
62633,Easton,IL,309,US
62634,Elkhart,IL,217,US
62635,Emden,IL,217,US
62638,Franklin,IL,217,US
62639,Frederick,IL,217,US
62640,Girard,IL,217,US
62642,Greenview,IL,217,US
62643,Hartsburg,IL,217,US
62644,Havana,IL,309,US
62649,Hettick,IL,"6,18,217",US
62650,Jacksonville,IL,217,US
62651,Jacksonville,IL,217,US
62655,Kilbourne,IL,309,US
62656,Lincoln,IL,217,US
62659,Lincolns New Salem,IL,217,US
62660,Literberry,IL,217,US
62661,Loami,IL,217,US
62662,Lowder,IL,217,US
62663,Manchester,IL,217,US
62664,Mason City,IL,"2,17,309",US
62665,Meredosia,IL,217,US
62666,Middletown,IL,217,US
62667,Modesto,IL,217,US
62668,Murrayville,IL,217,US
62670,New Berlin,IL,217,US
62671,New Holland,IL,217,US
62672,Nilwood,IL,217,US
62673,Oakford,IL,217,US
62674,Palmyra,IL,"2,17,618",US
62675,Petersburg,IL,217,US
62677,Pleasant Plains,IL,217,US
62681,Rushville,IL,"2,17,309",US
62682,San Jose,IL,"3,09,217",US
62683,Scottville,IL,217,US
62684,Sherman,IL,217,US
62685,Shipman,IL,618,US
62688,Tallula,IL,217,US
62689,Thayer,IL,217,US
62690,Virden,IL,217,US
62691,Virginia,IL,217,US
62692,Waverly,IL,217,US
62693,Williamsville,IL,217,US
62694,Winchester,IL,217,US
62695,Woodson,IL,217,US
62701,Springfield,IL,217,US
62702,Springfield,IL,217,US
62703,Springfield,IL,217,US
62704,Springfield,IL,217,US
62705,Springfield,IL,217,US
62706,Springfield,IL,217,US
62707,Springfield,IL,217,US
62708,Springfield,IL,217,US
62711,Springfield,IL,217,US
62712,Springfield,IL,217,US
62713,Springfield,IL,217,US
62715,Springfield,IL,217,US
62716,Springfield,IL,217,US
62719,Springfield,IL,217,US
62721,Springfield,IL,217,US
62722,Springfield,IL,217,US
62723,Springfield,IL,217,US
62726,Springfield,IL,217,US
62736,Springfield,IL,217,US
62739,Springfield,IL,217,US
62746,Springfield,IL,217,US
62756,Springfield,IL,217,US
62757,Springfield,IL,217,US
62761,Springfield,IL,217,US
62762,Springfield,IL,217,US
62763,Springfield,IL,217,US
62764,Springfield,IL,217,US
62765,Springfield,IL,217,US
62766,Springfield,IL,217,US
62767,Springfield,IL,217,US
62769,Springfield,IL,217,US
62776,Springfield,IL,217,US
62777,Springfield,IL,217,US
62781,Springfield,IL,217,US
62786,Springfield,IL,217,US
62791,Springfield,IL,217,US
62794,Springfield,IL,217,US
62796,Springfield,IL,217,US
62801,Centralia,IL,618,US
62803,Hoyleton,IL,618,US
62805,Akin,IL,618,US
62806,Albion,IL,618,US
62807,Alma,IL,618,US
62808,Ashley,IL,618,US
62809,Barnhill,IL,618,US
62810,Belle Rive,IL,618,US
62811,Bellmont,IL,618,US
62812,Benton,IL,618,US
62814,Bluford,IL,618,US
62815,Bone Gap,IL,618,US
62816,Bonnie,IL,618,US
62817,Broughton,IL,618,US
62818,Browns,IL,618,US
62819,Buckner,IL,618,US
62820,Burnt Prairie,IL,618,US
62821,Carmi,IL,618,US
62822,Christopher,IL,618,US
62823,Cisne,IL,618,US
62824,Clay City,IL,618,US
62825,Coello,IL,618,US
62827,Crossville,IL,618,US
62828,Dahlgren,IL,618,US
62829,Dale,IL,618,US
62830,Dix,IL,618,US
62831,Du Bois,IL,618,US
62832,Du Quoin,IL,618,US
62833,Ellery,IL,618,US
62834,Emma,IL,618,US
62835,Enfield,IL,618,US
62836,Ewing,IL,618,US
62837,Fairfield,IL,618,US
62838,Farina,IL,618,US
62839,Flora,IL,618,US
62840,Frankfort Heights,IL,618,US
62841,Freeman Spur,IL,,US
62842,Geff,IL,618,US
62843,Golden Gate,IL,618,US
62844,Grayville,IL,618,US
62846,Ina,IL,618,US
62848,Irvington,IL,618,US
62849,Iuka,IL,618,US
62850,Johnsonville,IL,618,US
62851,Keenes,IL,618,US
62852,Keensburg,IL,618,US
62853,Kell,IL,618,US
62854,Kinmundy,IL,618,US
62855,Lancaster,IL,618,US
62856,Logan,IL,618,US
62857,Loogootee,IL,618,US
62858,Louisville,IL,618,US
62859,Mc Leansboro,IL,618,US
62860,Macedonia,IL,618,US
62861,Maunie,IL,618,US
62862,Mill Shoals,IL,618,US
62863,Mount Carmel,IL,618,US
62864,Mount Vernon,IL,618,US
62865,Mulkeytown,IL,618,US
62866,Nason,IL,618,US
62867,New Haven,IL,618,US
62868,Noble,IL,618,US
62869,Norris City,IL,618,US
62870,Odin,IL,618,US
62871,Omaha,IL,618,US
62872,Opdyke,IL,618,US
62874,Orient,IL,618,US
62875,Patoka,IL,618,US
62876,Radom,IL,618,US
62877,Richview,IL,618,US
62878,Rinard,IL,618,US
62879,Sailor Springs,IL,618,US
62880,Saint Peter,IL,618,US
62881,Salem,IL,618,US
62882,Sandoval,IL,618,US
62883,Scheller,IL,618,US
62884,Sesser,IL,618,US
62885,Shobonier,IL,618,US
62886,Sims,IL,618,US
62887,Springerton,IL,618,US
62888,Tamaroa,IL,618,US
62889,Texico,IL,618,US
62890,Thompsonville,IL,618,US
62891,Valier,IL,618,US
62892,Vernon,IL,618,US
62893,Walnut Hill,IL,618,US
62894,Waltonville,IL,618,US
62895,Wayne City,IL,618,US
62896,West Frankfort,IL,618,US
62897,Whittington,IL,618,US
62898,Woodlawn,IL,618,US
62899,Xenia,IL,618,US
62901,Carbondale,IL,618,US
62902,Carbondale,IL,618,US
62903,Carbondale,IL,618,US
62905,Alto Pass,IL,618,US
62906,Anna,IL,618,US
62907,Ava,IL,618,US
62908,Belknap,IL,618,US
62909,Boles,IL,618,US
62910,Brookport,IL,618,US
62912,Buncombe,IL,618,US
62914,Cairo,IL,618,US
62915,Cambria,IL,618,US
62916,Campbell Hill,IL,618,US
62917,Carrier Mills,IL,618,US
62918,Carterville,IL,618,US
62919,Cave In Rock,IL,618,US
62920,Cobden,IL,618,US
62921,Colp,IL,618,US
62922,Creal Springs,IL,618,US
62923,Cypress,IL,618,US
62924,De Soto,IL,618,US
62926,Dongola,IL,618,US
62927,Dowell,IL,618,US
62928,Eddyville,IL,618,US
62930,Eldorado,IL,618,US
62931,Elizabethtown,IL,618,US
62932,Elkville,IL,618,US
62933,Energy,IL,618,US
62934,Equality,IL,618,US
62935,Galatia,IL,618,US
62938,Golconda,IL,618,US
62939,Goreville,IL,618,US
62940,Gorham,IL,618,US
62941,Grand Chain,IL,618,US
62942,Grand Tower,IL,618,US
62943,Grantsburg,IL,618,US
62946,Harrisburg,IL,"2,17,618",US
62947,Herod,IL,618,US
62948,Herrin,IL,618,US
62949,Hurst,IL,618,US
62950,Jacob,IL,618,US
62951,Johnston City,IL,618,US
62952,Jonesboro,IL,618,US
62953,Joppa,IL,618,US
62954,Junction,IL,618,US
62955,Karbers Ridge,IL,618,US
62956,Karnak,IL,618,US
62957,Mc Clure,IL,618,US
62958,Makanda,IL,618,US
62959,Marion,IL,618,US
62960,Metropolis,IL,618,US
62961,Millcreek,IL,618,US
62962,Miller City,IL,618,US
62963,Mound City,IL,618,US
62964,Mounds,IL,618,US
62965,Muddy,IL,618,US
62966,Murphysboro,IL,618,US
62967,New Burnside,IL,618,US
62969,Olive Branch,IL,618,US
62970,Olmsted,IL,618,US
62971,Oraville,IL,618,US
62972,Ozark,IL,618,US
62973,Perks,IL,618,US
62974,Pittsburg,IL,618,US
62975,Pomona,IL,618,US
62976,Pulaski,IL,618,US
62977,Raleigh,IL,618,US
62979,Ridgway,IL,618,US
62982,Rosiclare,IL,618,US
62983,Royalton,IL,618,US
62984,Shawneetown,IL,618,US
62985,Simpson,IL,618,US
62987,Stonefort,IL,618,US
62988,Tamms,IL,618,US
62990,Thebes,IL,618,US
62992,Ullin,IL,618,US
62993,Unity,IL,618,US
62994,Vergennes,IL,618,US
62995,Vienna,IL,618,US
62996,Villa Ridge,IL,618,US
62997,Willisville,IL,618,US
62998,Wolf Lake,IL,618,US
62999,Zeigler,IL,618,US
63001,Allenton,MO,,US
63005,Chesterfield,MO,"3,14,636",US
63006,Chesterfield,MO,314,US
63010,Arnold,MO,"6,36,314",US
63011,Ballwin,MO,"3,14,636",US
63012,Barnhart,MO,"3,14,636",US
63013,Beaufort,MO,"5,73,636",US
63014,Berger,MO,573,US
63015,Catawissa,MO,636,US
63016,Cedar Hill,MO,"6,36,314",US
63017,Chesterfield,MO,"3,14,636",US
63019,Crystal City,MO,"3,14,636",US
63020,De Soto,MO,"31,46,36,573",US
63021,Ballwin,MO,"6,36,314",US
63022,Ballwin,MO,636,US
63023,Dittmer,MO,636,US
63024,Ballwin,MO,636,US
63025,Eureka,MO,"6,36,314",US
63026,Fenton,MO,"3,14,636",US
63028,Festus,MO,"6,36,573",US
63030,Fletcher,MO,573,US
63031,Florissant,MO,314,US
63032,Florissant,MO,314,US
63033,Florissant,MO,314,US
63034,Florissant,MO,"3,14,636",US
63036,French Village,MO,573,US
63037,Gerald,MO,573,US
63038,Glencoe,MO,636,US
63039,Gray Summit,MO,"6,36,314",US
63040,Grover,MO,"6,36,314",US
63041,Grubville,MO,636,US
63042,Hazelwood,MO,314,US
63043,Maryland Heights,MO,"3,14,636",US
63044,Bridgeton,MO,"3,14,636",US
63045,Earth City,MO,314,US
63047,Hematite,MO,636,US
63048,Herculaneum,MO,636,US
63049,High Ridge,MO,"3,14,636",US
63050,Hillsboro,MO,636,US
63051,House Springs,MO,"6,36,314",US
63052,Imperial,MO,"6,36,314",US
63053,Kimmswick,MO,636,US
63055,Labadie,MO,636,US
63056,Leslie,MO,573,US
63057,Liguori,MO,636,US
63060,Lonedell,MO,"5,73,636",US
63061,Luebbering,MO,,US
63065,Mapaville,MO,636,US
63066,Morse Mill,MO,636,US
63068,New Haven,MO,573,US
63069,Pacific,MO,"6,36,314",US
63070,Pevely,MO,636,US
63071,Richwoods,MO,573,US
63072,Robertsville,MO,"3,14,636",US
63073,Saint Albans,MO,,US
63074,Saint Ann,MO,"3,14,636",US
63077,Saint Clair,MO,"63,63,14,573",US
63079,Stanton,MO,573,US
63080,Sullivan,MO,"5,73,636",US
63084,Union,MO,"6,36,314",US
63087,Valles Mines,MO,"5,73,636",US
63088,Valley Park,MO,"6,36,314",US
63089,Villa Ridge,MO,"6,36,314",US
63090,Washington,MO,"63,63,14,573",US
63091,Rosebud,MO,573,US
63099,Fenton,MO,636,US
63101,Saint Louis,MO,"3,14,636",US
63102,Saint Louis,MO,"3,14,618",US
63103,Saint Louis,MO,314,US
63104,Saint Louis,MO,314,US
63105,Saint Louis,MO,314,US
63106,Saint Louis,MO,314,US
63107,Saint Louis,MO,314,US
63108,Saint Louis,MO,314,US
63109,Saint Louis,MO,"3,14,636",US
63110,Saint Louis,MO,314,US
63111,Saint Louis,MO,314,US
63112,Saint Louis,MO,314,US
63113,Saint Louis,MO,314,US
63114,Saint Louis,MO,"3,14,636",US
63115,Saint Louis,MO,314,US
63116,Saint Louis,MO,314,US
63117,Saint Louis,MO,"3,14,636",US
63118,Saint Louis,MO,314,US
63119,Saint Louis,MO,"3,14,636",US
63120,Saint Louis,MO,314,US
63121,Saint Louis,MO,314,US
63122,Saint Louis,MO,"3,14,636",US
63123,Saint Louis,MO,"3,14,636",US
63124,Saint Louis,MO,"3,14,636",US
63125,Saint Louis,MO,"3,14,636",US
63126,Saint Louis,MO,"6,36,314",US
63127,Saint Louis,MO,314,US
63128,Saint Louis,MO,314,US
63129,Saint Louis,MO,314,US
63130,Saint Louis,MO,"3,14,636",US
63131,Saint Louis,MO,"3,14,636",US
63132,Saint Louis,MO,"3,14,636",US
63133,Saint Louis,MO,314,US
63134,Saint Louis,MO,"3,14,636",US
63135,Saint Louis,MO,"3,14,636",US
63136,Saint Louis,MO,314,US
63137,Saint Louis,MO,314,US
63138,Saint Louis,MO,"3,14,636",US
63139,Saint Louis,MO,"3,14,636",US
63140,Saint Louis,MO,314,US
63141,Saint Louis,MO,"3,14,636",US
63143,Saint Louis,MO,314,US
63144,Saint Louis,MO,"3,14,636",US
63145,Saint Louis,MO,314,US
63146,Saint Louis,MO,"3,14,636",US
63147,Saint Louis,MO,"3,14,636",US
63150,Saint Louis,MO,314,US
63151,Saint Louis,MO,"3,14,636",US
63155,Saint Louis,MO,314,US
63156,Saint Louis,MO,314,US
63157,Saint Louis,MO,314,US
63158,Saint Louis,MO,314,US
63160,Saint Louis,MO,314,US
63163,Saint Louis,MO,314,US
63164,Saint Louis,MO,314,US
63166,Saint Louis,MO,314,US
63167,Saint Louis,MO,314,US
63169,Saint Louis,MO,314,US
63171,Saint Louis,MO,314,US
63177,Saint Louis,MO,314,US
63178,Saint Louis,MO,314,US
63179,Saint Louis,MO,314,US
63180,Saint Louis,MO,314,US
63182,Saint Louis,MO,314,US
63188,Saint Louis,MO,314,US
63190,Saint Louis,MO,314,US
63195,Saint Louis,MO,314,US
63196,Saint Louis,MO,314,US
63197,Saint Louis,MO,314,US
63198,Saint Louis,MO,314,US
63199,Saint Louis,MO,314,US
63301,Saint Charles,MO,"6,36,314",US
63302,Saint Charles,MO,314,US
63303,Saint Charles,MO,"3,14,636",US
63304,Saint Charles,MO,"3,14,636",US
63330,Annada,MO,573,US
63332,Augusta,MO,636,US
63333,Bellflower,MO,573,US
63334,Bowling Green,MO,573,US
63336,Clarksville,MO,573,US
63338,Cottleville,MO,636,US
63339,Curryville,MO,573,US
63341,Defiance,MO,636,US
63342,Dutzow,MO,636,US
63343,Elsberry,MO,573,US
63344,Eolia,MO,573,US
63345,Farber,MO,573,US
63346,Flinthill,MO,636,US
63347,Foley,MO,"6,36,573",US
63348,Foristell,MO,636,US
63349,Hawk Point,MO,636,US
63350,High Hill,MO,636,US
63351,Jonesburg,MO,636,US
63352,Laddonia,MO,573,US
63353,Louisiana,MO,573,US
63357,Marthasville,MO,636,US
63359,Middletown,MO,573,US
63361,Montgomery City,MO,573,US
63362,Moscow Mills,MO,636,US
63363,New Florence,MO,"5,73,636",US
63365,New Melle,MO,636,US
63366,O Fallon,MO,"6,36,314",US
63367,Lake Saint Louis,MO,"3,14,636",US
63368,O Fallon,MO,636,US
63369,Old Monroe,MO,636,US
63370,Olney,MO,573,US
63373,Portage Des Sioux,MO,636,US
63376,Saint Peters,MO,"6,36,314",US
63377,Silex,MO,"5,73,636",US
63378,Treloar,MO,636,US
63379,Troy,MO,"6,36,573",US
63381,Truxton,MO,636,US
63382,Vandalia,MO,573,US
63383,Warrenton,MO,"6,36,314",US
63384,Wellsville,MO,573,US
63385,Wentzville,MO,"6,36,314",US
63386,West Alton,MO,636,US
63387,Whiteside,MO,573,US
63388,Williamsburg,MO,573,US
63389,Winfield,MO,636,US
63390,Wright City,MO,636,US
63401,Hannibal,MO,573,US
63430,Alexandria,MO,660,US
63431,Anabel,MO,660,US
63432,Arbela,MO,660,US
63433,Ashburn,MO,573,US
63434,Bethel,MO,660,US
63435,Canton,MO,"5,73,660",US
63436,Center,MO,573,US
63437,Clarence,MO,660,US
63438,Durham,MO,573,US
63439,Emden,MO,573,US
63440,Ewing,MO,"5,73,660",US
63441,Frankford,MO,573,US
63442,Granger,MO,660,US
63443,Hunnewell,MO,573,US
63445,Kahoka,MO,"6,60,573",US
63446,Knox City,MO,660,US
63447,La Belle,MO,660,US
63448,La Grange,MO,573,US
63450,Lentner,MO,573,US
63451,Leonard,MO,660,US
63452,Lewistown,MO,"5,73,660",US
63453,Luray,MO,660,US
63454,Maywood,MO,573,US
63456,Monroe City,MO,573,US
63457,Monticello,MO,573,US
63458,Newark,MO,660,US
63459,New London,MO,573,US
63460,Novelty,MO,660,US
63461,Palmyra,MO,573,US
63462,Perry,MO,573,US
63463,Philadelphia,MO,573,US
63464,Plevna,MO,660,US
63465,Revere,MO,660,US
63466,Saint Patrick,MO,660,US
63467,Saverton,MO,573,US
63468,Shelbina,MO,"5,73,660",US
63469,Shelbyville,MO,"5,73,660",US
63471,Taylor,MO,573,US
63472,Wayland,MO,660,US
63473,Williamstown,MO,573,US
63474,Wyaconda,MO,"6,60,573",US
63501,Kirksville,MO,660,US
63530,Atlanta,MO,660,US
63531,Baring,MO,660,US
63532,Bevier,MO,660,US
63533,Brashear,MO,660,US
63534,Callao,MO,660,US
63535,Coatsville,MO,660,US
63536,Downing,MO,660,US
63537,Edina,MO,660,US
63538,Elmer,MO,660,US
63539,Ethel,MO,660,US
63540,Gibbs,MO,660,US
63541,Glenwood,MO,660,US
63543,Gorin,MO,660,US
63544,Green Castle,MO,660,US
63545,Green City,MO,660,US
63546,Greentop,MO,660,US
63547,Hurdland,MO,660,US
63548,Lancaster,MO,660,US
63549,La Plata,MO,660,US
63551,Livonia,MO,660,US
63552,Macon,MO,660,US
63555,Memphis,MO,660,US
63556,Milan,MO,660,US
63557,New Boston,MO,660,US
63558,New Cambria,MO,660,US
63559,Novinger,MO,660,US
63560,Pollock,MO,660,US
63561,Queen City,MO,660,US
63563,Rutledge,MO,660,US
63565,Unionville,MO,660,US
63566,Winigan,MO,660,US
63567,Worthington,MO,660,US
63601,Park Hills,MO,573,US
63620,Annapolis,MO,573,US
63621,Arcadia,MO,573,US
63622,Belgrade,MO,573,US
63623,Belleview,MO,573,US
63624,Bismarck,MO,573,US
63625,Black,MO,573,US
63626,Blackwell,MO,"5,73,636",US
63627,Bloomsdale,MO,573,US
63628,Bonne Terre,MO,573,US
63629,Bunker,MO,573,US
63630,Cadet,MO,"6,36,573",US
63631,Caledonia,MO,573,US
63632,Cascade,MO,573,US
63633,Centerville,MO,573,US
63636,Des Arc,MO,573,US
63637,Doe Run,MO,573,US
63638,Ellington,MO,573,US
63640,Farmington,MO,"5,73,314",US
63645,Fredericktown,MO,573,US
63648,Irondale,MO,573,US
63650,Ironton,MO,573,US
63651,Knob Lick,MO,573,US
63653,Leadwood,MO,573,US
63654,Lesterville,MO,573,US
63655,Marquand,MO,573,US
63656,Middle Brook,MO,573,US
63660,Mineral Point,MO,573,US
63662,Patton,MO,573,US
63663,Pilot Knob,MO,573,US
63664,Potosi,MO,573,US
63665,Redford,MO,573,US
63666,Reynolds,MO,573,US
63670,Sainte Genevieve,MO,573,US
63673,Saint Mary,MO,573,US
63674,Tiff,MO,573,US
63675,Vulcan,MO,573,US
63701,Cape Girardeau,MO,573,US
63702,Cape Girardeau,MO,573,US
63703,Cape Girardeau,MO,573,US
63730,Advance,MO,573,US
63732,Altenburg,MO,573,US
63735,Bell City,MO,573,US
63736,Benton,MO,573,US
63737,Brazeau,MO,573,US
63738,Brownwood,MO,573,US
63739,Burfordville,MO,573,US
63740,Chaffee,MO,573,US
63742,Commerce,MO,573,US
63743,Daisy,MO,573,US
63744,Delta,MO,573,US
63745,Dutchtown,MO,573,US
63746,Farrar,MO,573,US
63747,Friedheim,MO,573,US
63748,Frohna,MO,"5,73,314",US
63750,Gipsy,MO,573,US
63751,Glenallen,MO,573,US
63752,Gordonville,MO,573,US
63755,Jackson,MO,573,US
63758,Kelso,MO,573,US
63760,Leopold,MO,573,US
63763,Mc Gee,MO,573,US
63764,Marble Hill,MO,573,US
63766,Millersville,MO,573,US
63767,Morley,MO,573,US
63769,Oak Ridge,MO,573,US
63770,Old Appleton,MO,573,US
63771,Oran,MO,573,US
63774,Perkins,MO,573,US
63775,Perryville,MO,573,US
63776,Mc Bride,MO,573,US
63779,Pocahontas,MO,573,US
63780,Scott City,MO,573,US
63781,Sedgewickville,MO,573,US
63782,Sturdivant,MO,573,US
63783,Uniontown,MO,573,US
63784,Vanduser,MO,573,US
63785,Whitewater,MO,573,US
63787,Zalma,MO,573,US
63801,Sikeston,MO,573,US
63820,Anniston,MO,573,US
63821,Arbyrd,MO,573,US
63822,Bernie,MO,573,US
63823,Bertrand,MO,573,US
63824,Blodgett,MO,573,US
63825,Bloomfield,MO,573,US
63826,Braggadocio,MO,573,US
63827,Bragg City,MO,573,US
63828,Canalou,MO,573,US
63829,Cardwell,MO,573,US
63830,Caruthersville,MO,573,US
63833,Catron,MO,573,US
63834,Charleston,MO,573,US
63837,Clarkton,MO,573,US
63839,Cooter,MO,573,US
63840,Deering,MO,573,US
63841,Dexter,MO,573,US
63845,East Prairie,MO,573,US
63846,Essex,MO,573,US
63847,Gibson,MO,573,US
63848,Gideon,MO,573,US
63849,Gobler,MO,573,US
63850,Grayridge,MO,573,US
63851,Hayti,MO,573,US
63852,Holcomb,MO,573,US
63853,Holland,MO,573,US
63855,Hornersville,MO,573,US
63857,Kennett,MO,573,US
63860,Kewanee,MO,"3,14,573",US
63862,Lilbourn,MO,573,US
63863,Malden,MO,573,US
63866,Marston,MO,573,US
63867,Matthews,MO,573,US
63868,Morehouse,MO,573,US
63869,New Madrid,MO,573,US
63870,Parma,MO,573,US
63873,Portageville,MO,573,US
63874,Risco,MO,573,US
63875,Rives,MO,573,US
63876,Senath,MO,573,US
63877,Steele,MO,573,US
63878,Tallapoosa,MO,573,US
63879,Wardell,MO,573,US
63880,Whiteoak,MO,573,US
63881,Wolf Island,MO,573,US
63882,Wyatt,MO,573,US
63901,Poplar Bluff,MO,573,US
63902,Poplar Bluff,MO,573,US
63931,Briar,MO,573,US
63932,Broseley,MO,573,US
63933,Campbell,MO,573,US
63934,Clubb,MO,573,US
63935,Doniphan,MO,573,US
63936,Dudley,MO,573,US
63937,Ellsinore,MO,573,US
63938,Fagus,MO,573,US
63939,Fairdealing,MO,573,US
63940,Fisk,MO,573,US
63941,Fremont,MO,573,US
63942,Gatewood,MO,573,US
63943,Grandin,MO,573,US
63944,Greenville,MO,573,US
63945,Harviell,MO,573,US
63950,Lodi,MO,573,US
63951,Lowndes,MO,573,US
63952,Mill Spring,MO,573,US
63953,Naylor,MO,573,US
63954,Neelyville,MO,573,US
63955,Oxly,MO,573,US
63956,Patterson,MO,573,US
63957,Piedmont,MO,573,US
63960,Puxico,MO,573,US
63961,Qulin,MO,573,US
63962,Rombauer,MO,573,US
63963,Shook,MO,573,US
63964,Silva,MO,573,US
63965,Van Buren,MO,573,US
63966,Wappapello,MO,573,US
63967,Williamsville,MO,573,US
64001,Alma,MO,660,US
64002,Lees Summit,MO,816,US
64011,Bates City,MO,816,US
64012,Belton,MO,816,US
64013,Blue Springs,MO,816,US
64014,Blue Springs,MO,816,US
64015,Blue Springs,MO,"8,16,913",US
64016,Buckner,MO,816,US
64017,Camden,MO,816,US
64018,Camden Point,MO,816,US
64019,Centerview,MO,"6,60,816",US
64020,Concordia,MO,660,US
64021,Corder,MO,660,US
64022,Dover,MO,660,US
64024,Excelsior Springs,MO,816,US
64028,Farley,MO,816,US
64029,Grain Valley,MO,816,US
64030,Grandview,MO,"8,16,913",US
64034,Greenwood,MO,816,US
64035,Hardin,MO,660,US
64036,Henrietta,MO,816,US
64037,Higginsville,MO,660,US
64040,Holden,MO,"8,16,660",US
64048,Holt,MO,816,US
64050,Independence,MO,816,US
64051,Independence,MO,816,US
64052,Independence,MO,816,US
64053,Independence,MO,816,US
64054,Independence,MO,816,US
64055,Independence,MO,816,US
64056,Independence,MO,816,US
64057,Independence,MO,816,US
64058,Independence,MO,816,US
64060,Kearney,MO,816,US
64061,Kingsville,MO,816,US
64062,Lawson,MO,816,US
64063,Lees Summit,MO,816,US
64064,Lees Summit,MO,816,US
64065,Lees Summit,MO,816,US
64066,Levasy,MO,816,US
64067,Lexington,MO,"6,60,816",US
64068,Liberty,MO,816,US
64069,Liberty,MO,816,US
64070,Lone Jack,MO,816,US
64071,Mayview,MO,"6,60,816",US
64072,Missouri City,MO,816,US
64073,Mosby,MO,816,US
64074,Napoleon,MO,816,US
64075,Oak Grove,MO,816,US
64076,Odessa,MO,"8,16,660",US
64077,Orrick,MO,816,US
64078,Peculiar,MO,816,US
64079,Platte City,MO,816,US
64080,Pleasant Hill,MO,816,US
64081,Lees Summit,MO,816,US
64082,Lees Summit,MO,816,US
64083,Raymore,MO,816,US
64084,Rayville,MO,"6,60,816",US
64085,Richmond,MO,"8,16,660",US
64086,Lees Summit,MO,816,US
64088,Sibley,MO,816,US
64089,Smithville,MO,816,US
64090,Strasburg,MO,816,US
64092,Waldron,MO,816,US
64093,Warrensburg,MO,660,US
64096,Waverly,MO,660,US
64097,Wellington,MO,816,US
64098,Weston,MO,816,US
64101,Kansas City,MO,816,US
64102,Kansas City,MO,816,US
64105,Kansas City,MO,816,US
64106,Kansas City,MO,"8,16,913",US
64108,Kansas City,MO,816,US
64109,Kansas City,MO,816,US
64110,Kansas City,MO,816,US
64111,Kansas City,MO,"81,69,13,314",US
64112,Kansas City,MO,"8,16,913",US
64113,Kansas City,MO,"8,16,913",US
64114,Kansas City,MO,816,US
64116,Kansas City,MO,816,US
64117,Kansas City,MO,816,US
64118,Kansas City,MO,"8,16,913",US
64119,Kansas City,MO,816,US
64120,Kansas City,MO,"8,16,913",US
64121,Kansas City,MO,816,US
64123,Kansas City,MO,816,US
64124,Kansas City,MO,816,US
64125,Kansas City,MO,816,US
64126,Kansas City,MO,816,US
64127,Kansas City,MO,816,US
64128,Kansas City,MO,816,US
64129,Kansas City,MO,816,US
64130,Kansas City,MO,816,US
64131,Kansas City,MO,"8,16,913",US
64132,Kansas City,MO,816,US
64133,Kansas City,MO,"8,16,913",US
64134,Kansas City,MO,816,US
64136,Kansas City,MO,816,US
64137,Kansas City,MO,816,US
64138,Kansas City,MO,816,US
64139,Kansas City,MO,816,US
64141,Kansas City,MO,816,US
64144,Kansas City,MO,816,US
64145,Kansas City,MO,816,US
64146,Kansas City,MO,816,US
64147,Kansas City,MO,816,US
64148,Kansas City,MO,816,US
64149,Kansas City,MO,816,US
64150,Riverside,MO,816,US
64151,Kansas City,MO,"8,16,913",US
64152,Kansas City,MO,"8,16,913",US
64153,Kansas City,MO,816,US
64154,Kansas City,MO,816,US
64155,Kansas City,MO,816,US
64156,Kansas City,MO,816,US
64157,Kansas City,MO,816,US
64158,Kansas City,MO,816,US
64161,Kansas City,MO,816,US
64163,Kansas City,MO,816,US
64164,Kansas City,MO,816,US
64165,Kansas City,MO,816,US
64166,Kansas City,MO,816,US
64167,Kansas City,MO,816,US
64168,Kansas City,MO,816,US
64170,Kansas City,MO,816,US
64171,Kansas City,MO,816,US
64172,Kansas City,MO,816,US
64179,Kansas City,MO,816,US
64180,Kansas City,MO,816,US
64183,Kansas City,MO,816,US
64184,Kansas City,MO,816,US
64185,Kansas City,MO,816,US
64187,Kansas City,MO,816,US
64188,Kansas City,MO,816,US
64190,Kansas City,MO,816,US
64191,Kansas City,MO,816,US
64192,Kansas City,MO,816,US
64193,Kansas City,MO,816,US
64194,Kansas City,MO,816,US
64195,Kansas City,MO,816,US
64196,Kansas City,MO,816,US
64197,Kansas City,MO,816,US
64198,Kansas City,MO,816,US
64199,Kansas City,MO,816,US
64401,Agency,MO,816,US
64402,Albany,MO,660,US
64420,Allendale,MO,660,US
64421,Amazonia,MO,816,US
64422,Amity,MO,816,US
64423,Barnard,MO,"6,60,816",US
64424,Bethany,MO,660,US
64426,Blythedale,MO,660,US
64427,Bolckow,MO,"8,16,660",US
64428,Burlington Junction,MO,660,US
64429,Cameron,MO,816,US
64430,Clarksdale,MO,816,US
64431,Clearmont,MO,660,US
64432,Clyde,MO,660,US
64433,Conception,MO,660,US
64434,Conception Junction,MO,660,US
64436,Cosby,MO,816,US
64437,Craig,MO,660,US
64438,Darlington,MO,660,US
64439,Dearborn,MO,816,US
64440,De Kalb,MO,816,US
64441,Denver,MO,660,US
64442,Eagleville,MO,660,US
64443,Easton,MO,816,US
64444,Edgerton,MO,816,US
64445,Elmo,MO,660,US
64446,Fairfax,MO,660,US
64447,Maysville,MO,816,US
64448,Faucett,MO,816,US
64449,Fillmore,MO,816,US
64451,Forest City,MO,660,US
64453,Gentry,MO,660,US
64454,Gower,MO,816,US
64455,Graham,MO,660,US
64456,Grant City,MO,660,US
64457,Guilford,MO,"6,60,816",US
64458,Hatfield,MO,660,US
64459,Helena,MO,816,US
64461,Hopkins,MO,660,US
64463,King City,MO,660,US
64465,Lathrop,MO,816,US
64466,Maitland,MO,660,US
64467,Martinsville,MO,660,US
64468,Maryville,MO,660,US
64469,Maysville,MO,816,US
64470,Mound City,MO,"6,60,816",US
64471,New Hampton,MO,660,US
64473,Oregon,MO,660,US
64474,Osborn,MO,816,US
64475,Parnell,MO,660,US
64476,Pickering,MO,660,US
64477,Plattsburg,MO,816,US
64479,Ravenwood,MO,660,US
64480,Rea,MO,816,US
64481,Ridgeway,MO,660,US
64482,Rock Port,MO,660,US
64483,Rosendale,MO,816,US
64484,Rushville,MO,816,US
64485,Savannah,MO,816,US
64486,Sheridan,MO,660,US
64487,Skidmore,MO,660,US
64489,Stanberry,MO,660,US
64490,Stewartsville,MO,816,US
64491,Tarkio,MO,660,US
64492,Trimble,MO,816,US
64493,Turney,MO,816,US
64494,Union Star,MO,"8,16,660",US
64496,Watson,MO,660,US
64497,Weatherby,MO,"8,16,660",US
64498,Westboro,MO,660,US
64499,Worth,MO,660,US
64501,Saint Joseph,MO,816,US
64502,Saint Joseph,MO,816,US
64503,Saint Joseph,MO,816,US
64504,Saint Joseph,MO,816,US
64505,Saint Joseph,MO,816,US
64506,Saint Joseph,MO,816,US
64507,Saint Joseph,MO,816,US
64508,Saint Joseph,MO,816,US
64601,Chillicothe,MO,660,US
64620,Altamont,MO,660,US
64622,Bogard,MO,660,US
64623,Bosworth,MO,660,US
64624,Braymer,MO,660,US
64625,Breckenridge,MO,660,US
64628,Brookfield,MO,660,US
64630,Browning,MO,660,US
64631,Bucklin,MO,660,US
64632,Cainsville,MO,660,US
64633,Carrollton,MO,660,US
64635,Chula,MO,660,US
64636,Coffey,MO,660,US
64637,Cowgill,MO,660,US
64638,Dawn,MO,660,US
64639,De Witt,MO,660,US
64640,Gallatin,MO,"6,60,816",US
64641,Galt,MO,660,US
64642,Gilman City,MO,660,US
64643,Hale,MO,660,US
64644,Hamilton,MO,816,US
64645,Harris,MO,660,US
64646,Humphreys,MO,660,US
64647,Jameson,MO,660,US
64648,Jamesport,MO,660,US
64649,Kidder,MO,816,US
64650,Kingston,MO,"8,16,660",US
64651,Laclede,MO,660,US
64652,Laredo,MO,660,US
64653,Linneus,MO,660,US
64654,Lock Springs,MO,660,US
64655,Lucerne,MO,660,US
64656,Ludlow,MO,660,US
64657,Mc Fall,MO,660,US
64658,Marceline,MO,660,US
64659,Meadville,MO,660,US
64660,Mendon,MO,660,US
64661,Mercer,MO,"6,60,816",US
64664,Mooresville,MO,660,US
64667,Newtown,MO,660,US
64668,Norborne,MO,660,US
64670,Pattonsburg,MO,660,US
64671,Polo,MO,"6,60,816",US
64672,Powersville,MO,660,US
64673,Princeton,MO,660,US
64674,Purdin,MO,660,US
64676,Rothville,MO,660,US
64679,Spickard,MO,660,US
64680,Stet,MO,660,US
64681,Sumner,MO,660,US
64682,Tina,MO,660,US
64683,Trenton,MO,660,US
64686,Utica,MO,660,US
64688,Wheeling,MO,660,US
64689,Winston,MO,660,US
64701,Harrisonville,MO,816,US
64720,Adrian,MO,"8,16,660",US
64722,Amoret,MO,"8,16,660",US
64723,Amsterdam,MO,660,US
64724,Appleton City,MO,660,US
64725,Archie,MO,816,US
64726,Blairstown,MO,660,US
64728,Bronaugh,MO,417,US
64730,Butler,MO,660,US
64733,Chilhowee,MO,660,US
64734,Cleveland,MO,816,US
64735,Clinton,MO,660,US
64738,Collins,MO,417,US
64739,Creighton,MO,"6,60,816",US
64740,Deepwater,MO,"6,60,417",US
64741,Deerfield,MO,417,US
64742,Drexel,MO,"8,16,660",US
64743,East Lynne,MO,816,US
64744,El Dorado Springs,MO,417,US
64745,Foster,MO,660,US
64746,Freeman,MO,816,US
64747,Garden City,MO,816,US
64748,Golden City,MO,417,US
64750,Harwood,MO,417,US
64752,Hume,MO,"6,60,417",US
64755,Jasper,MO,417,US
64756,Jerico Springs,MO,417,US
64759,Lamar,MO,417,US
64761,Leeton,MO,660,US
64762,Liberal,MO,417,US
64763,Lowry City,MO,417,US
64765,Metz,MO,417,US
64766,Milford,MO,417,US
64767,Milo,MO,417,US
64769,Mindenmines,MO,417,US
64770,Montrose,MO,660,US
64771,Moundville,MO,417,US
64772,Nevada,MO,417,US
64776,Osceola,MO,"4,17,660",US
64778,Richards,MO,417,US
64779,Rich Hill,MO,"4,17,660",US
64780,Rockville,MO,"6,60,417",US
64781,Roscoe,MO,417,US
64783,Schell City,MO,"4,17,660",US
64784,Sheldon,MO,417,US
64788,Urich,MO,"6,60,816",US
64789,Osceola,MO,,US
64790,Walker,MO,417,US
64801,Joplin,MO,417,US
64802,Joplin,MO,417,US
64803,Joplin,MO,417,US
64804,Joplin,MO,417,US
64830,Alba,MO,417,US
64831,Anderson,MO,417,US
64832,Asbury,MO,417,US
64833,Avilla,MO,417,US
64834,Carl Junction,MO,417,US
64835,Carterville,MO,417,US
64836,Carthage,MO,417,US
64840,Diamond,MO,417,US
64841,Duenweg,MO,417,US
64842,Fairview,MO,417,US
64843,Goodman,MO,417,US
64844,Granby,MO,417,US
64847,Lanagan,MO,417,US
64848,La Russell,MO,417,US
64849,Neck City,MO,417,US
64850,Neosho,MO,417,US
64853,Newtonia,MO,417,US
64854,Noel,MO,417,US
64855,Oronogo,MO,417,US
64856,Pineville,MO,417,US
64857,Purcell,MO,417,US
64858,Racine,MO,417,US
64859,Reeds,MO,417,US
64861,Rocky Comfort,MO,417,US
64862,Sarcoxie,MO,417,US
64863,South West City,MO,417,US
64864,Saginaw,MO,417,US
64865,Seneca,MO,417,US
64866,Stark City,MO,417,US
64867,Stella,MO,417,US
64868,Tiff City,MO,417,US
64869,Waco,MO,417,US
64870,Webb City,MO,417,US
64873,Wentworth,MO,417,US
64874,Wheaton,MO,417,US
64944,Kansas City,MO,816,US
64999,Kansas City,MO,816,US
65001,Argyle,MO,573,US
65010,Ashland,MO,573,US
65011,Barnett,MO,"6,60,573",US
65013,Belle,MO,573,US
65014,Bland,MO,573,US
65016,Bonnots Mill,MO,573,US
65017,Brumley,MO,573,US
65018,California,MO,"5,73,660",US
65020,Camdenton,MO,573,US
65023,Centertown,MO,573,US
65024,Chamois,MO,573,US
65025,Clarksburg,MO,"5,73,660",US
65026,Eldon,MO,573,US
65032,Eugene,MO,573,US
65034,Fortuna,MO,660,US
65035,Freeburg,MO,573,US
65036,Gasconade,MO,573,US
65037,Gravois Mills,MO,"5,73,314",US
65038,Laurie,MO,573,US
65039,Hartsburg,MO,573,US
65040,Henley,MO,573,US
65041,Hermann,MO,"5,73,636",US
65042,High Point,MO,660,US
65043,Holts Summit,MO,573,US
65046,Jamestown,MO,660,US
65047,Kaiser,MO,573,US
65048,Koeltztown,MO,573,US
65049,Lake Ozark,MO,573,US
65050,Latham,MO,660,US
65051,Linn,MO,573,US
65052,Linn Creek,MO,573,US
65053,Lohman,MO,573,US
65054,Loose Creek,MO,573,US
65055,Mc Girk,MO,,US
65058,Meta,MO,573,US
65059,Mokane,MO,573,US
65061,Morrison,MO,573,US
65062,Mount Sterling,MO,573,US
65063,New Bloomfield,MO,573,US
65064,Olean,MO,573,US
65065,Osage Beach,MO,573,US
65066,Owensville,MO,573,US
65067,Portland,MO,573,US
65068,Prairie Home,MO,660,US
65069,Rhineland,MO,573,US
65072,Rocky Mount,MO,573,US
65074,Russellville,MO,"5,73,660",US
65075,Saint Elizabeth,MO,573,US
65076,Saint Thomas,MO,573,US
65077,Steedman,MO,573,US
65078,Stover,MO,"5,73,660",US
65079,Sunrise Beach,MO,573,US
65080,Tebbetts,MO,573,US
65081,Tipton,MO,660,US
65082,Tuscumbia,MO,573,US
65083,Ulman,MO,573,US
65084,Versailles,MO,"5,73,660",US
65085,Westphalia,MO,573,US
65101,Jefferson City,MO,573,US
65102,Jefferson City,MO,573,US
65103,Jefferson City,MO,573,US
65104,Jefferson City,MO,573,US
65105,Jefferson City,MO,573,US
65106,Jefferson City,MO,573,US
65107,Jefferson City,MO,573,US
65108,Jefferson City,MO,573,US
65109,Jefferson City,MO,"5,73,314",US
65110,Jefferson City,MO,573,US
65111,Jefferson City,MO,573,US
65201,Columbia,MO,"5,73,314",US
65202,Columbia,MO,573,US
65203,Columbia,MO,573,US
65205,Columbia,MO,573,US
65211,Columbia,MO,573,US
65212,Columbia,MO,573,US
65215,Columbia,MO,573,US
65216,Columbia,MO,573,US
65217,Columbia,MO,573,US
65218,Columbia,MO,573,US
65230,Armstrong,MO,660,US
65231,Auxvasse,MO,573,US
65232,Benton City,MO,573,US
65233,Boonville,MO,"6,60,816",US
65236,Brunswick,MO,660,US
65237,Bunceton,MO,660,US
65239,Cairo,MO,660,US
65240,Centralia,MO,573,US
65243,Clark,MO,"5,73,660",US
65244,Clifton Hill,MO,660,US
65246,Dalton,MO,660,US
65247,Excello,MO,660,US
65248,Fayette,MO,660,US
65250,Franklin,MO,660,US
65251,Fulton,MO,573,US
65254,Glasgow,MO,660,US
65255,Hallsville,MO,573,US
65256,Harrisburg,MO,573,US
65257,Higbee,MO,660,US
65258,Holliday,MO,660,US
65259,Huntsville,MO,660,US
65260,Jacksonville,MO,660,US
65261,Keytesville,MO,660,US
65262,Kingdom City,MO,573,US
65263,Madison,MO,660,US
65264,Martinsburg,MO,573,US
65265,Mexico,MO,573,US
65270,Moberly,MO,660,US
65274,New Franklin,MO,"6,60,573",US
65275,Paris,MO,"6,60,573",US
65276,Pilot Grove,MO,660,US
65278,Renick,MO,,US
65279,Rocheport,MO,573,US
65280,Rush Hill,MO,573,US
65281,Salisbury,MO,660,US
65282,Santa Fe,MO,573,US
65283,Stoutsville,MO,"5,73,660",US
65284,Sturgeon,MO,573,US
65285,Thompson,MO,573,US
65286,Triplett,MO,660,US
65287,Wooldridge,MO,660,US
65299,Columbia,MO,573,US
65301,Sedalia,MO,"6,60,816",US
65302,Sedalia,MO,"8,16,660",US
65305,Whiteman Air Force Base,MO,660,US
65320,Arrow Rock,MO,660,US
65321,Blackburn,MO,660,US
65322,Blackwater,MO,660,US
65323,Calhoun,MO,660,US
65324,Climax Springs,MO,573,US
65325,Cole Camp,MO,660,US
65326,Edwards,MO,"57,34,17,660",US
65327,Emma,MO,660,US
65329,Florence,MO,660,US
65330,Gilliam,MO,660,US
65332,Green Ridge,MO,660,US
65333,Houstonia,MO,660,US
65334,Hughesville,MO,660,US
65335,Ionia,MO,660,US
65336,Knob Noster,MO,660,US
65337,La Monte,MO,660,US
65338,Lincoln,MO,660,US
65339,Malta Bend,MO,660,US
65340,Marshall,MO,660,US
65344,Miami,MO,660,US
65345,Mora,MO,660,US
65347,Nelson,MO,660,US
65348,Otterville,MO,660,US
65349,Slater,MO,"6,60,816",US
65350,Smithton,MO,660,US
65351,Sweet Springs,MO,660,US
65354,Syracuse,MO,660,US
65355,Warsaw,MO,"6,60,417",US
65360,Windsor,MO,660,US
65401,Rolla,MO,573,US
65402,Rolla,MO,573,US
65409,Rolla,MO,314,US
65436,Beulah,MO,573,US
65438,Birch Tree,MO,"5,73,417",US
65439,Bixby,MO,573,US
65440,Boss,MO,573,US
65441,Bourbon,MO,573,US
65443,Brinktown,MO,573,US
65444,Bucyrus,MO,417,US
65446,Cherryville,MO,573,US
65449,Cook Sta,MO,573,US
65452,Crocker,MO,573,US
65453,Cuba,MO,573,US
65456,Davisville,MO,573,US
65457,Devils Elbow,MO,573,US
65459,Dixon,MO,573,US
65461,Duke,MO,573,US
65462,Edgar Springs,MO,573,US
65463,Eldridge,MO,417,US
65464,Elk Creek,MO,417,US
65466,Eminence,MO,573,US
65468,Eunice,MO,417,US
65470,Falcon,MO,417,US
65473,Fort Leonard Wood,MO,"3,14,573",US
65479,Hartshorn,MO,417,US
65483,Houston,MO,417,US
65484,Huggins,MO,,US
65486,Iberia,MO,573,US
65501,Jadwin,MO,573,US
65529,Jerome,MO,573,US
65532,Lake Spring,MO,573,US
65534,Laquey,MO,"5,73,417",US
65535,Leasburg,MO,573,US
65536,Lebanon,MO,417,US
65541,Lenox,MO,573,US
65542,Licking,MO,573,US
65543,Lynchburg,MO,417,US
65546,Montier,MO,573,US
65548,Mountain View,MO,"4,17,573",US
65550,Newburg,MO,"5,73,417",US
65552,Plato,MO,417,US
65555,Raymondville,MO,"4,17,573",US
65556,Richland,MO,"5,73,417",US
65557,Roby,MO,417,US
65559,Saint James,MO,573,US
65560,Salem,MO,573,US
65564,Solo,MO,,US
65565,Steelville,MO,573,US
65566,Viburnum,MO,573,US
65567,Stoutland,MO,"4,17,573",US
65570,Success,MO,417,US
65571,Summersville,MO,417,US
65580,Vichy,MO,573,US
65582,Vienna,MO,573,US
65583,Waynesville,MO,573,US
65584,Saint Robert,MO,573,US
65586,Wesco,MO,573,US
65588,Winona,MO,573,US
65589,Yukon,MO,417,US
65590,Long Lane,MO,417,US
65591,Montreal,MO,"5,73,417",US
65601,Aldrich,MO,417,US
65603,Arcola,MO,417,US
65604,Ash Grove,MO,417,US
65605,Aurora,MO,417,US
65606,Alton,MO,417,US
65607,Caplinger Mills,MO,417,US
65608,Ava,MO,417,US
65609,Bakersfield,MO,417,US
65610,Billings,MO,417,US
65611,Blue Eye,MO,417,US
65612,Bois D Arc,MO,417,US
65613,Bolivar,MO,417,US
65614,Bradleyville,MO,417,US
65615,Branson,MO,417,US
65616,Branson,MO,417,US
65617,Brighton,MO,417,US
65618,Brixey,MO,417,US
65619,Brookline,MO,417,US
65620,Bruner,MO,417,US
65622,Buffalo,MO,417,US
65623,Butterfield,MO,417,US
65624,Cape Fair,MO,417,US
65625,Cassville,MO,417,US
65626,Caulfield,MO,417,US
65627,Cedarcreek,MO,417,US
65629,Chadwick,MO,417,US
65630,Chestnutridge,MO,417,US
65631,Clever,MO,417,US
65632,Conway,MO,417,US
65633,Crane,MO,417,US
65634,Cross Timbers,MO,417,US
65635,Dadeville,MO,417,US
65636,Diggins,MO,417,US
65637,Dora,MO,417,US
65638,Drury,MO,417,US
65640,Dunnegan,MO,417,US
65641,Eagle Rock,MO,417,US
65644,Elkland,MO,417,US
65645,Eudora,MO,417,US
65646,Everton,MO,417,US
65647,Exeter,MO,417,US
65648,Fair Grove,MO,417,US
65649,Fair Play,MO,417,US
65650,Flemington,MO,417,US
65652,Fordland,MO,417,US
65653,Forsyth,MO,417,US
65654,Freistatt,MO,417,US
65655,Gainesville,MO,417,US
65656,Galena,MO,417,US
65657,Garrison,MO,417,US
65658,Golden,MO,417,US
65660,Graff,MO,417,US
65661,Greenfield,MO,417,US
65662,Grovespring,MO,417,US
65663,Half Way,MO,417,US
65664,Halltown,MO,417,US
65666,Hardenville,MO,417,US
65667,Hartville,MO,417,US
65668,Hermitage,MO,417,US
65669,Highlandville,MO,417,US
65672,Hollister,MO,417,US
65673,Hollister,MO,417,US
65674,Humansville,MO,417,US
65675,Hurley,MO,417,US
65676,Isabella,MO,417,US
65679,Kirbyville,MO,417,US
65680,Kissee Mills,MO,417,US
65681,Lampe,MO,417,US
65682,Lockwood,MO,417,US
65685,Louisburg,MO,417,US
65686,Kimberling City,MO,417,US
65688,Brandsville,MO,417,US
65689,Cabool,MO,417,US
65690,Couch,MO,417,US
65692,Koshkonong,MO,417,US
65701,Mc Clurg,MO,417,US
65702,Macomb,MO,417,US
65704,Mansfield,MO,417,US
65705,Marionville,MO,417,US
65706,Marshfield,MO,417,US
65707,Miller,MO,417,US
65708,Monett,MO,417,US
65710,Morrisville,MO,417,US
65711,Mountain Grove,MO,417,US
65712,Mount Vernon,MO,417,US
65713,Niangua,MO,417,US
65714,Nixa,MO,417,US
65715,Noble,MO,417,US
65717,Norwood,MO,417,US
65720,Oldfield,MO,417,US
65721,Ozark,MO,"4,17,314",US
65722,Phillipsburg,MO,417,US
65723,Pierce City,MO,417,US
65724,Pittsburg,MO,417,US
65725,Pleasant Hope,MO,417,US
65726,Point Lookout,MO,417,US
65727,Polk,MO,417,US
65728,Ponce De Leon,MO,417,US
65729,Pontiac,MO,417,US
65730,Powell,MO,417,US
65731,Powersite,MO,417,US
65732,Preston,MO,417,US
65733,Protem,MO,417,US
65734,Purdy,MO,417,US
65735,Quincy,MO,417,US
65737,Reeds Spring,MO,417,US
65738,Republic,MO,417,US
65739,Ridgedale,MO,417,US
65740,Rockaway Beach,MO,417,US
65741,Rockbridge,MO,417,US
65742,Rogersville,MO,417,US
65744,Rueter,MO,417,US
65745,Seligman,MO,417,US
65746,Seymour,MO,417,US
65747,Shell Knob,MO,417,US
65752,South Greenfield,MO,417,US
65753,Sparta,MO,417,US
65754,Spokane,MO,417,US
65755,Squires,MO,417,US
65756,Stotts City,MO,417,US
65757,Strafford,MO,417,US
65759,Taneyville,MO,417,US
65760,Tecumseh,MO,417,US
65761,Theodosia,MO,417,US
65762,Thornfield,MO,417,US
65764,Tunas,MO,417,US
65765,Turners,MO,417,US
65766,Udall,MO,417,US
65767,Urbana,MO,417,US
65768,Vanzant,MO,417,US
65769,Verona,MO,417,US
65770,Walnut Grove,MO,417,US
65771,Walnut Shade,MO,417,US
65772,Washburn,MO,417,US
65773,Wasola,MO,417,US
65774,Weaubleau,MO,417,US
65775,West Plains,MO,417,US
65776,South Fork,MO,417,US
65777,Moody,MO,417,US
65778,Myrtle,MO,417,US
65779,Wheatland,MO,417,US
65781,Willard,MO,417,US
65783,Windyville,MO,417,US
65784,Zanoni,MO,417,US
65785,Stockton,MO,417,US
65786,Macks Creek,MO,573,US
65787,Roach,MO,573,US
65788,Peace Valley,MO,417,US
65789,Pomona,MO,417,US
65790,Pottersville,MO,417,US
65791,Thayer,MO,"4,17,870",US
65793,Willow Springs,MO,417,US
65801,Springfield,MO,417,US
65802,Springfield,MO,417,US
65803,Springfield,MO,417,US
65804,Springfield,MO,417,US
65805,Springfield,MO,417,US
65806,Springfield,MO,417,US
65807,Springfield,MO,417,US
65808,Springfield,MO,417,US
65809,Springfield,MO,417,US
65810,Springfield,MO,417,US
65814,Springfield,MO,417,US
65817,Springfield,MO,417,US
65890,Springfield,MO,417,US
65897,Springfield,MO,417,US
65898,Springfield,MO,417,US
65899,Springfield,MO,417,US
66002,Atchison,KS,"9,13,785",US
66006,Baldwin City,KS,785,US
66007,Basehor,KS,913,US
66008,Bendena,KS,785,US
66010,Blue Mound,KS,"9,13,620",US
66012,Bonner Springs,KS,913,US
66013,Bucyrus,KS,913,US
66014,Centerville,KS,913,US
66015,Colony,KS,620,US
66016,Cummings,KS,913,US
66017,Denton,KS,785,US
66018,De Soto,KS,913,US
66019,Clearview City,KS,913,US
66020,Easton,KS,913,US
66021,Edgerton,KS,"9,13,785",US
66023,Effingham,KS,"9,13,785",US
66024,Elwood,KS,"9,13,785",US
66025,Eudora,KS,785,US
66026,Fontana,KS,913,US
66027,Fort Leavenworth,KS,913,US
66030,Gardner,KS,913,US
66031,New Century,KS,913,US
66032,Garnett,KS,"7,85,913",US
66033,Greeley,KS,785,US
66035,Highland,KS,785,US
66036,Hillsdale,KS,913,US
66039,Kincaid,KS,"6,20,913",US
66040,Lacygne,KS,913,US
66041,Lancaster,KS,"9,13,785",US
66042,Lane,KS,785,US
66043,Lansing,KS,913,US
66044,Lawrence,KS,"7,85,913",US
66045,Lawrence,KS,785,US
66046,Lawrence,KS,785,US
66047,Lawrence,KS,785,US
66048,Leavenworth,KS,913,US
66049,Lawrence,KS,785,US
66050,Lecompton,KS,785,US
66051,Olathe,KS,913,US
66052,Linwood,KS,"9,13,785",US
66053,Louisburg,KS,913,US
66054,Mc Louth,KS,"9,13,785",US
66056,Mound City,KS,"9,13,620",US
66058,Muscotah,KS,785,US
66060,Nortonville,KS,913,US
66061,Olathe,KS,913,US
66062,Olathe,KS,913,US
66063,Olathe,KS,913,US
66064,Osawatomie,KS,"9,13,785",US
66066,Oskaloosa,KS,785,US
66067,Ottawa,KS,785,US
66070,Ozawkie,KS,785,US
66071,Paola,KS,"9,13,785",US
66072,Parker,KS,913,US
66073,Perry,KS,785,US
66075,Pleasanton,KS,913,US
66076,Pomona,KS,785,US
66077,Potter,KS,,US
66078,Princeton,KS,785,US
66079,Rantoul,KS,"7,85,913",US
66080,Richmond,KS,785,US
66083,Spring Hill,KS,913,US
66085,Stilwell,KS,913,US
66086,Tonganoxie,KS,913,US
66087,Troy,KS,"7,85,913",US
66088,Valley Falls,KS,"7,85,913",US
66090,Wathena,KS,"7,85,913",US
66091,Welda,KS,"7,85,620",US
66092,Wellsville,KS,785,US
66093,Westphalia,KS,785,US
66094,White Cloud,KS,785,US
66095,Williamsburg,KS,785,US
66097,Winchester,KS,913,US
66101,Kansas City,KS,913,US
66102,Kansas City,KS,"9,13,816",US
66103,Kansas City,KS,913,US
66104,Kansas City,KS,913,US
66105,Kansas City,KS,913,US
66106,Kansas City,KS,913,US
66109,Kansas City,KS,"9,13,816",US
66110,Kansas City,KS,913,US
66111,Kansas City,KS,913,US
66112,Kansas City,KS,"9,13,816",US
66113,Edwardsville,KS,913,US
66115,Kansas City,KS,913,US
66117,Kansas City,KS,913,US
66118,Kansas City,KS,913,US
66119,Kansas City,KS,913,US
66160,Kansas City,KS,913,US
66201,Mission,KS,913,US
66202,Mission,KS,"8,16,913",US
66203,Shawnee,KS,"91,37,85,816",US
66204,Overland Park,KS,"9,13,816",US
66205,Mission,KS,"9,13,816",US
66206,Leawood,KS,"9,13,816",US
66207,Overland Park,KS,"9,13,785",US
66208,Prairie Village,KS,"9,13,816",US
66209,Leawood,KS,913,US
66210,Overland Park,KS,"9,13,816",US
66211,Leawood,KS,"9,13,816",US
66212,Overland Park,KS,"9,13,816",US
66213,Overland Park,KS,913,US
66214,Overland Park,KS,913,US
66215,Lenexa,KS,913,US
66216,Shawnee,KS,"9,13,816",US
66217,Shawnee,KS,913,US
66218,Shawnee,KS,913,US
66219,Lenexa,KS,913,US
66220,Lenexa,KS,913,US
66221,Overland Park,KS,913,US
66222,Mission,KS,913,US
66223,Overland Park,KS,913,US
66224,Overland Park,KS,913,US
66225,Overland Park,KS,913,US
66226,Shawnee,KS,913,US
66227,Lenexa,KS,913,US
66250,Shawnee Mission,KS,913,US
66251,Overland Park,KS,816,US
66276,Shawnee Mission,KS,913,US
66279,Shawnee Mission,KS,913,US
66282,Overland Park,KS,913,US
66283,Overland Park,KS,913,US
66285,Lenexa,KS,913,US
66286,Shawnee,KS,913,US
66401,Alma,KS,785,US
66402,Auburn,KS,785,US
66403,Axtell,KS,785,US
66404,Baileyville,KS,785,US
66406,Beattie,KS,785,US
66407,Belvue,KS,785,US
66408,Bern,KS,785,US
66409,Berryton,KS,785,US
66411,Blue Rapids,KS,785,US
66412,Bremen,KS,785,US
66413,Burlingame,KS,785,US
66414,Carbondale,KS,"9,13,785",US
66415,Centralia,KS,785,US
66416,Circleville,KS,785,US
66417,Corning,KS,785,US
66418,Delia,KS,785,US
66419,Denison,KS,785,US
66420,Dover,KS,785,US
66422,Emmett,KS,785,US
66423,Eskridge,KS,"7,85,620",US
66424,Everest,KS,785,US
66425,Fairview,KS,785,US
66426,Fostoria,KS,785,US
66427,Frankfort,KS,785,US
66428,Goff,KS,785,US
66429,Grantville,KS,785,US
66431,Harveyville,KS,785,US
66432,Havensville,KS,785,US
66434,Hiawatha,KS,785,US
66436,Holton,KS,785,US
66438,Home,KS,785,US
66439,Horton,KS,"7,85,913",US
66440,Hoyt,KS,785,US
66441,Junction City,KS,785,US
66442,Fort Riley,KS,785,US
66449,Leonardville,KS,785,US
66451,Lyndon,KS,785,US
66501,Mc Farland,KS,785,US
66502,Manhattan,KS,785,US
66503,Manhattan,KS,785,US
66505,Manhattan,KS,785,US
66506,Manhattan,KS,785,US
66507,Maple Hill,KS,785,US
66508,Marysville,KS,785,US
66509,Mayetta,KS,785,US
66510,Melvern,KS,785,US
66512,Meriden,KS,785,US
66514,Milford,KS,785,US
66515,Morrill,KS,785,US
66516,Netawaka,KS,785,US
66517,Ogden,KS,785,US
66518,Oketo,KS,785,US
66520,Olsburg,KS,785,US
66521,Onaga,KS,785,US
66522,Oneida,KS,785,US
66523,Osage City,KS,"7,85,620",US
66524,Overbrook,KS,785,US
66526,Paxico,KS,785,US
66527,Powhattan,KS,785,US
66528,Quenemo,KS,785,US
66531,Riley,KS,785,US
66532,Robinson,KS,785,US
66533,Rossville,KS,785,US
66534,Sabetha,KS,785,US
66535,Saint George,KS,785,US
66536,Saint Marys,KS,785,US
66537,Scranton,KS,785,US
66538,Seneca,KS,785,US
66539,Silver Lake,KS,785,US
66540,Soldier,KS,785,US
66541,Summerfield,KS,"78,59,13,402",US
66542,Tecumseh,KS,785,US
66543,Vassar,KS,785,US
66544,Vermillion,KS,785,US
66546,Wakarusa,KS,785,US
66547,Wamego,KS,785,US
66548,Waterville,KS,785,US
66549,Westmoreland,KS,785,US
66550,Wetmore,KS,785,US
66552,Whiting,KS,785,US
66554,Randolph,KS,785,US
66601,Topeka,KS,785,US
66603,Topeka,KS,785,US
66604,Topeka,KS,785,US
66605,Topeka,KS,785,US
66606,Topeka,KS,785,US
66607,Topeka,KS,785,US
66608,Topeka,KS,785,US
66609,Topeka,KS,785,US
66610,Topeka,KS,785,US
66611,Topeka,KS,785,US
66612,Topeka,KS,785,US
66614,Topeka,KS,785,US
66615,Topeka,KS,785,US
66616,Topeka,KS,785,US
66617,Topeka,KS,785,US
66618,Topeka,KS,785,US
66619,Topeka,KS,785,US
66620,Topeka,KS,785,US
66621,Topeka,KS,785,US
66622,Topeka,KS,785,US
66624,Topeka,KS,785,US
66625,Topeka,KS,785,US
66626,Topeka,KS,785,US
66628,Topeka,KS,785,US
66629,Topeka,KS,785,US
66636,Topeka,KS,785,US
66637,Topeka,KS,785,US
66642,Topeka,KS,785,US
66647,Topeka,KS,785,US
66652,Topeka,KS,785,US
66653,Topeka,KS,785,US
66667,Topeka,KS,785,US
66675,Topeka,KS,785,US
66683,Topeka,KS,785,US
66692,Topeka,KS,785,US
66699,Topeka,KS,785,US
66701,Fort Scott,KS,"6,20,913",US
66710,Altoona,KS,620,US
66711,Arcadia,KS,620,US
66712,Arma,KS,620,US
66713,Baxter Springs,KS,620,US
66714,Benedict,KS,620,US
66716,Bronson,KS,620,US
66717,Buffalo,KS,620,US
66720,Chanute,KS,620,US
66724,Cherokee,KS,620,US
66725,Columbus,KS,620,US
66728,Crestline,KS,620,US
66732,Elsmore,KS,620,US
66733,Erie,KS,620,US
66734,Farlington,KS,620,US
66735,Franklin,KS,620,US
66736,Fredonia,KS,620,US
66738,Fulton,KS,"6,20,913",US
66739,Galena,KS,620,US
66740,Galesburg,KS,620,US
66741,Garland,KS,620,US
66742,Gas,KS,620,US
66743,Girard,KS,620,US
66746,Hepler,KS,620,US
66748,Humboldt,KS,620,US
66749,Iola,KS,620,US
66751,La Harpe,KS,620,US
66753,Mc Cune,KS,620,US
66754,Mapleton,KS,620,US
66755,Moran,KS,620,US
66756,Mulberry,KS,620,US
66757,Neodesha,KS,620,US
66758,Neosho Falls,KS,620,US
66759,New Albany,KS,620,US
66760,Opolis,KS,620,US
66761,Piqua,KS,620,US
66762,Pittsburg,KS,"6,20,417",US
66763,Frontenac,KS,620,US
66767,Prescott,KS,913,US
66769,Redfield,KS,620,US
66770,Riverton,KS,620,US
66771,Saint Paul,KS,620,US
66772,Savonburg,KS,620,US
66773,Scammon,KS,620,US
66775,Stark,KS,620,US
66776,Thayer,KS,620,US
66777,Toronto,KS,620,US
66778,Treece,KS,620,US
66779,Uniontown,KS,620,US
66780,Walnut,KS,620,US
66781,Weir,KS,620,US
66782,West Mineral,KS,620,US
66783,Yates Center,KS,620,US
66801,Emporia,KS,620,US
66830,Admire,KS,620,US
66833,Allen,KS,620,US
66834,Alta Vista,KS,785,US
66835,Americus,KS,620,US
66838,Burdick,KS,785,US
66839,Burlington,KS,620,US
66840,Burns,KS,"6,20,316",US
66842,Cassoday,KS,620,US
66843,Cedar Point,KS,620,US
66845,Cottonwood Falls,KS,620,US
66846,Council Grove,KS,"6,20,785",US
66849,Dwight,KS,"6,20,785",US
66850,Elmdale,KS,620,US
66851,Florence,KS,620,US
66852,Gridley,KS,620,US
66853,Hamilton,KS,620,US
66854,Hartford,KS,620,US
66855,Lamont,KS,620,US
66856,Lebo,KS,"6,20,785",US
66857,Le Roy,KS,"6,20,785",US
66858,Lincolnville,KS,"6,20,785",US
66859,Lost Springs,KS,785,US
66860,Madison,KS,620,US
66861,Marion,KS,620,US
66862,Matfield Green,KS,620,US
66863,Neal,KS,620,US
66864,Neosho Rapids,KS,620,US
66865,Olpe,KS,620,US
66866,Peabody,KS,"6,20,316",US
66868,Reading,KS,"6,20,785",US
66869,Strong City,KS,620,US
66870,Virgil,KS,620,US
66871,Waverly,KS,"7,85,620",US
66872,White City,KS,785,US
66873,Wilsey,KS,785,US
66901,Concordia,KS,785,US
66930,Agenda,KS,785,US
66932,Athol,KS,785,US
66933,Barnes,KS,785,US
66935,Belleville,KS,785,US
66936,Burr Oak,KS,785,US
66937,Clifton,KS,785,US
66938,Clyde,KS,785,US
66939,Courtland,KS,785,US
66940,Cuba,KS,785,US
66941,Esbon,KS,"7,85,913",US
66942,Formoso,KS,785,US
66943,Greenleaf,KS,785,US
66944,Haddam,KS,785,US
66945,Hanover,KS,785,US
66946,Hollenberg,KS,785,US
66948,Jamestown,KS,785,US
66949,Jewell,KS,785,US
66951,Kensington,KS,785,US
66952,Lebanon,KS,785,US
66953,Linn,KS,785,US
66955,Mahaska,KS,785,US
66956,Mankato,KS,785,US
66958,Morrowville,KS,785,US
66959,Munden,KS,785,US
66960,Narka,KS,785,US
66961,Norway,KS,785,US
66962,Palmer,KS,785,US
66963,Randall,KS,785,US
66964,Republic,KS,785,US
66966,Scandia,KS,785,US
66967,Smith Center,KS,785,US
66968,Washington,KS,785,US
66970,Webber,KS,785,US
67001,Andale,KS,316,US
67002,Andover,KS,316,US
67003,Anthony,KS,620,US
67004,Argonia,KS,620,US
67005,Arkansas City,KS,620,US
67008,Atlanta,KS,620,US
67009,Attica,KS,620,US
67010,Augusta,KS,316,US
67012,Beaumont,KS,620,US
67013,Belle Plaine,KS,620,US
67016,Bentley,KS,316,US
67017,Benton,KS,"3,16,620",US
67018,Bluff City,KS,620,US
67019,Burden,KS,620,US
67020,Burrton,KS,"6,20,316",US
67021,Byers,KS,620,US
67022,Caldwell,KS,620,US
67023,Cambridge,KS,620,US
67024,Cedar Vale,KS,"6,20,918",US
67025,Cheney,KS,"3,16,620",US
67026,Clearwater,KS,"6,20,316",US
67028,Coats,KS,620,US
67029,Coldwater,KS,620,US
67030,Colwich,KS,316,US
67031,Conway Springs,KS,620,US
67035,Cunningham,KS,620,US
67036,Danville,KS,620,US
67037,Derby,KS,316,US
67038,Dexter,KS,620,US
67039,Douglass,KS,"3,16,620",US
67041,Elbing,KS,316,US
67042,El Dorado,KS,"3,16,620",US
67045,Eureka,KS,620,US
67047,Fall River,KS,620,US
67049,Freeport,KS,620,US
67050,Garden Plain,KS,316,US
67051,Geuda Springs,KS,620,US
67052,Goddard,KS,"3,16,620",US
67053,Goessel,KS,620,US
67054,Greensburg,KS,620,US
67055,Greenwich,KS,,US
67056,Halstead,KS,"3,16,620",US
67057,Hardtner,KS,620,US
67058,Harper,KS,"6,20,316",US
67059,Haviland,KS,620,US
67060,Haysville,KS,"3,16,620",US
67061,Hazelton,KS,620,US
67062,Hesston,KS,620,US
67063,Hillsboro,KS,620,US
67065,Isabel,KS,620,US
67066,Iuka,KS,620,US
67067,Kechi,KS,316,US
67068,Kingman,KS,620,US
67070,Kiowa,KS,620,US
67071,Lake City,KS,620,US
67072,Latham,KS,620,US
67073,Lehigh,KS,620,US
67074,Leon,KS,"3,16,620",US
67101,Maize,KS,316,US
67102,Maple City,KS,620,US
67103,Mayfield,KS,620,US
67104,Medicine Lodge,KS,620,US
67105,Milan,KS,620,US
67106,Milton,KS,"6,20,316",US
67107,Moundridge,KS,620,US
67108,Mount Hope,KS,316,US
67109,Mullinville,KS,620,US
67110,Mulvane,KS,316,US
67111,Murdock,KS,620,US
67112,Nashville,KS,620,US
67114,Newton,KS,"3,16,620",US
67117,North Newton,KS,316,US
67118,Norwich,KS,620,US
67119,Oxford,KS,620,US
67120,Peck,KS,"3,16,620",US
67122,Piedmont,KS,620,US
67123,Potwin,KS,"6,20,316",US
67124,Pratt,KS,620,US
67127,Protection,KS,620,US
67131,Rock,KS,620,US
67132,Rosalia,KS,"6,20,316",US
67133,Rose Hill,KS,316,US
67134,Sawyer,KS,620,US
67135,Sedgwick,KS,316,US
67137,Severy,KS,620,US
67138,Sharon,KS,620,US
67140,South Haven,KS,620,US
67142,Spivey,KS,620,US
67143,Sun City,KS,620,US
67144,Towanda,KS,"3,16,620",US
67146,Udall,KS,620,US
67147,Valley Center,KS,316,US
67149,Viola,KS,"6,20,316",US
67150,Waldron,KS,620,US
67151,Walton,KS,620,US
67152,Wellington,KS,620,US
67154,Whitewater,KS,"3,16,620",US
67155,Wilmore,KS,620,US
67156,Winfield,KS,620,US
67159,Zenda,KS,620,US
67201,Wichita,KS,316,US
67202,Wichita,KS,316,US
67203,Wichita,KS,316,US
67204,Wichita,KS,316,US
67205,Wichita,KS,316,US
67206,Wichita,KS,316,US
67207,Wichita,KS,316,US
67208,Wichita,KS,316,US
67209,Wichita,KS,316,US
67210,Wichita,KS,316,US
67211,Wichita,KS,316,US
67212,Wichita,KS,316,US
67213,Wichita,KS,316,US
67214,Wichita,KS,"3,16,620",US
67215,Wichita,KS,316,US
67216,Wichita,KS,316,US
67217,Wichita,KS,316,US
67218,Wichita,KS,316,US
67219,Wichita,KS,316,US
67220,Wichita,KS,316,US
67221,Mcconnell Afb,KS,316,US
67223,Wichita,KS,316,US
67226,Wichita,KS,316,US
67227,Wichita,KS,316,US
67228,Wichita,KS,316,US
67230,Wichita,KS,316,US
67232,Wichita,KS,316,US
67235,Wichita,KS,316,US
67260,Wichita,KS,316,US
67275,Wichita,KS,316,US
67276,Wichita,KS,316,US
67277,Wichita,KS,316,US
67278,Wichita,KS,316,US
67301,Independence,KS,620,US
67330,Altamont,KS,620,US
67332,Bartlett,KS,620,US
67333,Caney,KS,620,US
67334,Chautauqua,KS,620,US
67335,Cherryvale,KS,620,US
67336,Chetopa,KS,620,US
67337,Coffeyville,KS,620,US
67340,Dearing,KS,620,US
67341,Dennis,KS,620,US
67342,Edna,KS,620,US
67344,Elk City,KS,620,US
67345,Elk Falls,KS,620,US
67346,Grenola,KS,620,US
67347,Havana,KS,620,US
67349,Howard,KS,620,US
67351,Liberty,KS,620,US
67352,Longton,KS,620,US
67353,Moline,KS,620,US
67354,Mound Valley,KS,620,US
67355,Niotaze,KS,620,US
67356,Oswego,KS,620,US
67357,Parsons,KS,620,US
67360,Peru,KS,620,US
67361,Sedan,KS,620,US
67363,Sycamore,KS,620,US
67364,Tyro,KS,620,US
67401,Salina,KS,785,US
67402,Salina,KS,785,US
67410,Abilene,KS,785,US
67416,Assaria,KS,785,US
67417,Aurora,KS,785,US
67418,Barnard,KS,785,US
67420,Beloit,KS,785,US
67422,Bennington,KS,785,US
67423,Beverly,KS,785,US
67425,Brookville,KS,785,US
67427,Bushton,KS,"6,20,785",US
67428,Canton,KS,620,US
67430,Cawker City,KS,785,US
67431,Chapman,KS,785,US
67432,Clay Center,KS,"7,85,913",US
67436,Delphos,KS,785,US
67437,Downs,KS,785,US
67438,Durham,KS,620,US
67439,Ellsworth,KS,785,US
67441,Enterprise,KS,785,US
67442,Falun,KS,785,US
67443,Galva,KS,620,US
67444,Geneseo,KS,"6,20,785",US
67445,Glasco,KS,785,US
67446,Glen Elder,KS,785,US
67447,Green,KS,785,US
67448,Gypsum,KS,785,US
67449,Herington,KS,785,US
67450,Holyrood,KS,785,US
67451,Hope,KS,785,US
67452,Hunter,KS,785,US
67454,Kanopolis,KS,785,US
67455,Lincoln,KS,785,US
67456,Lindsborg,KS,785,US
67457,Little River,KS,620,US
67458,Longford,KS,785,US
67459,Lorraine,KS,785,US
67460,Mcpherson,KS,620,US
67464,Marquette,KS,785,US
67466,Miltonvale,KS,785,US
67467,Minneapolis,KS,785,US
67468,Morganville,KS,785,US
67470,New Cambria,KS,785,US
67473,Osborne,KS,785,US
67474,Portis,KS,785,US
67475,Ramona,KS,785,US
67476,Roxbury,KS,785,US
67478,Simpson,KS,785,US
67480,Solomon,KS,785,US
67481,Sylvan Grove,KS,785,US
67482,Talmage,KS,785,US
67483,Tampa,KS,"7,85,620",US
67484,Tescott,KS,785,US
67485,Tipton,KS,785,US
67487,Wakefield,KS,785,US
67490,Wilson,KS,785,US
67491,Windom,KS,620,US
67492,Woodbine,KS,785,US
67501,Hutchinson,KS,620,US
67502,Hutchinson,KS,"6,20,316",US
67504,Hutchinson,KS,620,US
67505,South Hutchinson,KS,620,US
67510,Abbyville,KS,620,US
67511,Albert,KS,"6,20,785",US
67512,Alden,KS,620,US
67513,Alexander,KS,785,US
67514,Arlington,KS,620,US
67515,Arnold,KS,785,US
67516,Bazine,KS,785,US
67518,Beeler,KS,785,US
67519,Belpre,KS,620,US
67520,Bison,KS,785,US
67521,Brownell,KS,785,US
67522,Buhler,KS,620,US
67523,Burdett,KS,620,US
67524,Chase,KS,620,US
67525,Claflin,KS,620,US
67526,Ellinwood,KS,620,US
67529,Garfield,KS,620,US
67530,Great Bend,KS,620,US
67543,Haven,KS,"6,20,316",US
67544,Hoisington,KS,620,US
67545,Hudson,KS,620,US
67546,Inman,KS,620,US
67547,Kinsley,KS,620,US
67548,La Crosse,KS,785,US
67550,Larned,KS,620,US
67552,Lewis,KS,620,US
67553,Liebenthal,KS,785,US
67554,Lyons,KS,620,US
67556,Mc Cracken,KS,785,US
67557,Macksville,KS,620,US
67559,Nekoma,KS,"7,85,620",US
67560,Ness City,KS,785,US
67561,Nickerson,KS,620,US
67563,Offerle,KS,620,US
67564,Olmitz,KS,620,US
67565,Otis,KS,"7,85,620",US
67566,Partridge,KS,620,US
67567,Pawnee Rock,KS,620,US
67568,Plevna,KS,620,US
67570,Pretty Prairie,KS,620,US
67572,Ransom,KS,"6,20,785",US
67573,Raymond,KS,620,US
67574,Rozel,KS,620,US
67575,Rush Center,KS,"7,85,620",US
67576,Saint John,KS,620,US
67578,Stafford,KS,620,US
67579,Sterling,KS,620,US
67581,Sylvia,KS,620,US
67583,Turon,KS,620,US
67584,Utica,KS,785,US
67585,Yoder,KS,620,US
67601,Hays,KS,785,US
67621,Agra,KS,785,US
67622,Almena,KS,785,US
67623,Alton,KS,785,US
67625,Bogue,KS,785,US
67626,Bunker Hill,KS,785,US
67627,Catharine,KS,785,US
67628,Cedar,KS,785,US
67629,Clayton,KS,785,US
67631,Collyer,KS,785,US
67632,Damar,KS,785,US
67634,Dorrance,KS,785,US
67635,Dresden,KS,785,US
67637,Ellis,KS,785,US
67638,Gaylord,KS,785,US
67639,Glade,KS,785,US
67640,Gorham,KS,785,US
67642,Hill City,KS,785,US
67643,Jennings,KS,785,US
67644,Kirwin,KS,785,US
67645,Lenora,KS,785,US
67646,Logan,KS,785,US
67647,Long Island,KS,785,US
67648,Lucas,KS,785,US
67649,Luray,KS,785,US
67650,Morland,KS,785,US
67651,Natoma,KS,785,US
67653,Norcatur,KS,785,US
67654,Norton,KS,785,US
67656,Ogallah,KS,785,US
67657,Palco,KS,785,US
67658,Paradise,KS,785,US
67659,Penokee,KS,785,US
67660,Pfeifer,KS,785,US
67661,Phillipsburg,KS,785,US
67663,Plainville,KS,785,US
67664,Prairie View,KS,785,US
67665,Russell,KS,"7,85,620",US
67667,Schoenchen,KS,785,US
67669,Stockton,KS,785,US
67671,Victoria,KS,785,US
67672,Wakeeney,KS,785,US
67673,Waldo,KS,785,US
67674,Walker,KS,785,US
67675,Woodston,KS,785,US
67701,Colby,KS,785,US
67730,Atwood,KS,785,US
67731,Bird City,KS,785,US
67732,Brewster,KS,785,US
67733,Edson,KS,785,US
67734,Gem,KS,785,US
67735,Goodland,KS,785,US
67736,Gove,KS,"7,85,620",US
67737,Grainfield,KS,785,US
67738,Grinnell,KS,785,US
67739,Herndon,KS,785,US
67740,Hoxie,KS,785,US
67741,Kanorado,KS,785,US
67743,Levant,KS,785,US
67744,Ludell,KS,785,US
67745,Mc Donald,KS,785,US
67747,Monument,KS,785,US
67748,Oakley,KS,785,US
67749,Oberlin,KS,785,US
67751,Park,KS,785,US
67752,Quinter,KS,785,US
67753,Rexford,KS,785,US
67756,Saint Francis,KS,785,US
67757,Selden,KS,785,US
67758,Sharon Springs,KS,785,US
67761,Wallace,KS,785,US
67762,Weskan,KS,785,US
67764,Winona,KS,785,US
67801,Dodge City,KS,620,US
67831,Ashland,KS,620,US
67834,Bucklin,KS,620,US
67835,Cimarron,KS,"6,20,785",US
67836,Coolidge,KS,620,US
67837,Copeland,KS,620,US
67838,Deerfield,KS,620,US
67839,Dighton,KS,"6,20,785",US
67840,Englewood,KS,620,US
67841,Ensign,KS,620,US
67842,Ford,KS,620,US
67843,Fort Dodge,KS,620,US
67844,Fowler,KS,620,US
67846,Garden City,KS,"6,20,316",US
67849,Hanston,KS,620,US
67850,Healy,KS,620,US
67851,Holcomb,KS,620,US
67853,Ingalls,KS,620,US
67854,Jetmore,KS,620,US
67855,Johnson,KS,620,US
67857,Kendall,KS,620,US
67859,Kismet,KS,620,US
67860,Lakin,KS,620,US
67861,Leoti,KS,620,US
67862,Manter,KS,620,US
67863,Marienthal,KS,620,US
67864,Meade,KS,620,US
67865,Minneola,KS,620,US
67867,Montezuma,KS,620,US
67868,Pierceville,KS,620,US
67869,Plains,KS,620,US
67870,Satanta,KS,620,US
67871,Scott City,KS,620,US
67876,Spearville,KS,620,US
67877,Sublette,KS,620,US
67878,Syracuse,KS,620,US
67879,Tribune,KS,620,US
67880,Ulysses,KS,620,US
67882,Wright,KS,620,US
67901,Liberal,KS,620,US
67905,Liberal,KS,620,US
67950,Elkhart,KS,"6,20,580",US
67951,Hugoton,KS,620,US
67952,Moscow,KS,620,US
67953,Richfield,KS,620,US
67954,Rolla,KS,620,US
68001,Abie,NE,402,US
68002,Arlington,NE,402,US
68003,Ashland,NE,402,US
68004,Bancroft,NE,402,US
68005,Bellevue,NE,402,US
68007,Bennington,NE,402,US
68008,Blair,NE,402,US
68009,Blair,NE,402,US
68010,Boys Town,NE,402,US
68014,Bruno,NE,402,US
68015,Cedar Bluffs,NE,402,US
68016,Cedar Creek,NE,402,US
68017,Ceresco,NE,402,US
68018,Colon,NE,402,US
68019,Craig,NE,402,US
68020,Decatur,NE,402,US
68022,Elkhorn,NE,402,US
68023,Fort Calhoun,NE,402,US
68025,Fremont,NE,402,US
68026,Fremont,NE,402,US
68028,Gretna,NE,402,US
68029,Herman,NE,402,US
68030,Homer,NE,402,US
68031,Hooper,NE,402,US
68033,Ithaca,NE,402,US
68034,Kennard,NE,402,US
68036,Linwood,NE,402,US
68037,Louisville,NE,402,US
68038,Lyons,NE,402,US
68039,Macy,NE,402,US
68040,Malmo,NE,402,US
68041,Mead,NE,402,US
68042,Memphis,NE,402,US
68044,Nickerson,NE,402,US
68045,Oakland,NE,402,US
68046,Papillion,NE,402,US
68047,Pender,NE,402,US
68048,Plattsmouth,NE,402,US
68050,Prague,NE,402,US
68055,Rosalie,NE,402,US
68056,St Columbans,NE,402,US
68057,Scribner,NE,402,US
68058,South Bend,NE,402,US
68059,Springfield,NE,402,US
68061,Tekamah,NE,402,US
68062,Thurston,NE,402,US
68063,Uehling,NE,402,US
68064,Valley,NE,402,US
68065,Valparaiso,NE,402,US
68066,Wahoo,NE,402,US
68067,Walthill,NE,402,US
68068,Washington,NE,402,US
68069,Waterloo,NE,402,US
68070,Weston,NE,402,US
68071,Winnebago,NE,402,US
68072,Winslow,NE,402,US
68073,Yutan,NE,402,US
68101,Omaha,NE,402,US
68102,Omaha,NE,402,US
68103,Omaha,NE,402,US
68104,Omaha,NE,402,US
68105,Omaha,NE,402,US
68106,Omaha,NE,402,US
68107,Omaha,NE,402,US
68108,Omaha,NE,402,US
68109,Omaha,NE,402,US
68110,Omaha,NE,402,US
68111,Omaha,NE,402,US
68112,Omaha,NE,402,US
68113,Offutt A F B,NE,402,US
68114,Omaha,NE,402,US
68116,Omaha,NE,402,US
68117,Omaha,NE,402,US
68118,Omaha,NE,402,US
68119,Omaha,NE,402,US
68120,Omaha,NE,402,US
68122,Omaha,NE,402,US
68123,Bellevue,NE,402,US
68124,Omaha,NE,402,US
68127,Omaha,NE,402,US
68128,La Vista,NE,402,US
68130,Omaha,NE,402,US
68131,Omaha,NE,402,US
68132,Omaha,NE,402,US
68133,Papillion,NE,402,US
68134,Omaha,NE,"4,02,712",US
68135,Omaha,NE,402,US
68136,Omaha,NE,402,US
68137,Omaha,NE,402,US
68138,Omaha,NE,402,US
68139,Omaha,NE,402,US
68142,Omaha,NE,402,US
68144,Omaha,NE,402,US
68145,Omaha,NE,402,US
68147,Bellevue,NE,402,US
68152,Omaha,NE,402,US
68154,Omaha,NE,402,US
68155,Omaha,NE,402,US
68157,Omaha,NE,402,US
68164,Omaha,NE,402,US
68172,Omaha,NE,402,US
68175,Omaha,NE,402,US
68176,Omaha,NE,402,US
68178,Omaha,NE,402,US
68179,Omaha,NE,402,US
68180,Omaha,NE,402,US
68181,Omaha,NE,402,US
68182,Omaha,NE,402,US
68183,Omaha,NE,402,US
68197,Omaha,NE,402,US
68198,Omaha,NE,402,US
68301,Adams,NE,402,US
68303,Alexandria,NE,402,US
68304,Alvo,NE,402,US
68305,Auburn,NE,402,US
68307,Avoca,NE,402,US
68309,Barneston,NE,402,US
68310,Beatrice,NE,402,US
68313,Beaver Crossing,NE,402,US
68314,Bee,NE,402,US
68315,Belvidere,NE,402,US
68316,Benedict,NE,402,US
68317,Bennet,NE,402,US
68318,Blue Springs,NE,402,US
68319,Bradshaw,NE,402,US
68320,Brock,NE,402,US
68321,Brownville,NE,402,US
68322,Bruning,NE,402,US
68323,Burchard,NE,402,US
68324,Burr,NE,402,US
68325,Byron,NE,"4,02,785",US
68326,Carleton,NE,402,US
68327,Chester,NE,"4,02,785",US
68328,Clatonia,NE,402,US
68329,Cook,NE,402,US
68330,Cordova,NE,402,US
68331,Cortland,NE,402,US
68332,Crab Orchard,NE,402,US
68333,Crete,NE,402,US
68335,Davenport,NE,402,US
68336,Davey,NE,402,US
68337,Dawson,NE,402,US
68338,Daykin,NE,402,US
68339,Denton,NE,402,US
68340,Deshler,NE,402,US
68341,De Witt,NE,402,US
68342,Diller,NE,402,US
68343,Dorchester,NE,402,US
68344,Douglas,NE,402,US
68345,Du Bois,NE,402,US
68346,Dunbar,NE,402,US
68347,Eagle,NE,402,US
68348,Elk Creek,NE,402,US
68349,Elmwood,NE,402,US
68350,Endicott,NE,402,US
68351,Exeter,NE,402,US
68352,Fairbury,NE,402,US
68354,Fairmont,NE,402,US
68355,Falls City,NE,402,US
68357,Filley,NE,402,US
68358,Firth,NE,402,US
68359,Friend,NE,402,US
68360,Garland,NE,402,US
68361,Geneva,NE,402,US
68362,Gilead,NE,402,US
68364,Goehner,NE,402,US
68365,Grafton,NE,402,US
68366,Greenwood,NE,402,US
68367,Gresham,NE,402,US
68368,Hallam,NE,402,US
68370,Hebron,NE,402,US
68371,Henderson,NE,402,US
68372,Hickman,NE,402,US
68375,Hubbell,NE,402,US
68376,Humboldt,NE,402,US
68377,Jansen,NE,402,US
68378,Johnson,NE,402,US
68379,Julian,NE,402,US
68380,Lewiston,NE,402,US
68381,Liberty,NE,402,US
68382,Lorton,NE,402,US
68401,Mc Cool Junction,NE,402,US
68402,Malcolm,NE,402,US
68403,Manley,NE,402,US
68404,Martell,NE,402,US
68405,Milford,NE,402,US
68406,Milligan,NE,402,US
68407,Murdock,NE,402,US
68409,Murray,NE,402,US
68410,Nebraska City,NE,402,US
68413,Nehawka,NE,402,US
68414,Nemaha,NE,402,US
68415,Odell,NE,402,US
68416,Ohiowa,NE,402,US
68417,Otoe,NE,402,US
68418,Palmyra,NE,402,US
68419,Panama,NE,402,US
68420,Pawnee City,NE,402,US
68421,Peru,NE,402,US
68422,Pickrell,NE,402,US
68423,Pleasant Dale,NE,402,US
68424,Plymouth,NE,402,US
68428,Raymond,NE,402,US
68429,Reynolds,NE,402,US
68430,Roca,NE,402,US
68431,Rulo,NE,402,US
68433,Salem,NE,402,US
68434,Seward,NE,402,US
68436,Shickley,NE,402,US
68437,Shubert,NE,402,US
68438,Sprague,NE,402,US
68439,Staplehurst,NE,402,US
68440,Steele City,NE,402,US
68441,Steinauer,NE,402,US
68442,Stella,NE,402,US
68443,Sterling,NE,402,US
68444,Strang,NE,402,US
68445,Swanton,NE,402,US
68446,Syracuse,NE,402,US
68447,Table Rock,NE,402,US
68448,Talmage,NE,402,US
68450,Tecumseh,NE,402,US
68452,Ong,NE,402,US
68453,Tobias,NE,402,US
68454,Unadilla,NE,402,US
