zip,primary_city,state,area_codes,country
79532,Loraine,TX,325,US
79533,Lueders,TX,325,US
79534,Mc Caulley,TX,325,US
79535,Maryneal,TX,325,US
79536,Merkel,TX,325,US
79537,Nolan,TX,325,US
79538,Novice,TX,325,US
79539,O Brien,TX,940,US
79540,Old Glory,TX,940,US
79541,Ovalo,TX,325,US
79543,Roby,TX,325,US
79544,Rochester,TX,940,US
79545,Roscoe,TX,325,US
79546,Rotan,TX,325,US
79547,Rule,TX,940,US
79548,Rule,TX,940,US
79549,Snyder,TX,325,US
79550,Snyder,TX,325,US
79553,Stamford,TX,325,US
79556,Sweetwater,TX,325,US
79560,Sylvester,TX,325,US
79561,Trent,TX,325,US
79562,Tuscola,TX,325,US
79563,Tye,TX,325,US
79565,Westbrook,TX,"3,25,432",US
79566,Wingate,TX,,US
79567,Winters,TX,325,US
79601,Abilene,TX,325,US
79602,Abilene,TX,325,US
79603,Abilene,TX,325,US
79604,Abilene,TX,325,US
79605,Abilene,TX,325,US
79606,Abilene,TX,325,US
79607,Dyess Afb,TX,325,US
79608,Abilene,TX,325,US
79697,Abilene,TX,325,US
79698,Abilene,TX,325,US
79699,Abilene,TX,325,US
79701,Midland,TX,432,US
79702,Midland,TX,432,US
79703,Midland,TX,432,US
79704,Midland,TX,432,US
79705,Midland,TX,432,US
79706,Midland,TX,432,US
79707,Midland,TX,432,US
79708,Midland,TX,432,US
79710,Midland,TX,432,US
79711,Midland,TX,432,US
79712,Midland,TX,432,US
79713,Ackerly,TX,"8,06,432",US
79714,Andrews,TX,432,US
79718,Balmorhea,TX,432,US
79719,Barstow,TX,432,US
79720,Big Spring,TX,432,US
79721,Big Spring,TX,432,US
79730,Coyanosa,TX,432,US
79731,Crane,TX,432,US
79733,Forsan,TX,432,US
79734,Fort Davis,TX,432,US
79735,Fort Stockton,TX,432,US
79738,Gail,TX,806,US
79739,Garden City,TX,432,US
79740,Girvin,TX,432,US
79741,Goldsmith,TX,432,US
79742,Grandfalls,TX,432,US
79743,Imperial,TX,432,US
79744,Iraan,TX,432,US
79745,Kermit,TX,432,US
79748,Knott,TX,432,US
79749,Lenorah,TX,432,US
79752,Mc Camey,TX,432,US
79754,Mentone,TX,432,US
79755,Midkiff,TX,432,US
79756,Monahans,TX,432,US
79758,Gardendale,TX,432,US
79759,Notrees,TX,432,US
79760,Odessa,TX,432,US
79761,Odessa,TX,432,US
79762,Odessa,TX,"2,14,432",US
79763,Odessa,TX,432,US
79764,Odessa,TX,432,US
79765,Odessa,TX,"9,15,432",US
79766,Odessa,TX,432,US
79768,Odessa,TX,432,US
79769,Odessa,TX,432,US
79770,Orla,TX,432,US
79772,Pecos,TX,432,US
79776,Penwell,TX,432,US
79777,Pyote,TX,432,US
79778,Rankin,TX,432,US
79780,Saragosa,TX,432,US
79781,Sheffield,TX,432,US
79782,Stanton,TX,432,US
79783,Tarzan,TX,432,US
79785,Toyah,TX,432,US
79786,Toyahvale,TX,432,US
79788,Wickett,TX,432,US
79789,Wink,TX,432,US
79821,Anthony,TX,915,US
79830,Alpine,TX,432,US
79831,Alpine,TX,432,US
79832,Alpine,TX,432,US
79834,Big Bend National Park,TX,432,US
79835,Canutillo,TX,915,US
79836,Clint,TX,915,US
79837,Dell City,TX,"5,05,915",US
79838,Fabens,TX,915,US
79839,Fort Hancock,TX,915,US
79842,Marathon,TX,432,US
79843,Marfa,TX,432,US
79845,Presidio,TX,432,US
79846,Redford,TX,432,US
79847,Salt Flat,TX,915,US
79848,Sanderson,TX,432,US
79849,San Elizario,TX,915,US
79851,Sierra Blanca,TX,915,US
79852,Terlingua,TX,432,US
79853,Tornillo,TX,915,US
79854,Valentine,TX,432,US
79855,Van Horn,TX,915,US
79901,El Paso,TX,915,US
79902,El Paso,TX,915,US
79903,El Paso,TX,915,US
79904,El Paso,TX,915,US
79905,El Paso,TX,915,US
79906,El Paso,TX,915,US
79907,El Paso,TX,915,US
79908,El Paso,TX,915,US
79910,El Paso,TX,915,US
79911,El Paso,TX,915,US
79912,El Paso,TX,915,US
79913,El Paso,TX,915,US
79914,El Paso,TX,915,US
79915,El Paso,TX,915,US
79916,Fort Bliss,TX,915,US
79917,El Paso,TX,915,US
79918,Fort Bliss,TX,915,US
79920,El Paso,TX,915,US
79922,El Paso,TX,915,US
79923,El Paso,TX,915,US
79924,El Paso,TX,915,US
79925,El Paso,TX,915,US
79926,El Paso,TX,915,US
79927,El Paso,TX,915,US
79928,El Paso,TX,915,US
79929,El Paso,TX,915,US
79930,El Paso,TX,915,US
79931,El Paso,TX,915,US
79932,El Paso,TX,915,US
79934,El Paso,TX,915,US
79935,El Paso,TX,915,US
79936,El Paso,TX,915,US
79937,El Paso,TX,915,US
79938,El Paso,TX,915,US
79940,El Paso,TX,915,US
79941,El Paso,TX,915,US
79942,El Paso,TX,915,US
79943,El Paso,TX,915,US
79944,El Paso,TX,915,US
79945,El Paso,TX,915,US
79946,El Paso,TX,915,US
79947,El Paso,TX,915,US
79948,El Paso,TX,915,US
79949,El Paso,TX,915,US
79950,El Paso,TX,915,US
79951,El Paso,TX,915,US
79952,El Paso,TX,915,US
79953,El Paso,TX,915,US
79954,El Paso,TX,915,US
79955,El Paso,TX,915,US
79958,El Paso,TX,915,US
79960,El Paso,TX,915,US
79961,El Paso,TX,915,US
79968,El Paso,TX,915,US
79976,El Paso,TX,915,US
79978,El Paso,TX,915,US
79980,El Paso,TX,915,US
79990,El Paso,TX,915,US
79995,El Paso,TX,915,US
79996,El Paso,TX,915,US
79997,El Paso,TX,915,US
79998,El Paso,TX,915,US
79999,El Paso,TX,915,US
80001,Arvada,CO,303,US
80002,Arvada,CO,"3,03,720",US
80003,Arvada,CO,"7,20,303",US
80004,Arvada,CO,"7,20,303",US
80005,Arvada,CO,"3,03,720",US
80006,Arvada,CO,303,US
80007,Arvada,CO,"7,20,303",US
80010,Aurora,CO,"3,03,720",US
80011,Aurora,CO,"3,03,720",US
80012,Aurora,CO,"3,03,720",US
80013,Aurora,CO,"3,03,720",US
80014,Aurora,CO,"3,03,720",US
80015,Aurora,CO,"3,03,720",US
80016,Aurora,CO,"7,20,303",US
80017,Aurora,CO,"7,20,303",US
80018,Aurora,CO,"3,03,720",US
80019,Aurora,CO,303,US
80020,Broomfield,CO,"3,03,720",US
80021,Broomfield,CO,"7,20,303",US
80022,Commerce City,CO,"3,03,720",US
80023,Broomfield,CO,303,US
80024,Dupont,CO,303,US
80025,Eldorado Springs,CO,303,US
80026,Lafayette,CO,"7,20,303",US
80027,Louisville,CO,"3,03,720",US
80028,Louisville,CO,303,US
80030,Westminster,CO,"3,03,720",US
80031,Westminster,CO,"3,03,720",US
80033,Wheat Ridge,CO,"3,03,720",US
80034,Wheat Ridge,CO,303,US
80035,Westminster,CO,303,US
80036,Westminster,CO,303,US
80037,Commerce City,CO,303,US
80038,Broomfield,CO,303,US
80040,Aurora,CO,"3,03,720",US
80041,Aurora,CO,303,US
80042,Aurora,CO,303,US
80044,Aurora,CO,303,US
80045,Aurora,CO,303,US
80046,Aurora,CO,303,US
80047,Aurora,CO,720,US
80101,Agate,CO,719,US
80102,Bennett,CO,303,US
80103,Byers,CO,303,US
80104,Castle Rock,CO,"3,03,720",US
80105,Deer Trail,CO,"30,39,70,719",US
80106,Elbert,CO,"3,03,719",US
80107,Elizabeth,CO,303,US
80108,Castle Rock,CO,303,US
80109,Castle Rock,CO,303,US
80110,Englewood,CO,"7,20,303",US
80111,Englewood,CO,"3,03,720",US
80112,Englewood,CO,"3,03,720",US
80113,Englewood,CO,303,US
80116,Franktown,CO,"3,03,720",US
80117,Kiowa,CO,303,US
80118,Larkspur,CO,"72,03,03,719",US
80120,Littleton,CO,"30,37,20,970",US
80121,Littleton,CO,"3,03,720",US
80122,Littleton,CO,"3,03,720",US
80123,Littleton,CO,"3,03,720",US
80124,Lone Tree,CO,"3,03,720",US
80125,Littleton,CO,"7,20,303",US
80126,Littleton,CO,"7,20,303",US
80127,Littleton,CO,"3,03,720",US
80128,Littleton,CO,"7,20,303",US
80129,Littleton,CO,"3,03,720",US
80130,Littleton,CO,"7,20,303",US
80131,Louviers,CO,303,US
80132,Monument,CO,"7,19,303",US
80133,Palmer Lake,CO,719,US
80134,Parker,CO,"3,03,720",US
80135,Sedalia,CO,"3,03,720",US
80136,Strasburg,CO,303,US
80137,Watkins,CO,303,US
80138,Parker,CO,"7,20,303",US
80150,Englewood,CO,303,US
80151,Englewood,CO,303,US
80155,Englewood,CO,303,US
80160,Littleton,CO,303,US
80161,Littleton,CO,"7,20,303",US
80162,Littleton,CO,303,US
80163,Littleton,CO,303,US
80165,Littleton,CO,303,US
80166,Littleton,CO,303,US
80201,Denver,CO,"3,03,720",US
80202,Denver,CO,"3,03,720",US
80203,Denver,CO,"3,03,720",US
80204,Denver,CO,"3,03,720",US
80205,Denver,CO,"3,03,720",US
80206,Denver,CO,"3,03,720",US
80207,Denver,CO,"3,03,720",US
80208,Denver,CO,303,US
80209,Denver,CO,"72,03,03,719",US
80210,Denver,CO,"7,20,303",US
80211,Denver,CO,"7,20,303",US
80212,Denver,CO,"7,20,303",US
80214,Denver,CO,"3,03,720",US
80215,Denver,CO,"3,03,720",US
80216,Denver,CO,"7,20,303",US
80217,Denver,CO,303,US
80218,Denver,CO,"3,03,720",US
80219,Denver,CO,"3,03,720",US
80220,Denver,CO,"3,03,720",US
80221,Denver,CO,"3,03,720",US
80222,Denver,CO,"3,03,720",US
80223,Denver,CO,"7,20,303",US
80224,Denver,CO,"3,03,720",US
80225,Denver,CO,303,US
80226,Denver,CO,"3,03,720",US
80227,Denver,CO,"7,20,303",US
80228,Denver,CO,"3,03,720",US
80229,Denver,CO,"3,03,720",US
80230,Denver,CO,"7,20,303",US
80231,Denver,CO,"3,03,720",US
80232,Denver,CO,"3,03,720",US
80233,Denver,CO,"7,20,303",US
80234,Denver,CO,"3,03,720",US
80235,Denver,CO,"3,03,720",US
80236,Denver,CO,"7,20,303",US
80237,Denver,CO,"3,03,720",US
80238,Denver,CO,"3,03,720",US
80239,Denver,CO,"7,20,303",US
80241,Thornton,CO,"3,03,720",US
80243,Denver,CO,303,US
80244,Denver,CO,303,US
80246,Denver,CO,"7,20,303",US
80247,Denver,CO,303,US
80248,Denver,CO,303,US
80249,Denver,CO,"3,03,720",US
80250,Denver,CO,303,US
80251,Denver,CO,303,US
80252,Denver,CO,303,US
80256,Denver,CO,303,US
80257,Denver,CO,303,US
80259,Denver,CO,303,US
80260,Denver,CO,"7,20,303",US
80261,Denver,CO,303,US
80262,Denver,CO,303,US
80263,Denver,CO,303,US
80264,Denver,CO,303,US
80265,Denver,CO,"3,03,720",US
80266,Denver,CO,303,US
80271,Denver,CO,303,US
80273,Denver,CO,303,US
80274,Denver,CO,303,US
80279,Denver,CO,303,US
80280,Denver,CO,303,US
80281,Denver,CO,303,US
80290,Denver,CO,303,US
80291,Denver,CO,303,US
80293,Denver,CO,303,US
80294,Denver,CO,"3,03,720",US
80295,Denver,CO,720,US
80299,Denver,CO,"3,03,720",US
80301,Boulder,CO,"3,03,720",US
80302,Boulder,CO,"3,03,720",US
80303,Boulder,CO,"3,03,720",US
80304,Boulder,CO,"7,20,303",US
80305,Boulder,CO,"3,03,720",US
80306,Boulder,CO,303,US
80307,Boulder,CO,303,US
80308,Boulder,CO,303,US
80309,Boulder,CO,303,US
80310,Boulder,CO,303,US
80314,Boulder,CO,303,US
80321,Boulder,CO,303,US
80322,Boulder,CO,303,US
80323,Boulder,CO,303,US
80328,Boulder,CO,303,US
80329,Boulder,CO,303,US
80401,Golden,CO,"3,03,720",US
80402,Golden,CO,303,US
80403,Golden,CO,"3,03,720",US
80419,Golden,CO,303,US
80420,Alma,CO,719,US
80421,Bailey,CO,"7,20,303",US
80422,Black Hawk,CO,303,US
80423,Bond,CO,970,US
80424,Breckenridge,CO,"9,70,303",US
80425,Buffalo Creek,CO,303,US
80426,Burns,CO,970,US
80427,Central City,CO,303,US
80428,Clark,CO,970,US
80429,Climax,CO,719,US
80430,Coalmont,CO,970,US
80432,Como,CO,719,US
80433,Conifer,CO,303,US
80434,Cowdrey,CO,970,US
80435,Dillon,CO,970,US
80436,Dumont,CO,303,US
80437,Evergreen,CO,303,US
80438,Empire,CO,303,US
80439,Evergreen,CO,"30,37,20,970",US
80440,Fairplay,CO,"7,19,970",US
80442,Fraser,CO,970,US
80443,Frisco,CO,970,US
80444,Georgetown,CO,303,US
80446,Granby,CO,970,US
80447,Grand Lake,CO,970,US
80448,Grant,CO,303,US
80449,Hartsel,CO,719,US
80451,Hot Sulphur Springs,CO,970,US
80452,Idaho Springs,CO,"3,03,720",US
80453,Idledale,CO,"7,20,303",US
80454,Indian Hills,CO,303,US
80455,Jamestown,CO,303,US
80456,Jefferson,CO,719,US
80457,Kittredge,CO,303,US
80459,Kremmling,CO,970,US
80461,Leadville,CO,"7,19,970",US
80463,Mc Coy,CO,970,US
80465,Morrison,CO,"3,03,720",US
80466,Nederland,CO,303,US
80467,Oak Creek,CO,970,US
80468,Parshall,CO,970,US
80469,Phippsburg,CO,970,US
80470,Pine,CO,303,US
80471,Pinecliffe,CO,303,US
80473,Rand,CO,970,US
80474,Rollinsville,CO,303,US
80475,Shawnee,CO,303,US
80476,Silver Plume,CO,303,US
80477,Steamboat Springs,CO,970,US
80478,Tabernash,CO,970,US
80479,Toponas,CO,970,US
80480,Walden,CO,970,US
80481,Ward,CO,303,US
80482,Winter Park,CO,970,US
80483,Yampa,CO,970,US
80487,Steamboat Springs,CO,970,US
80488,Steamboat Springs,CO,970,US
80497,Silverthorne,CO,970,US
80498,Silverthorne,CO,970,US
80501,Longmont,CO,"72,09,70,303",US
80502,Longmont,CO,303,US
80503,Longmont,CO,"7,20,303",US
80504,Longmont,CO,"30,39,70,720",US
80510,Allenspark,CO,"3,03,720",US
80511,Estes Park,CO,970,US
80512,Bellvue,CO,970,US
80513,Berthoud,CO,"9,70,303",US
80514,Dacono,CO,303,US
80515,Drake,CO,970,US
80516,Erie,CO,"3,03,720",US
80517,Estes Park,CO,970,US
80520,Firestone,CO,303,US
80521,Fort Collins,CO,970,US
80522,Fort Collins,CO,970,US
80523,Fort Collins,CO,970,US
80524,Fort Collins,CO,970,US
80525,Fort Collins,CO,970,US
80526,Fort Collins,CO,970,US
80527,Fort Collins,CO,970,US
80528,Fort Collins,CO,970,US
80530,Frederick,CO,303,US
80532,Glen Haven,CO,970,US
80533,Hygiene,CO,303,US
80534,Johnstown,CO,970,US
80535,Laporte,CO,970,US
80536,Livermore,CO,970,US
80537,Loveland,CO,"9,70,303",US
80538,Loveland,CO,"9,70,303",US
80539,Loveland,CO,970,US
80540,Lyons,CO,303,US
80541,Masonville,CO,970,US
80542,Mead,CO,970,US
80543,Milliken,CO,970,US
80544,Niwot,CO,303,US
80545,Red Feather Lakes,CO,970,US
80546,Severance,CO,970,US
80547,Timnath,CO,970,US
80549,Wellington,CO,970,US
80550,Windsor,CO,970,US
80551,Windsor,CO,970,US
80553,Fort Collins,CO,970,US
80601,Brighton,CO,"7,20,303",US
80602,Brighton,CO,"3,03,720",US
80603,Brighton,CO,"3,03,720",US
80610,Ault,CO,970,US
80611,Briggsdale,CO,970,US
80612,Carr,CO,970,US
80614,Eastlake,CO,303,US
80615,Eaton,CO,970,US
80620,Evans,CO,970,US
80621,Fort Lupton,CO,"3,03,970",US
80622,Galeton,CO,970,US
80623,Gilcrest,CO,970,US
80624,Gill,CO,,US
80631,Greeley,CO,970,US
80632,Greeley,CO,970,US
80633,Greeley,CO,970,US
80634,Greeley,CO,"9,70,303",US
80638,Greeley,CO,970,US
80639,Greeley,CO,970,US
80640,Henderson,CO,"7,20,303",US
80642,Hudson,CO,303,US
80643,Keenesburg,CO,303,US
80644,Kersey,CO,970,US
80645,La Salle,CO,970,US
80646,Lucerne,CO,970,US
80648,Nunn,CO,970,US
80649,Orchard,CO,970,US
80650,Pierce,CO,970,US
80651,Platteville,CO,"9,70,303",US
80652,Roggen,CO,303,US
80653,Weldona,CO,970,US
80654,Wiggins,CO,970,US
80701,Fort Morgan,CO,"9,70,303",US
80705,Log Lane Village,CO,970,US
80720,Akron,CO,970,US
80721,Amherst,CO,970,US
80722,Atwood,CO,970,US
80723,Brush,CO,970,US
80726,Crook,CO,970,US
80727,Eckley,CO,970,US
80728,Fleming,CO,970,US
80729,Grover,CO,970,US
80731,Haxtun,CO,970,US
80732,Hereford,CO,970,US
80733,Hillrose,CO,970,US
80734,Holyoke,CO,970,US
80735,Idalia,CO,970,US
80736,Iliff,CO,970,US
80737,Julesburg,CO,"3,08,970",US
80740,Lindon,CO,"9,70,719",US
80741,Merino,CO,970,US
80742,New Raymer,CO,970,US
80743,Otis,CO,970,US
80744,Ovid,CO,970,US
80745,Padroni,CO,970,US
80746,Paoli,CO,970,US
80747,Peetz,CO,970,US
80749,Sedgwick,CO,970,US
80750,Snyder,CO,970,US
80751,Sterling,CO,970,US
80754,Stoneham,CO,970,US
80755,Vernon,CO,970,US
80757,Woodrow,CO,970,US
80758,Wray,CO,970,US
80759,Yuma,CO,970,US
80801,Anton,CO,970,US
80802,Arapahoe,CO,719,US
80804,Arriba,CO,719,US
80805,Bethune,CO,719,US
80807,Burlington,CO,"7,19,970",US
80808,Calhan,CO,719,US
80809,Cascade,CO,719,US
80810,Cheyenne Wells,CO,719,US
80812,Cope,CO,970,US
80813,Cripple Creek,CO,719,US
80814,Divide,CO,719,US
80815,Flagler,CO,"7,19,970",US
80816,Florissant,CO,719,US
80817,Fountain,CO,719,US
80818,Genoa,CO,719,US
80819,Green Mountain Falls,CO,719,US
80820,Guffey,CO,719,US
80821,Hugo,CO,719,US
80822,Joes,CO,970,US
80823,Karval,CO,719,US
80824,Kirk,CO,970,US
80825,Kit Carson,CO,719,US
80826,Limon,CO,719,US
80827,Lake George,CO,719,US
80828,Limon,CO,719,US
80829,Manitou Springs,CO,719,US
80830,Matheson,CO,719,US
80831,Peyton,CO,719,US
80832,Ramah,CO,719,US
80833,Rush,CO,719,US
80834,Seibert,CO,970,US
80835,Simla,CO,719,US
80836,Stratton,CO,"7,19,970",US
80840,U S A F Academy,CO,719,US
80841,U S A F Academy,CO,719,US
80860,Victor,CO,719,US
80861,Vona,CO,970,US
80862,Wild Horse,CO,719,US
80863,Woodland Park,CO,"7,19,303",US
80864,Yoder,CO,719,US
80866,Woodland Park,CO,719,US
80901,Colorado Springs,CO,719,US
80902,Colorado Springs,CO,719,US
80903,Colorado Springs,CO,719,US
80904,Colorado Springs,CO,719,US
80905,Colorado Springs,CO,719,US
80906,Colorado Springs,CO,719,US
80907,Colorado Springs,CO,719,US
80908,Colorado Springs,CO,719,US
80909,Colorado Springs,CO,719,US
80910,Colorado Springs,CO,719,US
80911,Colorado Springs,CO,719,US
80912,Colorado Springs,CO,719,US
80913,Colorado Springs,CO,719,US
80914,Colorado Springs,CO,719,US
80915,Colorado Springs,CO,719,US
80916,Colorado Springs,CO,719,US
80917,Colorado Springs,CO,719,US
80918,Colorado Springs,CO,719,US
80919,Colorado Springs,CO,719,US
80920,Colorado Springs,CO,719,US
80921,Colorado Springs,CO,"7,19,720",US
80922,Colorado Springs,CO,719,US
80923,Colorado Springs,CO,719,US
80924,Colorado Springs,CO,719,US
80925,Colorado Springs,CO,719,US
80926,Colorado Springs,CO,719,US
80927,Colorado Springs,CO,719,US
80928,Colorado Springs,CO,719,US
80929,Colorado Springs,CO,719,US
80930,Colorado Springs,CO,719,US
80931,Colorado Springs,CO,719,US
80932,Colorado Springs,CO,719,US
80933,Colorado Springs,CO,719,US
80934,Colorado Springs,CO,719,US
80935,Colorado Springs,CO,719,US
80936,Colorado Springs,CO,719,US
80937,Colorado Springs,CO,719,US
80938,Colorado Springs,CO,719,US
80939,Colorado Springs,CO,719,US
80940,Colorado Springs,CO,719,US
80941,Colorado Springs,CO,719,US
80942,Colorado Springs,CO,719,US
80943,Colorado Springs,CO,719,US
80944,Colorado Springs,CO,719,US
80945,Colorado Springs,CO,719,US
80946,Colorado Springs,CO,719,US
80947,Colorado Springs,CO,719,US
80949,Colorado Springs,CO,719,US
80950,Colorado Springs,CO,719,US
80951,Colorado Springs,CO,719,US
80960,Colorado Springs,CO,719,US
80962,Colorado Springs,CO,719,US
80970,Colorado Springs,CO,719,US
80977,Colorado Springs,CO,719,US
80995,Colorado Springs,CO,719,US
80997,Colorado Springs,CO,719,US
81001,Pueblo,CO,719,US
81002,Pueblo,CO,719,US
81003,Pueblo,CO,719,US
81004,Pueblo,CO,719,US
81005,Pueblo,CO,719,US
81006,Pueblo,CO,719,US
81007,Pueblo,CO,719,US
81008,Pueblo,CO,719,US
81009,Pueblo,CO,719,US
81010,Pueblo,CO,719,US
81011,Pueblo,CO,719,US
81012,Pueblo,CO,719,US
81019,Colorado City,CO,719,US
81020,Aguilar,CO,719,US
81021,Arlington,CO,719,US
81022,Avondale,CO,719,US
81023,Beulah,CO,719,US
81024,Boncarbo,CO,719,US
81025,Boone,CO,719,US
81027,Branson,CO,719,US
81029,Campo,CO,719,US
81030,Cheraw,CO,719,US
81033,Crowley,CO,719,US
81034,Crowley,CO,719,US
81036,Eads,CO,719,US
81038,Fort Lyon,CO,719,US
81039,Fowler,CO,719,US
81040,Gardner,CO,719,US
81041,Granada,CO,719,US
81043,Hartman,CO,719,US
81044,Hasty,CO,719,US
81045,Haswell,CO,719,US
81046,Hoehne,CO,719,US
81047,Holly,CO,719,US
81049,Kim,CO,719,US
81050,La Junta,CO,719,US
81052,Lamar,CO,719,US
81054,Las Animas,CO,719,US
81055,La Veta,CO,719,US
81057,Mc Clave,CO,719,US
81058,Manzanola,CO,719,US
81059,Model,CO,,US
81062,Olney Springs,CO,719,US
81063,Ordway,CO,719,US
81064,Pritchett,CO,719,US
81067,Rocky Ford,CO,719,US
81069,Rye,CO,719,US
81071,Sheridan Lake,CO,719,US
81073,Springfield,CO,719,US
81075,Stonington,CO,,US
81076,Sugar City,CO,719,US
81077,Swink,CO,719,US
81081,Trinchera,CO,719,US
81082,Trinidad,CO,719,US
81084,Two Buttes,CO,719,US
81087,Vilas,CO,719,US
81089,Walsenburg,CO,719,US
81090,Walsh,CO,719,US
81091,Weston,CO,719,US
81092,Wiley,CO,719,US
81101,Alamosa,CO,719,US
81102,Alamosa,CO,719,US
81120,Antonito,CO,719,US
81121,Arboles,CO,970,US
81122,Bayfield,CO,970,US
81123,Blanca,CO,719,US
81124,Capulin,CO,719,US
81125,Center,CO,719,US
81126,Chama,CO,719,US
81127,Chimney Rock,CO,970,US
81128,Chromo,CO,970,US
81129,Conejos,CO,719,US
81130,Creede,CO,719,US
81131,Crestone,CO,719,US
81132,Del Norte,CO,719,US
81133,Fort Garland,CO,719,US
81134,San Luis,CO,719,US
81135,Homelake,CO,719,US
81136,Hooper,CO,719,US
81137,Ignacio,CO,970,US
81138,Jaroso,CO,719,US
81140,La Jara,CO,719,US
81141,Manassa,CO,719,US
81143,Moffat,CO,719,US
81144,Monte Vista,CO,719,US
81146,Mosca,CO,719,US
81147,Pagosa Springs,CO,970,US
81148,Romeo,CO,719,US
81149,Saguache,CO,719,US
81151,Sanford,CO,719,US
81152,San Luis,CO,719,US
81153,San Pablo,CO,719,US
81154,South Fork,CO,719,US
81155,Villa Grove,CO,719,US
81157,Pagosa Springs,CO,970,US
81201,Salida,CO,719,US
81210,Almont,CO,970,US
81211,Buena Vista,CO,719,US
81212,Canon City,CO,719,US
81215,Canon City,CO,719,US
81220,Cimarron,CO,970,US
81221,Coal Creek,CO,719,US
81222,Coaldale,CO,719,US
81223,Cotopaxi,CO,719,US
81224,Crested Butte,CO,970,US
81225,Crested Butte,CO,970,US
81226,Florence,CO,719,US
81227,Monarch,CO,719,US
81228,Granite,CO,,US
81230,Gunnison,CO,970,US
81231,Gunnison,CO,970,US
81232,Hillside,CO,719,US
81233,Howard,CO,719,US
81235,Lake City,CO,970,US
81236,Nathrop,CO,719,US
81237,Ohio City,CO,970,US
81239,Parlin,CO,970,US
81240,Penrose,CO,719,US
81241,Pitkin,CO,970,US
81242,Poncha Springs,CO,719,US
81243,Powderhorn,CO,970,US
81244,Rockvale,CO,719,US
81247,Gunnison,CO,970,US
81248,Sargents,CO,719,US
81251,Twin Lakes,CO,719,US
81252,Westcliffe,CO,719,US
81253,Wetmore,CO,719,US
81290,Florence,CO,719,US
81301,Durango,CO,970,US
81302,Durango,CO,970,US
81303,Durango,CO,970,US
81320,Cahone,CO,970,US
81321,Cortez,CO,970,US
81323,Dolores,CO,970,US
81324,Dove Creek,CO,970,US
81325,Egnar,CO,970,US
81326,Hesperus,CO,970,US
81327,Lewis,CO,970,US
81328,Mancos,CO,970,US
81329,Marvel,CO,970,US
81330,Mesa Verde National Park,CO,970,US
81331,Pleasant View,CO,970,US
81332,Rico,CO,970,US
81334,Towaoc,CO,970,US
81335,Yellow Jacket,CO,970,US
81401,Montrose,CO,970,US
81402,Montrose,CO,970,US
81403,Montrose,CO,970,US
81410,Austin,CO,970,US
81411,Bedrock,CO,970,US
81413,Cedaredge,CO,970,US
81414,Cory,CO,970,US
81415,Crawford,CO,970,US
81416,Delta,CO,970,US
81418,Eckert,CO,970,US
81419,Hotchkiss,CO,970,US
81420,Lazear,CO,970,US
81422,Naturita,CO,970,US
81423,Norwood,CO,970,US
81424,Nucla,CO,970,US
81425,Olathe,CO,970,US
81426,Ophir,CO,970,US
81427,Ouray,CO,970,US
81428,Paonia,CO,970,US
81429,Paradox,CO,970,US
81430,Placerville,CO,970,US
81431,Redvale,CO,970,US
81432,Ridgway,CO,970,US
81433,Silverton,CO,970,US
81434,Somerset,CO,970,US
81435,Telluride,CO,970,US
81501,Grand Junction,CO,970,US
81502,Grand Junction,CO,970,US
81503,Grand Junction,CO,970,US
81504,Grand Junction,CO,970,US
81505,Grand Junction,CO,970,US
81506,Grand Junction,CO,970,US
81507,Grand Junction,CO,970,US
81520,Clifton,CO,970,US
81521,Fruita,CO,970,US
81522,Gateway,CO,970,US
81523,Glade Park,CO,970,US
81524,Loma,CO,970,US
81525,Mack,CO,970,US
81526,Palisade,CO,970,US
81527,Whitewater,CO,970,US
81601,Glenwood Springs,CO,970,US
81602,Glenwood Springs,CO,970,US
81610,Dinosaur,CO,970,US
81611,Aspen,CO,970,US
81612,Aspen,CO,970,US
81615,Snowmass Village,CO,970,US
81620,Avon,CO,970,US
81621,Basalt,CO,970,US
81623,Carbondale,CO,970,US
81624,Collbran,CO,970,US
81625,Craig,CO,970,US
81626,Craig,CO,970,US
81630,De Beque,CO,970,US
81631,Eagle,CO,970,US
81632,Edwards,CO,970,US
81633,Dinosaur,CO,970,US
81635,Parachute,CO,970,US
81636,Battlement Mesa,CO,970,US
81637,Gypsum,CO,970,US
81638,Hamilton,CO,,US
81639,Hayden,CO,970,US
81640,Maybell,CO,"9,70,435",US
81641,Meeker,CO,970,US
81642,Meredith,CO,970,US
81643,Mesa,CO,970,US
81645,Minturn,CO,970,US
81646,Molina,CO,970,US
81647,New Castle,CO,970,US
81648,Rangely,CO,970,US
81649,Red Cliff,CO,970,US
81650,Rifle,CO,970,US
81652,Silt,CO,970,US
81653,Slater,CO,970,US
81654,Snowmass,CO,970,US
81655,Wolcott,CO,970,US
81656,Woody Creek,CO,970,US
81657,Vail,CO,970,US
81658,Vail,CO,970,US
82001,Cheyenne,WY,"3,07,712",US
82002,Cheyenne,WY,307,US
82003,Cheyenne,WY,307,US
82005,Fe Warren Afb,WY,307,US
82006,Cheyenne,WY,307,US
82007,Cheyenne,WY,307,US
82008,Cheyenne,WY,307,US
82009,Cheyenne,WY,307,US
82010,Cheyenne,WY,307,US
82050,Albin,WY,307,US
82051,Bosler,WY,307,US
82052,Buford,WY,307,US
82053,Burns,WY,307,US
82054,Carpenter,WY,307,US
82055,Centennial,WY,307,US
82058,Garrett,WY,307,US
82059,Granite Canon,WY,307,US
82060,Hillsdale,WY,307,US
82061,Horse Creek,WY,307,US
82063,Jelm,WY,970,US
82070,Laramie,WY,"3,07,970",US
82071,Laramie,WY,307,US
82072,Laramie,WY,307,US
82073,Laramie,WY,307,US
82081,Meriden,WY,307,US
82082,Pine Bluffs,WY,307,US
82083,Rock River,WY,307,US
82084,Tie Siding,WY,307,US
82190,Yellowstone National Park,WY,307,US
82201,Wheatland,WY,307,US
82210,Chugwater,WY,307,US
82212,Fort Laramie,WY,307,US
82213,Glendo,WY,307,US
82214,Guernsey,WY,307,US
82215,Hartville,WY,307,US
82217,Hawk Springs,WY,307,US
82218,Huntley,WY,307,US
82219,Jay Em,WY,307,US
82221,Lagrange,WY,307,US
82222,Lance Creek,WY,307,US
82223,Lingle,WY,307,US
82224,Lost Springs,WY,307,US
82225,Lusk,WY,307,US
82227,Manville,WY,307,US
82229,Shawnee,WY,307,US
82240,Torrington,WY,307,US
82242,Van Tassell,WY,307,US
82243,Veteran,WY,307,US
82244,Yoder,WY,307,US
82301,Rawlins,WY,307,US
82310,Jeffrey City,WY,307,US
82321,Baggs,WY,"3,07,970",US
82322,Bairoil,WY,307,US
82323,Dixon,WY,"3,07,970",US
82324,Elk Mountain,WY,307,US
82325,Encampment,WY,307,US
82327,Hanna,WY,307,US
82329,Medicine Bow,WY,307,US
82331,Saratoga,WY,307,US
82332,Savery,WY,307,US
82334,Sinclair,WY,307,US
82335,Walcott,WY,307,US
82336,Wamsutter,WY,307,US
82401,Worland,WY,307,US
82410,Basin,WY,307,US
82411,Burlington,WY,307,US
82412,Byron,WY,307,US
82414,Cody,WY,307,US
82420,Cowley,WY,307,US
82421,Deaver,WY,307,US
82422,Emblem,WY,307,US
82423,Frannie,WY,"4,06,307",US
82426,Greybull,WY,307,US
82428,Hyattville,WY,307,US
82430,Kirby,WY,307,US
82431,Lovell,WY,307,US
82432,Manderson,WY,307,US
82433,Meeteetse,WY,307,US
82434,Otto,WY,307,US
82435,Powell,WY,307,US
82440,Ralston,WY,307,US
82441,Shell,WY,307,US
82442,Ten Sleep,WY,307,US
82443,Thermopolis,WY,307,US
82450,Wapiti,WY,307,US
82501,Riverton,WY,307,US
82510,Arapahoe,WY,307,US
82512,Crowheart,WY,307,US
82513,Dubois,WY,307,US
82514,Fort Washakie,WY,307,US
82515,Hudson,WY,307,US
82516,Kinnear,WY,307,US
82520,Lander,WY,307,US
82523,Pavillion,WY,307,US
82524,Saint Stephens,WY,307,US
82601,Casper,WY,307,US
82602,Casper,WY,307,US
82604,Casper,WY,307,US
82605,Casper,WY,307,US
82609,Casper,WY,307,US
82615,Shirley Basin,WY,307,US
82620,Alcova,WY,307,US
82630,Arminto,WY,307,US
82633,Douglas,WY,307,US
82635,Edgerton,WY,307,US
82636,Evansville,WY,307,US
82637,Glenrock,WY,307,US
82638,Hiland,WY,307,US
82639,Kaycee,WY,307,US
82640,Linch,WY,307,US
82642,Lysite,WY,307,US
82643,Midwest,WY,307,US
82644,Mills,WY,307,US
82646,Natrona,WY,307,US
82648,Powder River,WY,307,US
82649,Shoshoni,WY,307,US
82701,Newcastle,WY,"3,07,605",US
82710,Aladdin,WY,307,US
82711,Alva,WY,307,US
82712,Beulah,WY,307,US
82714,Devils Tower,WY,307,US
82715,Four Corners,WY,307,US
82716,Gillette,WY,307,US
82717,Gillette,WY,307,US
82718,Gillette,WY,307,US
82720,Hulett,WY,307,US
82721,Moorcroft,WY,307,US
82723,Osage,WY,307,US
82725,Recluse,WY,307,US
82727,Rozet,WY,307,US
82729,Sundance,WY,307,US
82730,Upton,WY,307,US
82731,Weston,WY,307,US
82732,Wright,WY,307,US
82801,Sheridan,WY,307,US
82831,Arvada,WY,307,US
82832,Banner,WY,307,US
82833,Big Horn,WY,307,US
82834,Buffalo,WY,307,US
82835,Clearmont,WY,307,US
82836,Dayton,WY,307,US
82837,Leiter,WY,307,US
82838,Parkman,WY,307,US
82839,Ranchester,WY,307,US
82840,Saddlestring,WY,307,US
82842,Story,WY,307,US
82844,Wolf,WY,307,US
82845,Wyarno,WY,307,US
82901,Rock Springs,WY,307,US
82902,Rock Springs,WY,307,US
82922,Bondurant,WY,307,US
82923,Boulder,WY,307,US
82925,Cora,WY,307,US
82929,Little America,WY,307,US
82930,Evanston,WY,"3,07,435",US
82931,Evanston,WY,307,US
82932,Farson,WY,307,US
82933,Fort Bridger,WY,307,US
82934,Granger,WY,307,US
82935,Green River,WY,307,US
82936,Lonetree,WY,307,US
82937,Lyman,WY,307,US
82938,Mc Kinnon,WY,307,US
82939,Mountain View,WY,307,US
82941,Pinedale,WY,307,US
82942,Point Of Rocks,WY,307,US
82943,Reliance,WY,307,US
82944,Robertson,WY,307,US
82945,Superior,WY,307,US
83001,Jackson,WY,307,US
83002,Jackson,WY,307,US
83011,Kelly,WY,307,US
83012,Moose,WY,307,US
83013,Moran,WY,307,US
83014,Wilson,WY,307,US
83025,Teton Village,WY,307,US
83101,Kemmerer,WY,307,US
83110,Afton,WY,"30,72,08,435",US
83111,Auburn,WY,"2,08,307",US
83112,Bedford,WY,307,US
83113,Big Piney,WY,307,US
83114,Cokeville,WY,307,US
83115,Daniel,WY,307,US
83116,Diamondville,WY,307,US
83118,Etna,WY,307,US
83119,Fairview,WY,307,US
83120,Freedom,WY,"2,08,307",US
83121,Frontier,WY,,US
83122,Grover,WY,307,US
83123,La Barge,WY,307,US
83124,Opal,WY,307,US
83126,Smoot,WY,307,US
83127,Thayne,WY,307,US
83128,Alpine,WY,307,US
83201,Pocatello,ID,208,US
83202,Pocatello,ID,208,US
83203,Fort Hall,ID,208,US
83204,Pocatello,ID,208,US
83205,Pocatello,ID,208,US
83206,Pocatello,ID,208,US
83209,Pocatello,ID,208,US
83210,Aberdeen,ID,208,US
83211,American Falls,ID,208,US
83212,Arbon,ID,208,US
83213,Arco,ID,208,US
83214,Arimo,ID,208,US
83215,Atomic City,ID,208,US
83217,Bancroft,ID,208,US
83218,Basalt,ID,208,US
83220,Bern,ID,208,US
83221,Blackfoot,ID,208,US
83223,Bloomington,ID,208,US
83226,Challis,ID,208,US
83227,Clayton,ID,208,US
83228,Clifton,ID,208,US
83229,Cobalt,ID,208,US
83230,Conda,ID,208,US
83232,Dayton,ID,208,US
83233,Dingle,ID,208,US
83234,Downey,ID,208,US
83235,Ellis,ID,208,US
83236,Firth,ID,208,US
83237,Franklin,ID,208,US
83238,Geneva,ID,208,US
83239,Georgetown,ID,208,US
83241,Grace,ID,208,US
83243,Holbrook,ID,208,US
83244,Howe,ID,208,US
83245,Inkom,ID,208,US
83246,Lava Hot Springs,ID,208,US
83250,Mccammon,ID,208,US
83251,Mackay,ID,208,US
83252,Malad City,ID,208,US
83253,May,ID,208,US
83254,Montpelier,ID,208,US
83255,Moore,ID,208,US
83256,Moreland,ID,208,US
83261,Paris,ID,208,US
83262,Pingree,ID,208,US
83263,Preston,ID,208,US
83271,Rockland,ID,208,US
83272,Saint Charles,ID,208,US
83274,Shelley,ID,208,US
83276,Soda Springs,ID,208,US
83277,Springfield,ID,208,US
83278,Stanley,ID,208,US
83281,Swanlake,ID,208,US
83283,Thatcher,ID,208,US
83285,Wayan,ID,208,US
83286,Weston,ID,208,US
83287,Fish Haven,ID,208,US
83301,Twin Falls,ID,208,US
83302,Rogerson,ID,208,US
83303,Twin Falls,ID,208,US
83311,Albion,ID,208,US
83312,Almo,ID,"2,08,435",US
83313,Bellevue,ID,208,US
83314,Bliss,ID,208,US
83316,Buhl,ID,208,US
83318,Burley,ID,208,US
83320,Carey,ID,208,US
83321,Castleford,ID,208,US
83322,Corral,ID,208,US
83323,Declo,ID,208,US
83324,Dietrich,ID,208,US
83325,Eden,ID,208,US
83327,Fairfield,ID,208,US
83328,Filer,ID,208,US
83330,Gooding,ID,208,US
83332,Hagerman,ID,208,US
83333,Hailey,ID,208,US
83334,Hansen,ID,208,US
83335,Hazelton,ID,208,US
83336,Heyburn,ID,208,US
83337,Hill City,ID,208,US
83338,Jerome,ID,208,US
83340,Ketchum,ID,208,US
83341,Kimberly,ID,208,US
83342,Malta,ID,"2,08,435",US
83343,Minidoka,ID,208,US
83344,Murtaugh,ID,208,US
83346,Oakley,ID,208,US
83347,Paul,ID,208,US
83348,Picabo,ID,208,US
83349,Richfield,ID,208,US
83350,Rupert,ID,208,US
83352,Shoshone,ID,208,US
83353,Sun Valley,ID,208,US
83354,Sun Valley,ID,208,US
83355,Wendell,ID,208,US
83401,Idaho Falls,ID,208,US
83402,Idaho Falls,ID,208,US
83403,Idaho Falls,ID,208,US
83404,Idaho Falls,ID,208,US
83405,Idaho Falls,ID,208,US
83406,Idaho Falls,ID,208,US
83414,Alta,WY,307,US
83415,Idaho Falls,ID,208,US
83420,Ashton,ID,208,US
83421,Chester,ID,208,US
83422,Driggs,ID,"3,07,208",US
83423,Dubois,ID,208,US
83424,Felt,ID,208,US
83425,Hamer,ID,208,US
83427,Iona,ID,208,US
83428,Irwin,ID,208,US
83429,Island Park,ID,208,US
83431,Lewisville,ID,208,US
83433,Macks Inn,ID,208,US
83434,Menan,ID,208,US
83435,Monteview,ID,208,US
83436,Newdale,ID,208,US
83438,Parker,ID,208,US
83440,Rexburg,ID,208,US
83441,Rexburg,ID,208,US
83442,Rigby,ID,208,US
83443,Ririe,ID,208,US
83444,Roberts,ID,208,US
83445,Saint Anthony,ID,208,US
83446,Spencer,ID,208,US
83448,Sugar City,ID,208,US
83449,Swan Valley,ID,208,US
83450,Terreton,ID,208,US
83451,Teton,ID,208,US
83452,Tetonia,ID,"2,08,307",US
83454,Ucon,ID,208,US
83455,Victor,ID,208,US
83460,Rexburg,ID,208,US
83462,Carmen,ID,208,US
83463,Gibbonsville,ID,208,US
83464,Leadore,ID,208,US
83465,Lemhi,ID,208,US
83466,North Fork,ID,208,US
83467,Salmon,ID,208,US
83468,Tendoy,ID,208,US
83469,Shoup,ID,208,US
83501,Lewiston,ID,208,US
83520,Ahsahka,ID,208,US
83522,Cottonwood,ID,208,US
83523,Craigmont,ID,208,US
83524,Culdesac,ID,208,US
83525,Elk City,ID,208,US
83526,Ferdinand,ID,208,US
83530,Grangeville,ID,208,US
83531,Fenn,ID,208,US
83533,Greencreek,ID,208,US
83535,Juliaetta,ID,208,US
83536,Kamiah,ID,208,US
83537,Kendrick,ID,208,US
83539,Kooskia,ID,208,US
83540,Lapwai,ID,208,US
83541,Lenore,ID,208,US
83542,Lucile,ID,208,US
83543,Nezperce,ID,208,US
83544,Orofino,ID,208,US
83545,Peck,ID,208,US
83546,Pierce,ID,208,US
83547,Pollock,ID,208,US
83548,Reubens,ID,208,US
83549,Riggins,ID,208,US
83552,Stites,ID,208,US
83553,Weippe,ID,208,US
83554,White Bird,ID,208,US
83555,Winchester,ID,208,US
83601,Atlanta,ID,208,US
83602,Banks,ID,208,US
83604,Bruneau,ID,208,US
83605,Caldwell,ID,208,US
83606,Caldwell,ID,208,US
83607,Caldwell,ID,208,US
83610,Cambridge,ID,208,US
83611,Cascade,ID,208,US
83612,Council,ID,208,US
83615,Donnelly,ID,208,US
83616,Eagle,ID,208,US
83617,Emmett,ID,208,US
83619,Fruitland,ID,208,US
83622,Garden Valley,ID,208,US
83623,Glenns Ferry,ID,208,US
83624,Grand View,ID,208,US
83626,Greenleaf,ID,208,US
83627,Hammett,ID,208,US
83628,Homedale,ID,208,US
83629,Horseshoe Bend,ID,208,US
83630,Huston,ID,208,US
83631,Idaho City,ID,208,US
83632,Indian Valley,ID,208,US
83633,King Hill,ID,208,US
83634,Kuna,ID,208,US
83635,Lake Fork,ID,208,US
83636,Letha,ID,208,US
83637,Lowman,ID,208,US
83638,Mccall,ID,208,US
83639,Marsing,ID,208,US
83641,Melba,ID,208,US
83642,Meridian,ID,208,US
83643,Mesa,ID,208,US
83644,Middleton,ID,208,US
83645,Midvale,ID,208,US
83646,Meridian,ID,208,US
83647,Mountain Home,ID,208,US
83648,Mountain Home A F B,ID,208,US
83650,Murphy,ID,208,US
83651,Nampa,ID,208,US
83652,Nampa,ID,208,US
83653,Nampa,ID,208,US
83654,New Meadows,ID,208,US
83655,New Plymouth,ID,208,US
83656,Notus,ID,208,US
83657,Ola,ID,208,US
83660,Parma,ID,208,US
83661,Payette,ID,208,US
83666,Placerville,ID,208,US
83669,Star,ID,208,US
83670,Sweet,ID,208,US
83671,Warren,ID,208,US
83672,Weiser,ID,208,US
83676,Wilder,ID,208,US
83677,Yellow Pine,ID,208,US
83680,Meridian,ID,208,US
83686,Nampa,ID,208,US
83687,Nampa,ID,208,US
83701,Boise,ID,208,US
83702,Boise,ID,208,US
83703,Boise,ID,208,US
83704,Boise,ID,208,US
83705,Boise,ID,208,US
83706,Boise,ID,208,US
83707,Boise,ID,208,US
83708,Boise,ID,208,US
83709,Boise,ID,208,US
83711,Boise,ID,208,US
83712,Boise,ID,208,US
83713,Boise,ID,208,US
83714,Garden City,ID,208,US
83715,Boise,ID,208,US
83716,Boise,ID,208,US
83717,Boise,ID,208,US
83719,Boise,ID,208,US
83720,Boise,ID,208,US
83721,Boise,ID,208,US
83722,Boise,ID,208,US
83724,Boise,ID,208,US
83725,Boise,ID,208,US
83726,Boise,ID,208,US
83727,Boise,ID,208,US
83728,Boise,ID,208,US
83729,Boise,ID,208,US
83730,Boise,ID,208,US
83731,Boise,ID,208,US
83732,Boise,ID,208,US
83733,Boise,ID,208,US
83735,Boise,ID,208,US
83756,Boise,ID,208,US
83757,Boise,ID,208,US
83799,Boise,ID,208,US
83801,Athol,ID,208,US
83802,Avery,ID,208,US
83803,Bayview,ID,208,US
83804,Blanchard,ID,208,US
83805,Bonners Ferry,ID,208,US
83806,Bovill,ID,208,US
83808,Calder,ID,208,US
83809,Careywood,ID,208,US
83810,Cataldo,ID,208,US
83811,Clark Fork,ID,208,US
83812,Clarkia,ID,208,US
83813,Cocolalla,ID,208,US
83814,Coeur D Alene,ID,208,US
83815,Coeur D Alene,ID,208,US
83816,Coeur D Alene,ID,208,US
83821,Coolin,ID,208,US
83822,Oldtown,ID,208,US
83823,Deary,ID,208,US
83824,Desmet,ID,208,US
83825,Dover,ID,208,US
83826,Eastport,ID,208,US
83827,Elk River,ID,208,US
83830,Fernwood,ID,208,US
83832,Genesee,ID,208,US
83833,Harrison,ID,208,US
83834,Harvard,ID,208,US
83835,Hayden,ID,208,US
83836,Hope,ID,208,US
83837,Kellogg,ID,208,US
83839,Kingston,ID,208,US
83840,Kootenai,ID,208,US
83841,Laclede,ID,208,US
83842,Medimont,ID,208,US
83843,Moscow,ID,"2,08,509",US
83844,Moscow,ID,208,US
83845,Moyie Springs,ID,208,US
83846,Mullan,ID,208,US
83847,Naples,ID,208,US
83848,Nordman,ID,208,US
83849,Osburn,ID,208,US
83850,Pinehurst,ID,208,US
83851,Plummer,ID,208,US
83852,Ponderay,ID,208,US
83853,Porthill,ID,208,US
83854,Post Falls,ID,208,US
83855,Potlatch,ID,208,US
83856,Priest River,ID,208,US
83857,Princeton,ID,208,US
83858,Rathdrum,ID,208,US
83860,Sagle,ID,208,US
83861,Saint Maries,ID,208,US
83864,Sandpoint,ID,208,US
83865,Colburn,ID,208,US
83866,Santa,ID,208,US
83867,Silverton,ID,208,US
83868,Smelterville,ID,208,US
83869,Spirit Lake,ID,208,US
83870,Tensed,ID,208,US
83871,Troy,ID,208,US
83872,Viola,ID,208,US
83873,Wallace,ID,208,US
83874,Murray,ID,208,US
83876,Worley,ID,208,US
83877,Post Falls,ID,208,US
84001,Altamont,UT,435,US
84002,Altonah,UT,435,US
84003,American Fork,UT,801,US
84004,Alpine,UT,801,US
84005,Eagle Mountain,UT,801,US
84006,Bingham Canyon,UT,801,US
84007,Bluebell,UT,435,US
84008,Bonanza,UT,435,US
84010,Bountiful,UT,801,US
84011,Bountiful,UT,801,US
84013,Cedar Valley,UT,801,US
84014,Centerville,UT,801,US
84015,Clearfield,UT,801,US
84016,Clearfield,UT,801,US
84017,Coalville,UT,435,US
84018,Croydon,UT,"8,01,435",US
84020,Draper,UT,801,US
84021,Duchesne,UT,435,US
84022,Dugway,UT,435,US
84023,Dutch John,UT,435,US
84024,Echo,UT,435,US
84025,Farmington,UT,801,US
84026,Fort Duchesne,UT,435,US
84027,Fruitland,UT,435,US
84028,Garden City,UT,435,US
84029,Grantsville,UT,"4,35,801",US
84031,Hanna,UT,435,US
84032,Heber City,UT,"4,35,801",US
84033,Henefer,UT,435,US
84034,Ibapah,UT,435,US
84035,Jensen,UT,435,US
84036,Kamas,UT,435,US
84037,Kaysville,UT,801,US
84038,Laketown,UT,435,US
84039,Lapoint,UT,435,US
84040,Layton,UT,801,US
84041,Layton,UT,"4,35,801",US
84042,Lindon,UT,801,US
84043,Lehi,UT,801,US
84044,Magna,UT,801,US
84045,Saratoga Springs,UT,801,US
84046,Manila,UT,435,US
84047,Midvale,UT,"8,01,435",US
84049,Midway,UT,435,US
84050,Morgan,UT,801,US
84051,Mountain Home,UT,435,US
84052,Myton,UT,435,US
84053,Neola,UT,435,US
84054,North Salt Lake,UT,801,US
84055,Oakley,UT,435,US
84056,Hill Afb,UT,801,US
84057,Orem,UT,801,US
84058,Orem,UT,801,US
84059,Orem,UT,801,US
84060,Park City,UT,"4,35,801",US
84061,Peoa,UT,435,US
84062,Pleasant Grove,UT,801,US
84063,Randlett,UT,435,US
84064,Randolph,UT,435,US
84065,Riverton,UT,801,US
84066,Roosevelt,UT,"4,35,801",US
84067,Roy,UT,801,US
84068,Park City,UT,435,US
84069,Rush Valley,UT,435,US
84070,Sandy,UT,801,US
84071,Stockton,UT,435,US
84072,Tabiona,UT,435,US
84073,Talmage,UT,435,US
84074,Tooele,UT,"4,35,801",US
84075,Syracuse,UT,801,US
84076,Tridell,UT,435,US
84078,Vernal,UT,435,US
84079,Vernal,UT,435,US
84080,Vernon,UT,435,US
84081,West Jordan,UT,801,US
84082,Wallsburg,UT,435,US
84083,Wendover,UT,435,US
84084,West Jordan,UT,801,US
84085,Whiterocks,UT,435,US
84086,Woodruff,UT,435,US
84087,Woods Cross,UT,801,US
84088,West Jordan,UT,801,US
84089,Clearfield,UT,801,US
84090,Sandy,UT,801,US
84091,Sandy,UT,801,US
84092,Sandy,UT,801,US
84093,Sandy,UT,801,US
84094,Sandy,UT,801,US
84095,South Jordan,UT,801,US
84096,Herriman,UT,801,US
84097,Orem,UT,801,US
84098,Park City,UT,"4,35,801",US
84101,Salt Lake City,UT,801,US
84102,Salt Lake City,UT,801,US
84103,Salt Lake City,UT,801,US
84104,Salt Lake City,UT,801,US
84105,Salt Lake City,UT,"8,01,435",US
84106,Salt Lake City,UT,801,US
84107,Salt Lake City,UT,801,US
84108,Salt Lake City,UT,801,US
84109,Salt Lake City,UT,801,US
84110,Salt Lake City,UT,801,US
84111,Salt Lake City,UT,801,US
84112,Salt Lake City,UT,801,US
84113,Salt Lake City,UT,801,US
84114,Salt Lake City,UT,801,US
84115,Salt Lake City,UT,801,US
84116,Salt Lake City,UT,801,US
84117,Salt Lake City,UT,801,US
84118,Salt Lake City,UT,"8,01,435",US
84119,Salt Lake City,UT,801,US
84120,Salt Lake City,UT,801,US
84121,Salt Lake City,UT,"8,01,435",US
84122,Salt Lake City,UT,801,US
84123,Salt Lake City,UT,801,US
84124,Salt Lake City,UT,801,US
84125,Salt Lake City,UT,801,US
84126,Salt Lake City,UT,801,US
84127,Salt Lake City,UT,801,US
84128,Salt Lake City,UT,801,US
84129,Salt Lake City,UT,,US
84130,Salt Lake City,UT,801,US
84131,Salt Lake City,UT,801,US
84132,Salt Lake City,UT,801,US
84133,Salt Lake City,UT,801,US
84134,Salt Lake City,UT,801,US
84136,Salt Lake City,UT,801,US
84138,Salt Lake City,UT,801,US
84139,Salt Lake City,UT,801,US
84141,Salt Lake City,UT,801,US
84143,Salt Lake City,UT,801,US
84144,Salt Lake City,UT,801,US
84145,Salt Lake City,UT,801,US
84147,Salt Lake City,UT,801,US
84148,Salt Lake City,UT,801,US
84150,Salt Lake City,UT,801,US
84151,Salt Lake City,UT,801,US
84152,Salt Lake City,UT,801,US
84157,Salt Lake City,UT,801,US
84158,Salt Lake City,UT,801,US
84165,Salt Lake City,UT,801,US
84170,Salt Lake City,UT,801,US
84171,Salt Lake City,UT,801,US
84180,Salt Lake City,UT,801,US
84184,Salt Lake City,UT,801,US
84189,Salt Lake City,UT,801,US
84190,Salt Lake City,UT,801,US
84199,Salt Lake City,UT,801,US
84201,Ogden,UT,801,US
84244,Ogden,UT,801,US
84301,Bear River City,UT,435,US
84302,Brigham City,UT,435,US
84304,Cache Junction,UT,435,US
84305,Clarkston,UT,435,US
84306,Collinston,UT,435,US
84307,Corinne,UT,435,US
84308,Cornish,UT,435,US
84309,Deweyville,UT,435,US
84310,Eden,UT,801,US
84311,Fielding,UT,435,US
84312,Garland,UT,435,US
84313,Grouse Creek,UT,435,US
84314,Honeyville,UT,435,US
84315,Hooper,UT,801,US
84316,Howell,UT,435,US
84317,Huntsville,UT,801,US
84318,Hyde Park,UT,435,US
84319,Hyrum,UT,435,US
84320,Lewiston,UT,435,US
84321,Logan,UT,435,US
84322,Logan,UT,435,US
84323,Logan,UT,801,US
84324,Mantua,UT,435,US
84325,Mendon,UT,435,US
84326,Millville,UT,435,US
84327,Newton,UT,435,US
84328,Paradise,UT,435,US
84329,Park Valley,UT,435,US
84330,Plymouth,UT,435,US
84331,Portage,UT,435,US
84332,Providence,UT,435,US
84333,Richmond,UT,435,US
84334,Riverside,UT,435,US
84335,Smithfield,UT,435,US
84336,Snowville,UT,435,US
84337,Tremonton,UT,"4,35,801",US
84338,Trenton,UT,435,US
84339,Wellsville,UT,435,US
84340,Willard,UT,435,US
84341,Logan,UT,435,US
84401,Ogden,UT,801,US
84402,Ogden,UT,801,US
84403,Ogden,UT,801,US
84404,Ogden,UT,"8,01,435",US
84405,Ogden,UT,801,US
84407,Ogden,UT,801,US
84408,Ogden,UT,801,US
84409,Ogden,UT,801,US
84412,Ogden,UT,801,US
84414,Ogden,UT,801,US
84415,Ogden,UT,801,US
84501,Price,UT,"4,35,801",US
84510,Aneth,UT,435,US
84511,Blanding,UT,435,US
84512,Bluff,UT,435,US
84513,Castle Dale,UT,"4,35,801",US
84515,Cisco,UT,435,US
84516,Clawson,UT,435,US
84518,Cleveland,UT,435,US
84520,East Carbon,UT,435,US
84521,Elmo,UT,435,US
84522,Emery,UT,435,US
84523,Ferron,UT,435,US
84525,Green River,UT,435,US
84526,Helper,UT,435,US
84528,Huntington,UT,435,US
84529,Kenilworth,UT,435,US
84530,La Sal,UT,435,US
84531,Mexican Hat,UT,435,US
84532,Moab,UT,435,US
84533,Lake Powell,UT,435,US
84534,Montezuma Creek,UT,435,US
84535,Monticello,UT,435,US
84536,Monument Valley,UT,435,US
84537,Orangeville,UT,435,US
84539,Sunnyside,UT,435,US
84540,Thompson,UT,435,US
84542,Wellington,UT,435,US
84601,Provo,UT,"8,01,435",US
84602,Provo,UT,801,US
84603,Provo,UT,801,US
84604,Provo,UT,801,US
84605,Provo,UT,801,US
84606,Provo,UT,801,US
84620,Aurora,UT,435,US
84621,Axtell,UT,435,US
84622,Centerfield,UT,435,US
84623,Chester,UT,435,US
84624,Delta,UT,435,US
84626,Elberta,UT,801,US
84627,Ephraim,UT,435,US
84628,Eureka,UT,"4,35,801",US
84629,Fairview,UT,"4,35,801",US
84630,Fayette,UT,435,US
84631,Fillmore,UT,435,US
84632,Fountain Green,UT,435,US
84633,Goshen,UT,801,US
84634,Gunnison,UT,435,US
84635,Hinckley,UT,435,US
84636,Holden,UT,435,US
84637,Kanosh,UT,435,US
84638,Leamington,UT,435,US
84639,Levan,UT,801,US
84640,Lynndyl,UT,435,US
84642,Manti,UT,435,US
84643,Mayfield,UT,435,US
84644,Meadow,UT,435,US
84645,Mona,UT,435,US
84646,Moroni,UT,"8,01,435",US
84647,Mount Pleasant,UT,435,US
84648,Nephi,UT,"4,35,801",US
84649,Oak City,UT,435,US
84651,Payson,UT,801,US
84652,Redmond,UT,435,US
84653,Salem,UT,801,US
84654,Salina,UT,435,US
84655,Santaquin,UT,801,US
84656,Scipio,UT,435,US
84657,Sigurd,UT,435,US
84660,Spanish Fork,UT,"8,01,435",US
84662,Spring City,UT,435,US
84663,Springville,UT,801,US
84664,Mapleton,UT,801,US
84665,Sterling,UT,435,US
84667,Wales,UT,435,US
84701,Richfield,UT,435,US
84710,Alton,UT,435,US
84711,Annabella,UT,435,US
84712,Antimony,UT,435,US
84713,Beaver,UT,435,US
84714,Beryl,UT,435,US
84715,Bicknell,UT,435,US
84716,Boulder,UT,435,US
84717,Bryce Canyon,UT,435,US
84718,Cannonville,UT,435,US
84719,Brian Head,UT,435,US
84720,Cedar City,UT,"4,35,801",US
84721,Cedar City,UT,435,US
84722,Central,UT,435,US
84723,Circleville,UT,435,US
84724,Elsinore,UT,435,US
84725,Enterprise,UT,435,US
84726,Escalante,UT,435,US
84728,Garrison,UT,435,US
84729,Glendale,UT,435,US
84730,Glenwood,UT,435,US
84731,Greenville,UT,435,US
84732,Greenwich,UT,435,US
84733,Gunlock,UT,435,US
84734,Hanksville,UT,435,US
84735,Hatch,UT,435,US
84736,Henrieville,UT,435,US
84737,Hurricane,UT,435,US
84738,Ivins,UT,435,US
84739,Joseph,UT,435,US
84740,Junction,UT,"8,01,435",US
84741,Kanab,UT,435,US
84742,Kanarraville,UT,435,US
84743,Kingston,UT,435,US
84744,Koosharem,UT,435,US
84745,La Verkin,UT,435,US
84746,Leeds,UT,435,US
84747,Loa,UT,435,US
84749,Lyman,UT,435,US
84750,Marysvale,UT,435,US
84751,Milford,UT,435,US
84752,Minersville,UT,435,US
84753,Modena,UT,435,US
84754,Monroe,UT,435,US
84755,Mount Carmel,UT,435,US
84756,Newcastle,UT,435,US
84757,New Harmony,UT,435,US
84758,Orderville,UT,435,US
84759,Panguitch,UT,435,US
84760,Paragonah,UT,435,US
84761,Parowan,UT,435,US
84762,Duck Creek Village,UT,435,US
84763,Rockville,UT,435,US
84764,Bryce,UT,435,US
84765,Santa Clara,UT,435,US
84766,Sevier,UT,435,US
84767,Springdale,UT,435,US
84770,Saint George,UT,435,US
84771,Saint George,UT,435,US
84772,Summit,UT,435,US
84773,Teasdale,UT,435,US
84774,Toquerville,UT,435,US
84775,Torrey,UT,435,US
84776,Tropic,UT,435,US
84779,Virgin,UT,435,US
84780,Washington,UT,435,US
84781,Pine Valley,UT,435,US
84782,Veyo,UT,435,US
84783,Dammeron Valley,UT,435,US
84784,Hildale,UT,435,US
84790,Saint George,UT,435,US
84791,Saint George,UT,435,US
85001,Phoenix,AZ,623,US
85002,Phoenix,AZ,602,US
85003,Phoenix,AZ,"6,02,928",US
85004,Phoenix,AZ,"60,24,80,52,06,23,928",US
85005,Phoenix,AZ,"4,80,602",US
85006,Phoenix,AZ,"60,26,23,928",US
85007,Phoenix,AZ,602,US
85008,Phoenix,AZ,"6,23,602",US
85009,Phoenix,AZ,602,US
85010,Phoenix,AZ,602,US
85011,Phoenix,AZ,602,US
85012,Phoenix,AZ,"4,80,60,26,23,928",US
85013,Phoenix,AZ,"60,26,23,48,05,20,928",US
85014,Phoenix,AZ,"60,26,23,48,05,20,928",US
85015,Phoenix,AZ,"48,06,02,623",US
85016,Phoenix,AZ,"60,24,80,623",US
85017,Phoenix,AZ,602,US
85018,Phoenix,AZ,"60,24,80,623",US
85019,Phoenix,AZ,"6,02,623",US
85020,Phoenix,AZ,"60,26,23,480",US
85021,Phoenix,AZ,"60,24,80,623",US
85022,Phoenix,AZ,602,US
85023,Phoenix,AZ,602,US
85024,Phoenix,AZ,"60,26,23,480",US
85025,Phoenix,AZ,"60,24,80,52,06,23,928",US
85026,Phoenix,AZ,"5,20,60,26,23,928",US
85027,Phoenix,AZ,"6,02,623",US
85028,Phoenix,AZ,"4,80,602",US
85029,Phoenix,AZ,"6,02,480",US
85030,Phoenix,AZ,602,US
85031,Phoenix,AZ,"6,23,602",US
85032,Phoenix,AZ,"6,02,480",US
85033,Phoenix,AZ,"6,23,602",US
85034,Phoenix,AZ,"6,02,48,06,23,50,55,20,000",US
85035,Phoenix,AZ,"6,02,623",US
85036,Phoenix,AZ,602,US
85037,Phoenix,AZ,"6,23,602",US
85038,Phoenix,AZ,602,US
85039,Phoenix,AZ,602,US
85040,Phoenix,AZ,"6,02,480",US
85041,Phoenix,AZ,602,US
85042,Phoenix,AZ,"6,02,480",US
85043,Phoenix,AZ,"6,23,602",US
85044,Phoenix,AZ,"6,02,480",US
85045,Phoenix,AZ,"4,80,602",US
85046,Phoenix,AZ,602,US
85048,Phoenix,AZ,"6,02,480",US
85050,Phoenix,AZ,"60,24,80,623",US
85051,Phoenix,AZ,"6,02,623",US
85053,Phoenix,AZ,602,US
85054,Phoenix,AZ,"6,02,480",US
85055,Phoenix,AZ,602,US
85060,Phoenix,AZ,"6,02,480",US
85061,Phoenix,AZ,602,US
85062,Phoenix,AZ,602,US
85063,Phoenix,AZ,602,US
85064,Phoenix,AZ,602,US
85065,Phoenix,AZ,"48,06,02,623",US
85066,Phoenix,AZ,602,US
85067,Phoenix,AZ,602,US
85068,Phoenix,AZ,602,US
85069,Phoenix,AZ,602,US
85070,Phoenix,AZ,"4,80,602",US
85071,Phoenix,AZ,602,US
85072,Phoenix,AZ,602,US
85073,Phoenix,AZ,"6,02,928",US
85074,Phoenix,AZ,602,US
85075,Phoenix,AZ,602,US
85076,Phoenix,AZ,602,US
85077,Phoenix,AZ,602,US
85078,Phoenix,AZ,602,US
85079,Phoenix,AZ,602,US
85080,Phoenix,AZ,602,US
85082,Phoenix,AZ,602,US
85083,Phoenix,AZ,602,US
85085,Phoenix,AZ,"4,80,52,06,02,928",US
85086,Phoenix,AZ,"62,36,02,48,09,28,520",US
85087,New River,AZ,"6,23,60,24,80,928",US
85096,Phoenix,AZ,602,US
85097,Phoenix,AZ,602,US
85098,Phoenix,AZ,602,US
85099,Phoenix,AZ,602,US
85117,Apache Junction,AZ,480,US
85118,Gold Canyon,AZ,520,US
85119,Apache Junction,AZ,480,US
85120,Apache Junction,AZ,480,US
85121,Bapchule,AZ,520,US
85122,Casa Grande,AZ,520,US
85123,Arizona City,AZ,520,US
85127,Chandler Heights,AZ,480,US
85128,Coolidge,AZ,520,US
85130,Casa Grande,AZ,520,US
85131,Eloy,AZ,520,US
85132,Florence,AZ,520,US
85135,Hayden,AZ,520,US
85137,Kearny,AZ,520,US
85138,Maricopa,AZ,520,US
85139,Maricopa,AZ,520,US
85140,San Tan Valley,AZ,520,US
85141,Picacho,AZ,520,US
85142,Queen Creek,AZ,480,US
85143,San Tan Valley,AZ,520,US
85145,Red Rock,AZ,520,US
85147,Sacaton,AZ,520,US
85172,Stanfield,AZ,520,US
85173,Superior,AZ,"5,20,928",US
85178,Apache Junction,AZ,480,US
85190,Tortilla Flat,AZ,480,US
85191,Valley Farms,AZ,520,US
85192,Winkelman,AZ,520,US
85193,Casa Grande,AZ,520,US
85194,Casa Grande,AZ,"4,80,520",US
85201,Mesa,AZ,"48,09,28,602",US
85202,Mesa,AZ,"48,06,02,928",US
85203,Mesa,AZ,"4,80,602",US
85204,Mesa,AZ,"6,02,480",US
85205,Mesa,AZ,"4,80,602",US
85206,Mesa,AZ,"4,80,602",US
85207,Mesa,AZ,"4,80,602",US
85208,Mesa,AZ,"4,80,602",US
85209,Mesa,AZ,480,US
85210,Mesa,AZ,"48,06,02,928",US
85211,Mesa,AZ,"6,02,480",US
85212,Mesa,AZ,"6,02,480",US
85213,Mesa,AZ,"6,02,480",US
85214,Mesa,AZ,"4,80,602",US
85215,Mesa,AZ,"4,80,602",US
85216,Mesa,AZ,602,US
85217,Apache Junction,AZ,480,US
85218,Apache Junction,AZ,480,US
85219,Apache Junction,AZ,480,US
85220,Apache Junction,AZ,480,US
85221,Bapchule,AZ,520,US
85222,Casa Grande,AZ,520,US
85223,Arizona City,AZ,520,US
85224,Chandler,AZ,"4,80,602",US
85225,Chandler,AZ,"4,80,602",US
85226,Chandler,AZ,"48,06,02,520",US
85227,Chandler Heights,AZ,480,US
85228,Coolidge,AZ,520,US
85230,Casa Grande,AZ,520,US
85231,Eloy,AZ,520,US
85232,Florence,AZ,520,US
85233,Gilbert,AZ,"4,80,602",US
85234,Gilbert,AZ,"4,80,602",US
85235,Hayden,AZ,928,US
85236,Higley,AZ,"4,80,602",US
85237,Kearny,AZ,520,US
85238,Maricopa,AZ,520,US
85239,Maricopa,AZ,520,US
85240,Queen Creek,AZ,480,US
85241,Picacho,AZ,520,US
85242,Queen Creek,AZ,480,US
85243,Queen Creek,AZ,480,US
85244,Chandler,AZ,602,US
85245,Red Rock,AZ,520,US
85246,Chandler,AZ,"4,80,602",US
85247,Sacaton,AZ,520,US
85248,Chandler,AZ,"48,06,02,520",US
85249,Chandler,AZ,"48,06,02,520",US
85250,Scottsdale,AZ,"4,80,602",US
85251,Scottsdale,AZ,"4,80,602",US
85252,Scottsdale,AZ,"6,02,480",US
85253,Paradise Valley,AZ,"4,80,602",US
85254,Scottsdale,AZ,"4,80,602",US
85255,Scottsdale,AZ,"4,80,602",US
85256,Scottsdale,AZ,"48,05,20,60,26,23,928",US
85257,Scottsdale,AZ,"48,06,02,52,06,23,928",US
85258,Scottsdale,AZ,"4,80,602",US
85259,Scottsdale,AZ,"4,80,602",US
85260,Scottsdale,AZ,"48,06,02,623",US
85261,Scottsdale,AZ,602,US
85262,Scottsdale,AZ,"4,80,602",US
85263,Rio Verde,AZ,480,US
85264,Fort Mcdowell,AZ,602,US
85266,Scottsdale,AZ,480,US
85267,Scottsdale,AZ,480,US
85268,Fountain Hills,AZ,480,US
85269,Fountain Hills,AZ,602,US
85271,Scottsdale,AZ,480,US
85272,Stanfield,AZ,520,US
85273,Superior,AZ,520,US
85274,Mesa,AZ,602,US
85275,Mesa,AZ,602,US
85277,Mesa,AZ,602,US
85278,Apache Junction,AZ,480,US
85279,Florence,AZ,520,US
85280,Tempe,AZ,480,US
85281,Tempe,AZ,"4,80,602",US
85282,Tempe,AZ,"4,80,602",US
85283,Tempe,AZ,"52,04,80,602",US
85284,Tempe,AZ,"4,80,602",US
85285,Tempe,AZ,"4,80,602",US
85286,Chandler,AZ,480,US
85287,Tempe,AZ,480,US
85289,Tempe,AZ,480,US
85290,Apache Junction,AZ,480,US
85291,Valley Farms,AZ,520,US
85292,Winkelman,AZ,928,US
85293,Casa Grande,AZ,520,US
85294,Casa Grande,AZ,520,US
85295,Gilbert,AZ,480,US
85296,Gilbert,AZ,"4,80,602",US
85297,Gilbert,AZ,"4,80,602",US
85298,Gilbert,AZ,480,US
85299,Gilbert,AZ,"6,02,480",US
85301,Glendale,AZ,"6,23,602",US
85302,Glendale,AZ,"6,23,602",US
85303,Glendale,AZ,"6,23,602",US
85304,Glendale,AZ,"6,02,623",US
85305,Glendale,AZ,"6,23,602",US
85306,Glendale,AZ,"6,23,602",US
85307,Glendale,AZ,"6,02,623",US
85308,Glendale,AZ,"6,02,623",US
85309,Glendale Luke Afb,AZ,"4,80,623",US
85310,Glendale,AZ,"48,06,02,623",US
85311,Glendale,AZ,602,US
85312,Glendale,AZ,602,US
85313,Glendale,AZ,623,US
85318,Glendale,AZ,602,US
85320,Aguila,AZ,928,US
85321,Ajo,AZ,520,US
85322,Arlington,AZ,623,US
85323,Avondale,AZ,"6,23,602",US
85324,Black Canyon City,AZ,623,US
85325,Bouse,AZ,928,US
85326,Buckeye,AZ,"62,36,02,928",US
85327,Cave Creek,AZ,480,US
85328,Cibola,AZ,928,US
85329,Cashion,AZ,623,US
85331,Cave Creek,AZ,"48,06,02,623",US
85332,Congress,AZ,928,US
85333,Dateland,AZ,928,US
85334,Ehrenberg,AZ,928,US
85335,El Mirage,AZ,"6,23,602",US
85336,Gadsden,AZ,928,US
85337,Gila Bend,AZ,928,US
85338,Goodyear,AZ,"6,23,602",US
85339,Laveen,AZ,"5,20,602",US
85340,Litchfield Park,AZ,"6,23,602",US
85341,Lukeville,AZ,520,US
85342,Morristown,AZ,"62,36,02,928",US
85343,Palo Verde,AZ,623,US
85344,Parker,AZ,928,US
85345,Peoria,AZ,"6,23,602",US
85346,Quartzsite,AZ,928,US
85347,Roll,AZ,928,US
85348,Salome,AZ,928,US
85349,San Luis,AZ,928,US
85350,Somerton,AZ,928,US
85351,Sun City,AZ,"6,23,602",US
85352,Tacna,AZ,928,US
85353,Tolleson,AZ,"6,23,602",US
85354,Tonopah,AZ,"9,28,623",US
85355,Waddell,AZ,623,US
85356,Wellton,AZ,928,US
85357,Wenden,AZ,928,US
85358,Wickenburg,AZ,928,US
85359,Quartzsite,AZ,928,US
85360,Wikieup,AZ,928,US
85361,Wittmann,AZ,623,US
85362,Yarnell,AZ,928,US
85363,Youngtown,AZ,623,US
85364,Yuma,AZ,928,US
85365,Yuma,AZ,"9,28,520",US
85366,Yuma,AZ,928,US
85367,Yuma,AZ,"9,28,520",US
85369,Yuma,AZ,928,US
85371,Poston,AZ,928,US
85372,Sun City,AZ,623,US
85373,Sun City,AZ,"6,23,602",US
85374,Surprise,AZ,"6,23,602",US
85375,Sun City West,AZ,"6,23,602",US
85376,Sun City West,AZ,623,US
85377,Carefree,AZ,480,US
85378,Surprise,AZ,623,US
85379,Surprise,AZ,623,US
85380,Peoria,AZ,"6,23,602",US
85381,Peoria,AZ,"62,36,02,480",US
85382,Peoria,AZ,"92,86,23,602",US
85383,Peoria,AZ,"62,36,02,928",US
85385,Peoria,AZ,623,US
85387,Surprise,AZ,623,US
85388,Surprise,AZ,623,US
85390,Wickenburg,AZ,928,US
85392,Avondale,AZ,623,US
85395,Goodyear,AZ,623,US
85396,Buckeye,AZ,623,US
85501,Globe,AZ,928,US
85502,Globe,AZ,928,US
85530,Bylas,AZ,928,US
85531,Central,AZ,928,US
85532,Claypool,AZ,928,US
85533,Clifton,AZ,928,US
85534,Duncan,AZ,"5,05,928",US
85535,Eden,AZ,928,US
85536,Fort Thomas,AZ,928,US
85539,Miami,AZ,"9,28,520",US
85540,Morenci,AZ,928,US
85541,Payson,AZ,928,US
85542,Peridot,AZ,928,US
85543,Pima,AZ,928,US
85544,Pine,AZ,928,US
85545,Roosevelt,AZ,928,US
85546,Safford,AZ,"9,28,520",US
85547,Payson,AZ,928,US
85548,Safford,AZ,928,US
85550,San Carlos,AZ,928,US
85551,Solomon,AZ,928,US
85552,Thatcher,AZ,928,US
85553,Tonto Basin,AZ,928,US
85554,Young,AZ,928,US
85601,Arivaca,AZ,520,US
85602,Benson,AZ,520,US
85603,Bisbee,AZ,520,US
85605,Bowie,AZ,520,US
85606,Cochise,AZ,520,US
85607,Douglas,AZ,520,US
85608,Douglas,AZ,520,US
85609,Dragoon,AZ,520,US
85610,Elfrida,AZ,520,US
85611,Elgin,AZ,520,US
85613,Fort Huachuca,AZ,520,US
85614,Green Valley,AZ,520,US
85615,Hereford,AZ,520,US
85616,Huachuca City,AZ,520,US
85617,Mc Neal,AZ,520,US
85618,Mammoth,AZ,520,US
85619,Mount Lemmon,AZ,520,US
85620,Naco,AZ,520,US
85621,Nogales,AZ,520,US
85622,Green Valley,AZ,520,US
85623,Oracle,AZ,520,US
85624,Patagonia,AZ,520,US
85625,Pearce,AZ,520,US
85626,Pirtleville,AZ,520,US
85627,Pomerene,AZ,520,US
85628,Nogales,AZ,520,US
85629,Sahuarita,AZ,520,US
85630,Saint David,AZ,520,US
85631,San Manuel,AZ,520,US
85632,San Simon,AZ,520,US
85633,Sasabe,AZ,520,US
85634,Sells,AZ,520,US
85635,Sierra Vista,AZ,520,US
85636,Sierra Vista,AZ,520,US
85637,Sonoita,AZ,520,US
85638,Tombstone,AZ,520,US
85639,Topawa,AZ,520,US
85640,Tumacacori,AZ,520,US
85641,Vail,AZ,520,US
85643,Willcox,AZ,"5,20,928",US
85644,Willcox,AZ,520,US
85645,Amado,AZ,520,US
85646,Tubac,AZ,520,US
85648,Rio Rico,AZ,520,US
85650,Sierra Vista,AZ,520,US
85652,Cortaro,AZ,520,US
85653,Marana,AZ,520,US
85654,Rillito,AZ,520,US
85655,Douglas,AZ,520,US
85658,Marana,AZ,520,US
85662,Nogales,AZ,520,US
85670,Fort Huachuca,AZ,520,US
85671,Sierra Vista,AZ,520,US
85701,Tucson,AZ,520,US
85702,Tucson,AZ,520,US
85703,Tucson,AZ,520,US
85704,Tucson,AZ,520,US
85705,Tucson,AZ,520,US
85706,Tucson,AZ,520,US
85707,Tucson,AZ,520,US
85708,Tucson,AZ,520,US
85709,Tucson,AZ,520,US
85710,Tucson,AZ,520,US
85711,Tucson,AZ,520,US
85712,Tucson,AZ,520,US
85713,Tucson,AZ,520,US
85714,Tucson,AZ,520,US
85715,Tucson,AZ,520,US
85716,Tucson,AZ,520,US
85717,Tucson,AZ,520,US
85718,Tucson,AZ,520,US
85719,Tucson,AZ,520,US
85720,Tucson,AZ,520,US
85721,Tucson,AZ,520,US
85722,Tucson,AZ,520,US
85723,Tucson,AZ,520,US
85724,Tucson,AZ,520,US
85725,Tucson,AZ,520,US
85726,Tucson,AZ,520,US
85728,Tucson,AZ,520,US
85730,Tucson,AZ,520,US
85731,Tucson,AZ,520,US
85732,Tucson,AZ,520,US
85733,Tucson,AZ,520,US
85734,Tucson,AZ,520,US
85735,Tucson,AZ,520,US
85736,Tucson,AZ,520,US
85737,Tucson,AZ,520,US
85738,Catalina,AZ,520,US
85739,Tucson,AZ,520,US
85740,Tucson,AZ,520,US
85741,Tucson,AZ,520,US
85742,Tucson,AZ,520,US
85743,Tucson,AZ,520,US
85744,Tucson,AZ,520,US
85745,Tucson,AZ,520,US
85746,Tucson,AZ,520,US
85747,Tucson,AZ,520,US
85748,Tucson,AZ,520,US
85749,Tucson,AZ,520,US
85750,Tucson,AZ,520,US
85751,Tucson,AZ,520,US
85752,Tucson,AZ,520,US
85754,Tucson,AZ,520,US
85755,Tucson,AZ,520,US
85756,Tucson,AZ,520,US
85757,Tucson,AZ,520,US
85775,Tucson,AZ,520,US
85777,Tucson,AZ,520,US
85901,Show Low,AZ,"9,28,520",US
85902,Show Low,AZ,928,US
85911,Cibecue,AZ,928,US
85912,White Mountain Lake,AZ,928,US
85920,Alpine,AZ,928,US
85922,Blue,AZ,928,US
85923,Clay Springs,AZ,928,US
85924,Concho,AZ,928,US
85925,Eagar,AZ,928,US
85926,Fort Apache,AZ,928,US
85927,Greer,AZ,928,US
85928,Heber,AZ,928,US
85929,Lakeside,AZ,928,US
85930,Mcnary,AZ,928,US
85931,Forest Lakes,AZ,928,US
85932,Nutrioso,AZ,928,US
85933,Overgaard,AZ,928,US
85934,Pinedale,AZ,928,US
85935,Pinetop,AZ,928,US
85936,Saint Johns,AZ,928,US
85937,Snowflake,AZ,928,US
85938,Springerville,AZ,928,US
85939,Taylor,AZ,928,US
85940,Vernon,AZ,928,US
85941,Whiteriver,AZ,928,US
85942,Woodruff,AZ,928,US
86001,Flagstaff,AZ,928,US
86002,Flagstaff,AZ,928,US
86003,Flagstaff,AZ,928,US
86004,Flagstaff,AZ,"92,86,02,520",US
86011,Flagstaff,AZ,928,US
86015,Bellemont,AZ,928,US
86016,Gray Mountain,AZ,928,US
86017,Munds Park,AZ,928,US
86018,Parks,AZ,928,US
86020,Cameron,AZ,928,US
86021,Colorado City,AZ,928,US
86022,Fredonia,AZ,928,US
86023,Grand Canyon,AZ,928,US
86024,Happy Jack,AZ,928,US
86025,Holbrook,AZ,928,US
86028,Petrified Forest Natl Pk,AZ,928,US
86029,Sun Valley,AZ,928,US
86030,Hotevilla,AZ,928,US
86031,Indian Wells,AZ,928,US
86032,Joseph City,AZ,928,US
86033,Kayenta,AZ,928,US
86034,Keams Canyon,AZ,928,US
86035,Leupp,AZ,928,US
86036,Marble Canyon,AZ,928,US
86038,Mormon Lake,AZ,"9,28,520",US
86039,Kykotsmovi Village,AZ,928,US
86040,Page,AZ,928,US
86042,Polacca,AZ,928,US
86043,Second Mesa,AZ,928,US
86044,Tonalea,AZ,928,US
86045,Tuba City,AZ,928,US
86046,Williams,AZ,928,US
86047,Winslow,AZ,928,US
86052,North Rim,AZ,928,US
86053,Kaibeto,AZ,928,US
86054,Shonto,AZ,928,US
86301,Prescott,AZ,"92,86,02,520",US
86302,Prescott,AZ,928,US
86303,Prescott,AZ,928,US
86304,Prescott,AZ,928,US
86305,Prescott,AZ,"9,28,520",US
86312,Prescott Valley,AZ,928,US
86313,Prescott,AZ,928,US
86314,Prescott Valley,AZ,928,US
86315,Prescott Valley,AZ,928,US
86320,Ash Fork,AZ,928,US
86321,Bagdad,AZ,928,US
86322,Camp Verde,AZ,928,US
86323,Chino Valley,AZ,928,US
86324,Clarkdale,AZ,928,US
86325,Cornville,AZ,928,US
86326,Cottonwood,AZ,"9,28,520",US
86327,Dewey,AZ,"9,28,602",US
86329,Humboldt,AZ,928,US
86330,Prescott,AZ,928,US
86331,Jerome,AZ,928,US
86332,Kirkland,AZ,928,US
86333,Mayer,AZ,928,US
86334,Paulden,AZ,928,US
86335,Rimrock,AZ,928,US
86336,Sedona,AZ,"52,09,28,602",US
86337,Seligman,AZ,928,US
86338,Skull Valley,AZ,928,US
86339,Sedona,AZ,928,US
86340,Sedona,AZ,928,US
86341,Sedona,AZ,928,US
86342,Lake Montezuma,AZ,928,US
86343,Crown King,AZ,928,US
86351,Sedona,AZ,"9,28,520",US
86401,Kingman,AZ,928,US
86402,Kingman,AZ,928,US
86403,Lake Havasu City,AZ,928,US
86404,Lake Havasu City,AZ,928,US
86405,Lake Havasu City,AZ,928,US
86406,Lake Havasu City,AZ,928,US
86409,Kingman,AZ,928,US
86411,Hackberry,AZ,928,US
86412,Hualapai,AZ,928,US
86413,Golden Valley,AZ,928,US
86426,Fort Mohave,AZ,928,US
86427,Fort Mohave,AZ,928,US
86429,Bullhead City,AZ,928,US
86430,Bullhead City,AZ,928,US
86431,Chloride,AZ,928,US
86432,Littlefield,AZ,928,US
86433,Oatman,AZ,928,US
86434,Peach Springs,AZ,928,US
86435,Supai,AZ,928,US
86436,Topock,AZ,928,US
86437,Valentine,AZ,928,US
86438,Yucca,AZ,928,US
86439,Bullhead City,AZ,928,US
86440,Mohave Valley,AZ,928,US
86441,Dolan Springs,AZ,928,US
86442,Bullhead City,AZ,928,US
86443,Temple Bar Marina,AZ,928,US
86444,Meadview,AZ,928,US
86445,Willow Beach,AZ,928,US
86446,Mohave Valley,AZ,928,US
86502,Chambers,AZ,928,US
86503,Chinle,AZ,928,US
86504,Fort Defiance,AZ,928,US
86505,Ganado,AZ,928,US
86506,Houck,AZ,928,US
86507,Lukachukai,AZ,"5,20,928",US
86508,Lupton,AZ,928,US
86510,Pinon,AZ,928,US
86511,Saint Michaels,AZ,928,US
86512,Sanders,AZ,928,US
86514,Teec Nos Pos,AZ,928,US
86515,Window Rock,AZ,"9,28,505",US
86520,Blue Gap,AZ,928,US
86535,Dennehotso,AZ,928,US
86538,Many Farms,AZ,928,US
86540,Nazlini,AZ,928,US
86544,Red Valley,AZ,928,US
86545,Rock Point,AZ,928,US
86547,Round Rock,AZ,928,US
86555,Douglas,AZ,520,US
86556,Tsaile,AZ,928,US
87001,Algodones,NM,505,US
87002,Belen,NM,505,US
87004,Bernalillo,NM,505,US
87005,Bluewater,NM,505,US
87006,Bosque,NM,505,US
87007,Casa Blanca,NM,505,US
87008,Cedar Crest,NM,505,US
87009,Cedarvale,NM,505,US
87010,Cerrillos,NM,505,US
87011,Claunch,NM,505,US
87012,Coyote,NM,505,US
87013,Cuba,NM,505,US
87014,Cubero,NM,505,US
87015,Edgewood,NM,505,US
87016,Estancia,NM,505,US
87017,Gallina,NM,505,US
87018,Counselor,NM,505,US
87020,Grants,NM,505,US
87021,Milan,NM,505,US
87022,Isleta,NM,505,US
87023,Jarales,NM,505,US
87024,Jemez Pueblo,NM,505,US
87025,Jemez Springs,NM,505,US
87026,Laguna,NM,505,US
87027,La Jara,NM,505,US
87028,La Joya,NM,505,US
87029,Lindrith,NM,505,US
87031,Los Lunas,NM,505,US
87032,Mcintosh,NM,505,US
87034,Pueblo Of Acoma,NM,505,US
87035,Moriarty,NM,505,US
87036,Mountainair,NM,505,US
87037,Nageezi,NM,505,US
87038,New Laguna,NM,505,US
87040,Paguate,NM,505,US
87041,Pena Blanca,NM,505,US
87042,Peralta,NM,505,US
87043,Placitas,NM,505,US
87044,Ponderosa,NM,505,US
87045,Prewitt,NM,505,US
87046,Regina,NM,505,US
87047,Sandia Park,NM,505,US
87048,Corrales,NM,505,US
87049,San Fidel,NM,505,US
87051,San Rafael,NM,505,US
87052,Santo Domingo Pueblo,NM,505,US
87053,San Ysidro,NM,505,US
87056,Stanley,NM,505,US
87059,Tijeras,NM,505,US
87060,Tome,NM,505,US
87061,Torreon,NM,505,US
87062,Veguita,NM,505,US
87063,Willard,NM,505,US
87064,Youngsville,NM,505,US
87068,Bosque Farms,NM,505,US
87070,Clines Corners,NM,505,US
87072,Cochiti Pueblo,NM,505,US
87083,Cochiti Lake,NM,505,US
87101,Albuquerque,NM,505,US
87102,Albuquerque,NM,505,US
87103,Albuquerque,NM,505,US
87104,Albuquerque,NM,505,US
87105,Albuquerque,NM,505,US
87106,Albuquerque,NM,505,US
87107,Albuquerque,NM,505,US
87108,Albuquerque,NM,505,US
87109,Albuquerque,NM,505,US
87110,Albuquerque,NM,505,US
87111,Albuquerque,NM,505,US
87112,Albuquerque,NM,505,US
87113,Albuquerque,NM,505,US
87114,Albuquerque,NM,505,US
87115,Albuquerque,NM,505,US
87116,Albuquerque,NM,505,US
87117,Kirtland Afb,NM,505,US
87119,Albuquerque,NM,505,US
87120,Albuquerque,NM,505,US
87121,Albuquerque,NM,505,US
87122,Albuquerque,NM,505,US
87123,Albuquerque,NM,505,US
87124,Rio Rancho,NM,505,US
87125,Albuquerque,NM,505,US
87131,Albuquerque,NM,505,US
87144,Rio Rancho,NM,505,US
87151,Albuquerque,NM,505,US
87153,Albuquerque,NM,505,US
87154,Albuquerque,NM,505,US
87158,Albuquerque,NM,505,US
87165,Albuquerque,NM,505,US
87174,Rio Rancho,NM,505,US
87176,Albuquerque,NM,505,US
87181,Albuquerque,NM,505,US
87184,Albuquerque,NM,505,US
87185,Albuquerque,NM,505,US
87187,Albuquerque,NM,505,US
87190,Albuquerque,NM,505,US
87191,Albuquerque,NM,505,US
87192,Albuquerque,NM,505,US
87193,Albuquerque,NM,505,US
87194,Albuquerque,NM,505,US
87195,Albuquerque,NM,505,US
87196,Albuquerque,NM,505,US
87197,Albuquerque,NM,505,US
87198,Albuquerque,NM,505,US
87199,Albuquerque,NM,505,US
87301,Gallup,NM,505,US
87302,Gallup,NM,505,US
87305,Gallup,NM,505,US
87310,Brimhall,NM,505,US
87311,Church Rock,NM,505,US
87312,Continental Divide,NM,505,US
87313,Crownpoint,NM,505,US
87315,Fence Lake,NM,505,US
87316,Fort Wingate,NM,505,US
87317,Gamerco,NM,505,US
87319,Mentmore,NM,505,US
87320,Mexican Springs,NM,505,US
87321,Ramah,NM,505,US
87322,Rehoboth,NM,505,US
87323,Thoreau,NM,505,US
87325,Tohatchi,NM,505,US
87326,Vanderwagen,NM,505,US
87327,Zuni,NM,505,US
87328,Navajo,NM,505,US
87347,Jamestown,NM,505,US
87357,Pinehill,NM,505,US
87364,Sheep Springs,NM,505,US
87365,Smith Lake,NM,505,US
87375,Yatahey,NM,505,US
87401,Farmington,NM,505,US
87402,Farmington,NM,505,US
87410,Aztec,NM,505,US
87412,Blanco,NM,505,US
87413,Bloomfield,NM,505,US
87415,Flora Vista,NM,505,US
87416,Fruitland,NM,505,US
87417,Kirtland,NM,505,US
87418,La Plata,NM,505,US
87419,Navajo Dam,NM,505,US
87420,Shiprock,NM,505,US
87421,Waterflow,NM,505,US
87455,Newcomb,NM,505,US
87461,Sanostee,NM,505,US
87499,Farmington,NM,505,US
87501,Santa Fe,NM,505,US
87502,Santa Fe,NM,505,US
87503,Santa Fe,NM,505,US
87504,Santa Fe,NM,505,US
87505,Santa Fe,NM,505,US
87506,Santa Fe,NM,505,US
87507,Santa Fe,NM,505,US
87508,Santa Fe,NM,505,US
87509,Santa Fe,NM,505,US
87510,Abiquiu,NM,505,US
87511,Alcalde,NM,505,US
87512,Amalia,NM,505,US
87513,Arroyo Hondo,NM,505,US
87514,Arroyo Seco,NM,505,US
87515,Canjilon,NM,505,US
87516,Canones,NM,505,US
87517,Carson,NM,505,US
87518,Cebolla,NM,505,US
87519,Cerro,NM,505,US
87520,Chama,NM,505,US
87521,Chamisal,NM,505,US
87522,Chimayo,NM,505,US
87523,Cordova,NM,505,US
87524,Costilla,NM,505,US
87525,Taos Ski Valley,NM,505,US
87527,Dixon,NM,505,US
87528,Dulce,NM,505,US
87529,El Prado,NM,505,US
87530,El Rito,NM,505,US
87531,Embudo,NM,505,US
87532,Espanola,NM,505,US
87533,Espanola,NM,505,US
87535,Glorieta,NM,505,US
87537,Hernandez,NM,505,US
87538,Ilfeld,NM,505,US
87539,La Madera,NM,505,US
87540,Lamy,NM,505,US
87543,Llano,NM,505,US
87544,Los Alamos,NM,505,US
87545,Los Alamos,NM,505,US
87548,Medanales,NM,505,US
87549,Ojo Caliente,NM,505,US
87551,Los Ojos,NM,505,US
87552,Pecos,NM,505,US
87553,Penasco,NM,505,US
87554,Petaca,NM,505,US
87556,Questa,NM,505,US
87557,Ranchos De Taos,NM,505,US
87558,Red River,NM,505,US
87560,Ribera,NM,505,US
87562,Rowe,NM,505,US
87564,San Cristobal,NM,505,US
87565,San Jose,NM,505,US
87566,Ohkay Owingeh,NM,505,US
87567,Santa Cruz,NM,505,US
87569,Serafina,NM,505,US
87571,Taos,NM,505,US
87573,Tererro,NM,505,US
87574,Tesuque,NM,505,US
87575,Tierra Amarilla,NM,505,US
87576,Trampas,NM,505,US
87577,Tres Piedras,NM,505,US
87578,Truchas,NM,505,US
87579,Vadito,NM,505,US
87580,Valdez,NM,505,US
87581,Vallecitos,NM,505,US
87582,Velarde,NM,505,US
87583,Villanueva,NM,505,US
87592,Santa Fe,NM,505,US
87594,Santa Fe,NM,505,US
87701,Las Vegas,NM,505,US
87710,Angel Fire,NM,505,US
87711,Anton Chico,NM,505,US
87712,Buena Vista,NM,505,US
87713,Chacon,NM,505,US
87714,Cimarron,NM,505,US
87715,Cleveland,NM,505,US
87718,Eagle Nest,NM,505,US
87722,Guadalupita,NM,505,US
87723,Holman,NM,505,US
87724,La Loma,NM,505,US
87728,Maxwell,NM,505,US
87729,Miami,NM,505,US
87730,Mills,NM,505,US
87731,Montezuma,NM,505,US
87732,Mora,NM,505,US
87733,Mosquero,NM,505,US
87734,Ocate,NM,505,US
87735,Ojo Feliz,NM,505,US
87736,Rainsville,NM,505,US
87740,Raton,NM,505,US
87742,Rociada,NM,505,US
87743,Roy,NM,505,US
87745,Sapello,NM,505,US
87746,Solano,NM,505,US
87747,Springer,NM,505,US
87749,Ute Park,NM,505,US
87750,Valmora,NM,505,US
87752,Wagon Mound,NM,505,US
87753,Watrous,NM,505,US
87801,Socorro,NM,505,US
87820,Aragon,NM,505,US
87821,Datil,NM,505,US
87823,Lemitar,NM,505,US
87824,Luna,NM,505,US
87825,Magdalena,NM,505,US
87827,Pie Town,NM,505,US
87828,Polvadera,NM,505,US
87829,Quemado,NM,505,US
87830,Reserve,NM,505,US
87831,San Acacia,NM,505,US
87832,San Antonio,NM,505,US
87901,Truth Or Consequences,NM,505,US
87930,Arrey,NM,505,US
87931,Caballo,NM,505,US
87933,Derry,NM,505,US
87935,Elephant Butte,NM,505,US
87936,Garfield,NM,505,US
87937,Hatch,NM,505,US
87939,Monticello,NM,505,US
87940,Rincon,NM,505,US
87941,Salem,NM,505,US
87942,Williamsburg,NM,505,US
87943,Winston,NM,505,US
88001,Las Cruces,NM,505,US
88002,White Sands Missile Range,NM,505,US
88003,Las Cruces,NM,505,US
88004,Las Cruces,NM,505,US
88005,Las Cruces,NM,505,US
88006,Las Cruces,NM,505,US
88007,Las Cruces,NM,505,US
88008,Santa Teresa,NM,"5,05,915",US
88009,Playas,NM,505,US
88011,Las Cruces,NM,505,US
88012,Las Cruces,NM,505,US
88013,Las Cruces,NM,505,US
88020,Animas,NM,505,US
88021,Anthony,NM,"5,05,915",US
88022,Arenas Valley,NM,505,US
88023,Bayard,NM,505,US
88024,Berino,NM,505,US
88025,Buckhorn,NM,505,US
88026,Santa Clara,NM,505,US
88027,Chamberino,NM,505,US
88028,Cliff,NM,505,US
88029,Columbus,NM,505,US
88030,Deming,NM,505,US
88031,Deming,NM,505,US
88032,Dona Ana,NM,505,US
88033,Fairacres,NM,505,US
88034,Faywood,NM,505,US
88036,Fort Bayard,NM,505,US
88038,Gila,NM,505,US
88039,Glenwood,NM,505,US
88040,Hachita,NM,505,US
88041,Hanover,NM,505,US
88042,Hillsboro,NM,505,US
88043,Hurley,NM,505,US
88044,La Mesa,NM,505,US
88045,Lordsburg,NM,505,US
88046,Mesilla,NM,505,US
88047,Mesilla Park,NM,505,US
88048,Mesquite,NM,505,US
88049,Mimbres,NM,505,US
88051,Mule Creek,NM,505,US
88052,Organ,NM,505,US
88053,Pinos Altos,NM,505,US
88054,Radium Springs,NM,505,US
88055,Redrock,NM,505,US
88056,Rodeo,NM,505,US
88058,San Miguel,NM,505,US
88061,Silver City,NM,505,US
88062,Silver City,NM,505,US
88063,Sunland Park,NM,505,US
88065,Tyrone,NM,505,US
88072,Vado,NM,505,US
88081,Chaparral,NM,505,US
88101,Clovis,NM,505,US
88102,Clovis,NM,505,US
88103,Cannon Afb,NM,505,US
88112,Broadview,NM,505,US
88113,Causey,NM,505,US
88114,Crossroads,NM,505,US
88115,Dora,NM,505,US
88116,Elida,NM,505,US
88118,Floyd,NM,505,US
88119,Fort Sumner,NM,505,US
88120,Grady,NM,505,US
88121,House,NM,505,US
88122,Kenna,NM,505,US
88123,Lingo,NM,505,US
88124,Melrose,NM,505,US
88125,Milnesand,NM,505,US
88126,Pep,NM,505,US
88130,Portales,NM,505,US
88132,Rogers,NM,505,US
88133,Saint Vrain,NM,505,US
88134,Taiban,NM,505,US
88135,Texico,NM,505,US
88136,Yeso,NM,505,US
88201,Roswell,NM,505,US
88202,Roswell,NM,505,US
88203,Roswell,NM,505,US
88210,Artesia,NM,505,US
88211,Artesia,NM,505,US
88213,Caprock,NM,505,US
88220,Carlsbad,NM,505,US
88221,Carlsbad,NM,505,US
88230,Dexter,NM,505,US
88231,Eunice,NM,505,US
88232,Hagerman,NM,505,US
88240,Hobbs,NM,505,US
88241,Hobbs,NM,505,US
88242,Hobbs,NM,505,US
88244,Hobbs,NM,505,US
88250,Hope,NM,505,US
88252,Jal,NM,505,US
88253,Lake Arthur,NM,505,US
88254,Lakewood,NM,505,US
88255,Loco Hills,NM,505,US
88256,Loving,NM,505,US
88260,Lovington,NM,505,US
88262,Mcdonald,NM,505,US
88263,Malaga,NM,505,US
88264,Maljamar,NM,505,US
88265,Monument,NM,505,US
88267,Tatum,NM,505,US
88268,Whites City,NM,505,US
88301,Carrizozo,NM,505,US
88310,Alamogordo,NM,505,US
88311,Alamogordo,NM,505,US
88312,Alto,NM,505,US
88314,Bent,NM,505,US
88316,Capitan,NM,505,US
88317,Cloudcroft,NM,505,US
88318,Corona,NM,505,US
88321,Encino,NM,505,US
88323,Fort Stanton,NM,505,US
88324,Glencoe,NM,505,US
88325,High Rolls Mountain Park,NM,505,US
88330,Holloman Air Force Base,NM,505,US
88336,Hondo,NM,505,US
88337,La Luz,NM,505,US
88338,Lincoln,NM,505,US
88339,Mayhill,NM,505,US
88340,Mescalero,NM,505,US
88341,Nogal,NM,505,US
88342,Orogrande,NM,505,US
88343,Picacho,NM,505,US
88344,Pinon,NM,505,US
88345,Ruidoso,NM,505,US
88346,Ruidoso Downs,NM,505,US
88347,Sacramento,NM,505,US
88348,San Patricio,NM,505,US
88349,Sunspot,NM,505,US
88350,Timberon,NM,505,US
88351,Tinnie,NM,505,US
88352,Tularosa,NM,505,US
88353,Vaughn,NM,505,US
88354,Weed,NM,505,US
88355,Ruidoso,NM,505,US
88401,Tucumcari,NM,505,US
88410,Amistad,NM,505,US
88411,Bard,NM,505,US
88414,Capulin,NM,505,US
88415,Clayton,NM,505,US
88416,Conchas Dam,NM,505,US
88417,Cuervo,NM,505,US
88418,Des Moines,NM,505,US
88419,Folsom,NM,505,US
88421,Garita,NM,505,US
88422,Gladstone,NM,505,US
88424,Grenville,NM,505,US
88426,Logan,NM,505,US
88427,Mcalister,NM,505,US
88430,Nara Visa,NM,505,US
88431,Newkirk,NM,505,US
88433,Quay,NM,505,US
88434,San Jon,NM,505,US
88435,Santa Rosa,NM,505,US
88436,Sedan,NM,505,US
88439,Trementina,NM,505,US
88510,El Paso,TX,915,US
88511,El Paso,TX,915,US
88512,El Paso,TX,915,US
88513,El Paso,TX,915,US
88514,El Paso,TX,915,US
88515,El Paso,TX,915,US
88516,El Paso,TX,915,US
88517,El Paso,TX,915,US
88518,El Paso,TX,915,US
88519,El Paso,TX,915,US
88520,El Paso,TX,915,US
88521,El Paso,TX,915,US
88523,El Paso,TX,915,US
88524,El Paso,TX,915,US
88525,El Paso,TX,915,US
88526,El Paso,TX,915,US
88527,El Paso,TX,915,US
88528,El Paso,TX,915,US
88529,El Paso,TX,915,US
88530,El Paso,TX,915,US
88531,El Paso,TX,915,US
88532,El Paso,TX,915,US
88533,El Paso,TX,915,US
88534,El Paso,TX,915,US
88535,El Paso,TX,915,US
88536,El Paso,TX,915,US
88538,El Paso,TX,915,US
88539,El Paso,TX,915,US
88540,El Paso,TX,915,US
88541,El Paso,TX,915,US
88542,El Paso,TX,915,US
88543,El Paso,TX,915,US
88544,El Paso,TX,915,US
88545,El Paso,TX,915,US
88546,El Paso,TX,915,US
88547,El Paso,TX,915,US
88548,El Paso,TX,915,US
88549,El Paso,TX,915,US
88550,El Paso,TX,915,US
88553,El Paso,TX,915,US
88554,El Paso,TX,915,US
88555,El Paso,TX,915,US
88556,El Paso,TX,915,US
88557,El Paso,TX,915,US
88558,El Paso,TX,915,US
88559,El Paso,TX,915,US
88560,El Paso,TX,915,US
88561,El Paso,TX,915,US
88562,El Paso,TX,915,US
88563,El Paso,TX,915,US
88565,El Paso,TX,915,US
88566,El Paso,TX,915,US
88567,El Paso,TX,915,US
88568,El Paso,TX,915,US
88569,El Paso,TX,915,US
88570,El Paso,TX,915,US
88571,El Paso,TX,915,US
88572,El Paso,TX,915,US
88573,El Paso,TX,915,US
88574,El Paso,TX,915,US
88575,El Paso,TX,915,US
88576,El Paso,TX,915,US
88577,El Paso,TX,915,US
88578,El Paso,TX,915,US
88579,El Paso,TX,915,US
88580,El Paso,TX,915,US
88581,El Paso,TX,915,US
88582,El Paso,TX,915,US
88583,El Paso,TX,915,US
88584,El Paso,TX,915,US
88585,El Paso,TX,915,US
88586,El Paso,TX,915,US
88587,El Paso,TX,915,US
88588,El Paso,TX,915,US
88589,El Paso,TX,915,US
88590,El Paso,TX,915,US
88595,El Paso,TX,915,US
88901,The Lakes,NV,702,US
88905,The Lakes,NV,702,US
89001,Alamo,NV,775,US
89002,Henderson,NV,702,US
89003,Beatty,NV,775,US
89004,Blue Diamond,NV,702,US
89005,Boulder City,NV,702,US
89006,Boulder City,NV,702,US
89007,Bunkerville,NV,702,US
89008,Caliente,NV,775,US
89009,Henderson,NV,702,US
89010,Dyer,NV,775,US
89011,Henderson,NV,702,US
89012,Henderson,NV,702,US
89013,Goldfield,NV,775,US
89014,Henderson,NV,702,US
89015,Henderson,NV,702,US
89016,Henderson,NV,702,US
89017,Hiko,NV,"7,75,702",US
89018,Indian Springs,NV,702,US
89019,Jean,NV,702,US
89020,Amargosa Valley,NV,775,US
89021,Logandale,NV,702,US
89022,Manhattan,NV,775,US
89023,Mercury,NV,702,US
89024,Mesquite,NV,702,US
89025,Moapa,NV,702,US
89026,Jean,NV,702,US
89027,Mesquite,NV,702,US
89028,Laughlin,NV,702,US
89029,Laughlin,NV,702,US
89030,North Las Vegas,NV,702,US
89031,North Las Vegas,NV,702,US
89032,North Las Vegas,NV,702,US
89033,North Las Vegas,NV,702,US
89034,Mesquite,NV,702,US
89036,North Las Vegas,NV,702,US
89037,Coyote Springs,NV,702,US
89039,Cal Nev Ari,NV,702,US
89040,Overton,NV,702,US
89041,Pahrump,NV,"7,02,775",US
89042,Panaca,NV,775,US
89043,Pioche,NV,775,US
89044,Henderson,NV,702,US
89045,Round Mountain,NV,775,US
89046,Searchlight,NV,702,US
89047,Silverpeak,NV,"7,75,702",US
89048,Pahrump,NV,"7,75,702",US
89049,Tonopah,NV,775,US
89052,Henderson,NV,702,US
89053,Henderson,NV,702,US
89054,Sloan,NV,702,US
89060,Pahrump,NV,"7,75,702",US
89061,Pahrump,NV,"7,02,775",US
89067,Coyote Springs,NV,702,US
89070,Indian Springs,NV,702,US
89074,Henderson,NV,702,US
89077,Henderson,NV,702,US
89081,North Las Vegas,NV,702,US
89084,North Las Vegas,NV,702,US
89085,North Las Vegas,NV,702,US
89086,North Las Vegas,NV,702,US
89087,North Las Vegas,NV,702,US
89101,Las Vegas,NV,702,US
89102,Las Vegas,NV,702,US
89103,Las Vegas,NV,702,US
89104,Las Vegas,NV,702,US
89105,Las Vegas,NV,702,US
89106,Las Vegas,NV,702,US
89107,Las Vegas,NV,702,US
89108,Las Vegas,NV,702,US
89109,Las Vegas,NV,702,US
89110,Las Vegas,NV,702,US
89111,Las Vegas,NV,702,US
89112,Las Vegas,NV,702,US
89113,Las Vegas,NV,702,US
89114,Las Vegas,NV,702,US
89115,Las Vegas,NV,702,US
89116,Las Vegas,NV,702,US
89117,Las Vegas,NV,702,US
89118,Las Vegas,NV,702,US
89119,Las Vegas,NV,702,US
89120,Las Vegas,NV,702,US
89121,Las Vegas,NV,702,US
89122,Las Vegas,NV,702,US
89123,Las Vegas,NV,702,US
89124,Las Vegas,NV,702,US
89125,Las Vegas,NV,702,US
89126,Las Vegas,NV,702,US
89127,Las Vegas,NV,702,US
89128,Las Vegas,NV,702,US
89129,Las Vegas,NV,702,US
89130,Las Vegas,NV,702,US
89131,Las Vegas,NV,702,US
89132,Las Vegas,NV,702,US
89133,Las Vegas,NV,702,US
89134,Las Vegas,NV,702,US
89135,Las Vegas,NV,702,US
89136,Las Vegas,NV,702,US
89137,Las Vegas,NV,702,US
89138,Las Vegas,NV,702,US
89139,Las Vegas,NV,702,US
89140,Las Vegas,NV,702,US
89141,Las Vegas,NV,702,US
89142,Las Vegas,NV,702,US
89143,Las Vegas,NV,702,US
89144,Las Vegas,NV,702,US
89145,Las Vegas,NV,702,US
89146,Las Vegas,NV,702,US
89147,Las Vegas,NV,702,US
89148,Las Vegas,NV,702,US
89149,Las Vegas,NV,702,US
89150,Las Vegas,NV,702,US
89151,Las Vegas,NV,702,US
89152,Las Vegas,NV,702,US
89153,Las Vegas,NV,702,US
89154,Las Vegas,NV,702,US
89155,Las Vegas,NV,702,US
89156,Las Vegas,NV,"7,02,775",US
89157,Las Vegas,NV,702,US
89158,Las Vegas,NV,702,US
89159,Las Vegas,NV,702,US
89160,Las Vegas,NV,702,US
89161,Las Vegas,NV,702,US
89162,Las Vegas,NV,702,US
89163,The Lakes,NV,702,US
89164,Las Vegas,NV,702,US
89165,Las Vegas,NV,702,US
89166,Las Vegas,NV,702,US
89169,Las Vegas,NV,702,US
89170,Las Vegas,NV,702,US
89173,Las Vegas,NV,702,US
89177,Las Vegas,NV,702,US
89178,Las Vegas,NV,702,US
89179,Las Vegas,NV,702,US
89180,Las Vegas,NV,702,US
89183,Las Vegas,NV,702,US
89185,Las Vegas,NV,702,US
89191,Nellis Afb,NV,702,US
89193,Las Vegas,NV,702,US
89195,Las Vegas,NV,702,US
89199,Las Vegas,NV,702,US
89301,Ely,NV,775,US
89310,Austin,NV,775,US
89311,Baker,NV,775,US
89314,Duckwater,NV,775,US
89315,Ely,NV,775,US
89316,Eureka,NV,775,US
89317,Lund,NV,775,US
89318,Mc Gill,NV,775,US
89319,Ruth,NV,775,US
89402,Crystal Bay,NV,775,US
89403,Dayton,NV,775,US
89404,Denio,NV,775,US
89405,Empire,NV,775,US
89406,Fallon,NV,775,US
89407,Fallon,NV,775,US
89408,Fernley,NV,775,US
89409,Gabbs,NV,775,US
89410,Gardnerville,NV,"7,02,775",US
89411,Genoa,NV,775,US
89412,Gerlach,NV,775,US
89413,Glenbrook,NV,775,US
89414,Golconda,NV,775,US
89415,Hawthorne,NV,775,US
89418,Imlay,NV,775,US
89419,Lovelock,NV,775,US
89420,Luning,NV,775,US
89421,Mc Dermitt,NV,775,US
89422,Mina,NV,775,US
89423,Minden,NV,775,US
89424,Nixon,NV,775,US
89425,Orovada,NV,775,US
89426,Paradise Valley,NV,775,US
89427,Schurz,NV,775,US
89428,Silver City,NV,775,US
89429,Silver Springs,NV,775,US
89430,Smith,NV,775,US
89431,Sparks,NV,775,US
89432,Sparks,NV,775,US
89433,Sun Valley,NV,775,US
89434,Sparks,NV,775,US
89435,Sparks,NV,775,US
89436,Sparks,NV,775,US
89438,Valmy,NV,775,US
89439,Verdi,NV,775,US
89440,Virginia City,NV,775,US
89441,Sparks,NV,775,US
89442,Wadsworth,NV,775,US
89444,Wellington,NV,775,US
89445,Winnemucca,NV,775,US
89446,Winnemucca,NV,775,US
89447,Yerington,NV,775,US
89448,Zephyr Cove,NV,775,US
89449,Stateline,NV,"53,07,75,702",US
89450,Incline Village,NV,775,US
89451,Incline Village,NV,775,US
89452,Incline Village,NV,775,US
89460,Gardnerville,NV,775,US
89496,Fallon,NV,775,US
89501,Reno,NV,775,US
89502,Reno,NV,"7,02,775",US
89503,Reno,NV,775,US
89504,Reno,NV,775,US
89505,Reno,NV,775,US
89506,Reno,NV,775,US
89507,Reno,NV,775,US
89508,Reno,NV,775,US
89509,Reno,NV,775,US
89510,Reno,NV,775,US
89511,Reno,NV,775,US
89512,Reno,NV,775,US
89513,Reno,NV,775,US
89515,Reno,NV,775,US
89519,Reno,NV,775,US
89520,Reno,NV,775,US
89521,Reno,NV,775,US
89523,Reno,NV,775,US
89533,Reno,NV,775,US
89555,Reno,NV,775,US
89557,Reno,NV,775,US
89570,Reno,NV,775,US
89595,Reno,NV,775,US
89599,Reno,NV,775,US
89701,Carson City,NV,775,US
89702,Carson City,NV,775,US
89703,Carson City,NV,775,US
89704,Washoe Valley,NV,775,US
89705,Carson City,NV,775,US
89706,Carson City,NV,775,US
89711,Carson City,NV,775,US
89712,Carson City,NV,775,US
89713,Carson City,NV,775,US
89714,Carson City,NV,775,US
89721,Carson City,NV,775,US
89801,Elko,NV,775,US
89802,Elko,NV,775,US
89803,Elko,NV,775,US
89815,Spring Creek,NV,775,US
89820,Battle Mountain,NV,775,US
89821,Crescent Valley,NV,775,US
89822,Carlin,NV,775,US
89823,Deeth,NV,775,US
89824,Halleck,NV,775,US
89825,Jackpot,NV,775,US
89826,Jarbidge,NV,775,US
89828,Lamoille,NV,775,US
89830,Montello,NV,775,US
89831,Mountain City,NV,775,US
89832,Owyhee,NV,775,US
89833,Ruby Valley,NV,775,US
89834,Tuscarora,NV,775,US
89835,Wells,NV,775,US
89883,West Wendover,NV,775,US
90001,Los Angeles,CA,"2,13,31,03,23,562",US
90002,Los Angeles,CA,"21,33,23,562",US
90003,Los Angeles,CA,"32,32,13,310",US
90004,Los Angeles,CA,"2,13,81,83,23,310",US
90005,Los Angeles,CA,"32,32,13,56,28,18,310",US
90006,Los Angeles,CA,"21,33,23,310",US
90007,Los Angeles,CA,"2,13,32,36,26,310",US
90008,Los Angeles,CA,"21,33,23,310",US
90009,Los Angeles,CA,310,US
90010,Los Angeles,CA,"21,33,23,62,68,18,31,00,00,00,00,00,000",US
90011,Los Angeles,CA,"2,13,323",US
90012,Los Angeles,CA,"2,13,32,35,62,81,87,14,000",US
90013,Los Angeles,CA,"21,38,18,32,35,62,62,60,00,00,00,00,000",US
90014,Los Angeles,CA,"21,33,10,80,53,23,62,60,00,00,00,00,000",US
90015,Los Angeles,CA,"2,13,32,38,18,31,05,62,000",US
90016,Los Angeles,CA,"2,13,32,33,10,909",US
90017,Los Angeles,CA,"2,13,76,07,14,81,83,10,00,00,00,00,00,00,000",US
90018,Los Angeles,CA,"3,23,213",US
90019,Los Angeles,CA,"21,33,23,310",US
90020,Los Angeles,CA,"3,10,32,32,13,81,85,62,000",US
90021,Los Angeles,CA,"21,35,62,66,13,23,714",US
90022,Los Angeles,CA,"6,26,32,32,13,562",US
90023,Los Angeles,CA,"62,63,23,213",US
90024,Los Angeles,CA,"3,10,62,68,18,323",US
90025,Los Angeles,CA,"3,10,32,36,26,21,38,18,000",US
90026,Los Angeles,CA,"21,33,23,818",US
90027,Los Angeles,CA,"21,33,23,818",US
90028,Los Angeles,CA,"3,23,62,62,13,31,08,18,000",US
90029,Los Angeles,CA,"2,13,323",US
90030,Los Angeles,CA,213,US
90031,Los Angeles,CA,"2,13,32,33,10,818",US
90032,Los Angeles,CA,"21,33,23,626",US
90033,Los Angeles,CA,"2,13,32,35,10,626",US
90034,Los Angeles,CA,"32,33,10,213",US
90035,Los Angeles,CA,"3,23,31,08,18,213",US
90036,Los Angeles,CA,"21,33,10,32,35,10,818",US
90037,Los Angeles,CA,"3,23,21,38,18,310",US
90038,Los Angeles,CA,"2,13,32,38,18,310",US
90039,Los Angeles,CA,"32,32,13,818",US
90040,Los Angeles,CA,"3,23,71,46,26,31,02,13,000",US
90041,Los Angeles,CA,"21,33,23,62,68,18,949",US
90042,Los Angeles,CA,"21,33,23,818",US
90043,Los Angeles,CA,"32,32,13,310",US
90044,Los Angeles,CA,"32,33,10,213",US
90045,Los Angeles,CA,"31,05,62,21,33,23,650",US
90046,Los Angeles,CA,"2,13,32,36,61,31,07,14,000",US
90047,Los Angeles,CA,"32,32,13,562",US
90048,Los Angeles,CA,"3,10,32,32,13,415",US
90049,Los Angeles,CA,"2,13,31,03,23,818",US
90050,Los Angeles,CA,213,US
90051,Los Angeles,CA,213,US
90052,Los Angeles,CA,213,US
90053,Los Angeles,CA,213,US
90054,Los Angeles,CA,213,US
90055,Los Angeles,CA,213,US
90056,Los Angeles,CA,"32,32,13,310",US
90057,Los Angeles,CA,"2,13,32,33,10,562",US
90058,Los Angeles,CA,"32,32,13,818",US
90059,Los Angeles,CA,"31,03,23,213",US
90060,Los Angeles,CA,323,US
90061,Los Angeles,CA,"32,32,13,310",US
90062,Los Angeles,CA,"2,13,323",US
90063,Los Angeles,CA,"3,23,213",US
90064,Los Angeles,CA,"3,10,21,38,18,323",US
90065,Los Angeles,CA,"21,33,23,818",US
90066,Los Angeles,CA,"31,06,61,81,82,13,56,20,00,000",US
90067,Los Angeles,CA,"31,03,23,76,05,62,213",US
90068,Los Angeles,CA,"21,33,23,310",US
90069,West Hollywood,CA,"3,23,31,08,18,213",US
90070,Los Angeles,CA,213,US
90071,Los Angeles,CA,"21,33,23,81,86,26,31,00,00,000",US
90072,Los Angeles,CA,213,US
90073,Los Angeles,CA,310,US
90074,Los Angeles,CA,213,US
90075,Los Angeles,CA,323,US
90076,Los Angeles,CA,323,US
90077,Los Angeles,CA,"21,33,10,323",US
90078,Los Angeles,CA,"2,13,323",US
90079,Los Angeles,CA,"2,13,62,68,18,76,03,23,000",US
90080,Los Angeles,CA,213,US
90081,Los Angeles,CA,213,US
90082,Los Angeles,CA,213,US
90083,Los Angeles,CA,213,US
90084,Los Angeles,CA,213,US
90086,Los Angeles,CA,213,US
90087,Los Angeles,CA,213,US
90088,Los Angeles,CA,213,US
90089,Los Angeles,CA,"3,23,213",US
90090,Dodgertown,CA,,US
90091,Los Angeles,CA,213,US
90093,Los Angeles,CA,323,US
90094,Playa Vista,CA,323,US
90095,Los Angeles,CA,310,US
90096,Los Angeles,CA,213,US
90099,Los Angeles,CA,818,US
90101,Los Angeles,CA,213,US
90102,Los Angeles,CA,213,US
90103,Los Angeles,CA,213,US
90189,Los Angeles,CA,213,US
90201,Bell Gardens,CA,"3,23,56,22,13,310",US
90202,Bell,CA,,US
90209,Beverly Hills,CA,310,US
90210,Beverly Hills,CA,"3,10,323",US
90211,Beverly Hills,CA,"31,03,23,21,37,14,424",US
90212,Beverly Hills,CA,"31,03,23,213",US
90213,Beverly Hills,CA,310,US
90220,Compton,CA,"32,33,10,562",US
90221,Compton,CA,"2,13,31,03,23,424",US
90222,Compton,CA,"31,03,23,562",US
90223,Compton,CA,562,US
90224,Compton,CA,310,US
90230,Culver City,CA,"3,10,323",US
90231,Culver City,CA,"31,03,23,213",US
90232,Culver City,CA,"3,10,81,83,23,424",US
90233,Culver City,CA,310,US
90239,Downey,CA,562,US
90240,Downey,CA,"56,23,23,310",US
90241,Downey,CA,"3,23,562",US
90242,Downey,CA,"5,62,818",US
90245,El Segundo,CA,"3,10,71,48,18,32,36,26,000",US
90247,Gardena,CA,"32,33,10,94,92,13,562",US
90248,Gardena,CA,"3,10,32,32,13,424",US
90249,Gardena,CA,"31,03,23,62,62,13,562",US
90250,Hawthorne,CA,"3,10,32,37,14,424",US
90251,Hawthorne,CA,310,US
90254,Hermosa Beach,CA,"3,10,21,33,23,424",US
90255,Huntington Park,CA,"21,35,62,62,63,23,818",US
90260,Lawndale,CA,"3,10,323",US
90261,Lawndale,CA,310,US
90262,Lynwood,CA,"3,23,31,05,62,818",US
90263,Malibu,CA,"3,10,424",US
90264,Malibu,CA,310,US
90265,Malibu,CA,"3,10,818",US
90266,Manhattan Beach,CA,310,US
90267,Manhattan Beach,CA,310,US
90270,Maywood,CA,"3,23,213",US
90272,Pacific Palisades,CA,"3,10,562",US
90274,Palos Verdes Peninsula,CA,"3,10,323",US
90275,Rancho Palos Verdes,CA,310,US
90277,Redondo Beach,CA,"31,09,09,323",US
90278,Redondo Beach,CA,"3,10,323",US
90280,South Gate,CA,"3,23,21,33,10,562",US
90290,Topanga,CA,310,US
90291,Venice,CA,310,US
90292,Marina Del Rey,CA,"3,10,323",US
90293,Playa Del Rey,CA,"3,10,323",US
90294,Venice,CA,"3,10,818",US
90295,Marina Del Rey,CA,310,US
90296,Playa Del Rey,CA,213,US
90301,Inglewood,CA,"31,03,23,424",US
90302,Inglewood,CA,"31,05,62,323",US
90303,Inglewood,CA,"3,10,323",US
90304,Inglewood,CA,"31,06,26,323",US
90305,Inglewood,CA,"3,23,310",US
90306,Inglewood,CA,310,US
90307,Inglewood,CA,310,US
90308,Inglewood,CA,310,US
90309,Inglewood,CA,310,US
90310,Inglewood,CA,310,US
90311,Inglewood,CA,310,US
90312,Inglewood,CA,310,US
90313,Inglewood,CA,310,US
90397,Inglewood,CA,310,US
90398,Inglewood,CA,310,US
90401,Santa Monica,CA,"32,37,14,31,08,18,424",US
90402,Santa Monica,CA,310,US
90403,Santa Monica,CA,"31,06,26,323",US
90404,Santa Monica,CA,"3,10,76,07,14,818",US
90405,Santa Monica,CA,"3,10,818",US
90406,Santa Monica,CA,310,US
90407,Santa Monica,CA,310,US
90408,Santa Monica,CA,310,US
90409,Santa Monica,CA,310,US
90410,Santa Monica,CA,310,US
90411,Santa Monica,CA,310,US
90501,Torrance,CA,"31,08,18,32,34,08,424",US
90502,Torrance,CA,"31,05,62,323",US
90503,Torrance,CA,"3,10,94,93,23,626",US
90504,Torrance,CA,"3,10,323",US
90505,Torrance,CA,310,US
90506,Torrance,CA,310,US
90507,Torrance,CA,310,US
90508,Torrance,CA,310,US
90509,Torrance,CA,310,US
90510,Torrance,CA,818,US
90601,Whittier,CA,"56,26,26,949",US
90602,Whittier,CA,"56,26,26,323",US
90603,Whittier,CA,"5,62,626",US
90604,Whittier,CA,562,US
90605,Whittier,CA,"5,62,626",US
90606,Whittier,CA,"5,30,56,29,09,626",US
90607,Whittier,CA,562,US
90608,Whittier,CA,818,US
90609,Whittier,CA,562,US
90610,Whittier,CA,562,US
90612,Whittier,CA,562,US
90620,Buena Park,CA,"7,14,62,69,49,562",US
90621,Buena Park,CA,"56,27,14,21,36,26,858",US
90622,Buena Park,CA,714,US
90623,La Palma,CA,"7,14,62,62,13,562",US
90624,Buena Park,CA,714,US
90630,Cypress,CA,"5,62,714",US
90631,La Habra,CA,"56,26,26,31,07,14,909",US
90632,La Habra,CA,562,US
90633,La Habra,CA,714,US
90637,La Mirada,CA,562,US
90638,La Mirada,CA,"5,62,71,46,26,310",US
90639,La Mirada,CA,562,US
90640,Montebello,CA,"3,23,81,86,26,213",US
90650,Norwalk,CA,"5,62,714",US
90651,Norwalk,CA,562,US
90652,Norwalk,CA,562,US
90659,Norwalk,CA,562,US
90660,Pico Rivera,CA,"56,23,23,626",US
90661,Pico Rivera,CA,562,US
90662,Pico Rivera,CA,562,US
90670,Santa Fe Springs,CA,"5,62,90,96,26,408",US
90671,Santa Fe Springs,CA,562,US
90680,Stanton,CA,714,US
90701,Artesia,CA,"5,62,714",US
90702,Artesia,CA,562,US
90703,Cerritos,CA,"5,62,626",US
90704,Avalon,CA,"3,10,323",US
90706,Bellflower,CA,"31,05,62,714",US
90707,Bellflower,CA,562,US
90710,Harbor City,CA,"3,10,323",US
90711,Lakewood,CA,562,US
90712,Lakewood,CA,"5,62,310",US
90713,Lakewood,CA,"5,62,310",US
90714,Lakewood,CA,562,US
90715,Lakewood,CA,"5,62,310",US
90716,Hawaiian Gardens,CA,"7,14,562",US
90717,Lomita,CA,"31,02,13,424",US
90720,Los Alamitos,CA,"56,23,10,714",US
90721,Los Alamitos,CA,562,US
90723,Paramount,CA,"5,62,71,43,23,213",US
90731,San Pedro,CA,"31,05,62,424",US
90732,San Pedro,CA,"3,10,562",US
90733,San Pedro,CA,213,US
90734,San Pedro,CA,213,US
90740,Seal Beach,CA,"5,62,310",US
90742,Sunset Beach,CA,562,US
90743,Surfside,CA,562,US
90744,Wilmington,CA,"31,03,23,562",US
90745,Carson,CA,"31,03,23,562",US
90746,Carson,CA,"31,05,62,323",US
90747,Carson,CA,310,US
90748,Wilmington,CA,213,US
90749,Carson,CA,310,US
90755,Signal Hill,CA,,US
90801,Long Beach,CA,"56,23,10,626",US
90802,Long Beach,CA,"56,23,10,424",US
90803,Long Beach,CA,"5,62,310",US
90804,Long Beach,CA,"5,62,714",US
90805,Long Beach,CA,"56,23,10,323",US
90806,Long Beach,CA,"3,10,562",US
90807,Long Beach,CA,"56,23,10,714",US
90808,Long Beach,CA,"5,62,310",US
90809,Long Beach,CA,562,US
90810,Long Beach,CA,"56,23,10,323",US
90813,Long Beach,CA,"56,23,10,323",US
90814,Long Beach,CA,"3,10,562",US
90815,Long Beach,CA,"5,62,21,33,10,714",US
90822,Long Beach,CA,"56,23,10,323",US
90831,Long Beach,CA,562,US
90832,Long Beach,CA,562,US
90833,Long Beach,CA,562,US
90834,Long Beach,CA,562,US
90835,Long Beach,CA,562,US
90840,Long Beach,CA,562,US
90842,Long Beach,CA,562,US
90844,Long Beach,CA,562,US
90845,Long Beach,CA,562,US
90846,Long Beach,CA,562,US
90847,Long Beach,CA,562,US
90848,Long Beach,CA,562,US
90853,Long Beach,CA,562,US
90888,Long Beach,CA,562,US
90895,Carson,CA,310,US
90899,Long Beach,CA,562,US
91001,Altadena,CA,"6,26,31,03,23,818",US
91003,Altadena,CA,626,US
91006,Arcadia,CA,"6,26,81,87,14,323",US
91007,Arcadia,CA,"62,68,18,310",US
91008,Duarte,CA,626,US
91009,Duarte,CA,626,US
91010,Duarte,CA,"6,26,323",US
91011,La Canada Flintridge,CA,"3,10,81,86,26,323",US
91012,La Canada Flintridge,CA,626,US
91016,Monrovia,CA,"62,68,18,909",US
91017,Monrovia,CA,626,US
91020,Montrose,CA,818,US
91021,Montrose,CA,818,US
91023,Mount Wilson,CA,,US
91024,Sierra Madre,CA,626,US
91025,Sierra Madre,CA,626,US
91030,South Pasadena,CA,"6,26,32,38,18,562",US
91031,South Pasadena,CA,626,US
91040,Sunland,CA,"3,23,818",US
91041,Sunland,CA,818,US
91042,Tujunga,CA,818,US
91043,Tujunga,CA,818,US
91046,Verdugo City,CA,,US
91066,Arcadia,CA,626,US
91077,Arcadia,CA,626,US
91101,Pasadena,CA,"2,13,32,36,26,80,58,18,000",US
91102,Pasadena,CA,626,US
91103,Pasadena,CA,"3,23,626",US
91104,Pasadena,CA,"6,26,31,08,18,323",US
91105,Pasadena,CA,"6,26,31,03,23,818",US
91106,Pasadena,CA,"62,63,10,323",US
91107,Pasadena,CA,"62,63,23,818",US
91108,San Marino,CA,"6,26,323",US
91109,Pasadena,CA,"8,18,626",US
91110,Pasadena,CA,626,US
91114,Pasadena,CA,626,US
91115,Pasadena,CA,626,US
91116,Pasadena,CA,323,US
91117,Pasadena,CA,626,US
91118,San Marino,CA,626,US
91121,Pasadena,CA,626,US
91123,Pasadena,CA,626,US
91124,Pasadena,CA,626,US
91125,Pasadena,CA,626,US
91126,Pasadena,CA,626,US
91129,Pasadena,CA,626,US
91131,Pasadena,CA,626,US
91182,Pasadena,CA,626,US
91184,Pasadena,CA,626,US
91185,Pasadena,CA,626,US
91188,Pasadena,CA,626,US
91189,Pasadena,CA,626,US
91191,Pasadena,CA,626,US
91199,Pasadena,CA,626,US
91201,Glendale,CA,"8,18,323",US
91202,Glendale,CA,"8,18,323",US
91203,Glendale,CA,"81,83,23,213",US
91204,Glendale,CA,"8,18,323",US
91205,Glendale,CA,"8,18,323",US
91206,Glendale,CA,"8,18,323",US
91207,Glendale,CA,"8,18,323",US
91208,Glendale,CA,"8,18,323",US
91209,Glendale,CA,"8,18,323",US
91210,Glendale,CA,818,US
91214,La Crescenta,CA,"66,18,18,323",US
91221,Glendale,CA,818,US
91222,Glendale,CA,818,US
91224,La Crescenta,CA,818,US
91225,Glendale,CA,818,US
91226,Glendale,CA,818,US
91301,Agoura Hills,CA,"81,87,14,949",US
91302,Calabasas,CA,"8,18,310",US
91303,Canoga Park,CA,"8,18,310",US
91304,Canoga Park,CA,818,US
91305,Canoga Park,CA,818,US
91306,Winnetka,CA,"8,18,323",US
91307,West Hills,CA,"2,13,818",US
91308,West Hills,CA,818,US
91309,Canoga Park,CA,213,US
91310,Castaic,CA,661,US
91311,Chatsworth,CA,"31,06,61,818",US
91313,Chatsworth,CA,213,US
91316,Encino,CA,"81,83,10,323",US
91319,Newbury Park,CA,805,US
91320,Newbury Park,CA,805,US
91321,Newhall,CA,"6,61,818",US
91322,Newhall,CA,661,US
91324,Northridge,CA,"8,18,805",US
91325,Northridge,CA,818,US
91326,Porter Ranch,CA,"2,13,818",US
91327,Northridge,CA,818,US
91328,Northridge,CA,818,US
91329,Northridge,CA,213,US
91330,Northridge,CA,818,US
91331,Pacoima,CA,818,US
91333,Pacoima,CA,818,US
91334,Pacoima,CA,213,US
91335,Reseda,CA,818,US
91337,Reseda,CA,"2,13,323",US
91340,San Fernando,CA,818,US
91341,San Fernando,CA,818,US
91342,Sylmar,CA,"8,18,323",US
91343,North Hills,CA,818,US
91344,Granada Hills,CA,818,US
91345,Mission Hills,CA,"81,83,10,323",US
91346,Mission Hills,CA,818,US
91350,Santa Clarita,CA,"6,61,323",US
91351,Canyon Country,CA,"6,61,805",US
91352,Sun Valley,CA,"66,18,18,31,03,23,626",US
91353,Sun Valley,CA,"8,18,323",US
91354,Valencia,CA,"8,05,661",US
91355,Valencia,CA,"6,61,80,53,23,760",US
91356,Tarzana,CA,818,US
91357,Tarzana,CA,213,US
91358,Thousand Oaks,CA,805,US
91359,Westlake Village,CA,805,US
91360,Thousand Oaks,CA,805,US
91361,Westlake Village,CA,"8,05,818",US
91362,Thousand Oaks,CA,"80,58,18,916",US
91363,Thousand Oaks,CA,818,US
91364,Woodland Hills,CA,"8,18,323",US
91365,Woodland Hills,CA,818,US
91367,Woodland Hills,CA,"4,08,81,83,10,323",US
91371,Woodland Hills,CA,213,US
91372,Calabasas,CA,818,US
91376,Agoura Hills,CA,818,US
91377,Oak Park,CA,818,US
91380,Santa Clarita,CA,661,US
91381,Stevenson Ranch,CA,"66,18,18,626",US
91382,Santa Clarita,CA,661,US
91383,Santa Clarita,CA,661,US
91384,Castaic,CA,"6,61,805",US
91385,Valencia,CA,661,US
91386,Canyon Country,CA,661,US
91387,Canyon Country,CA,661,US
91388,Van Nuys,CA,213,US
91390,Santa Clarita,CA,"6,61,818",US
91392,Sylmar,CA,818,US
91393,North Hills,CA,213,US
91394,Granada Hills,CA,213,US
91395,Mission Hills,CA,213,US
91396,Winnetka,CA,213,US
91399,Woodland Hills,CA,213,US
91401,Van Nuys,CA,"8,18,323",US
91402,Panorama City,CA,818,US
91403,Sherman Oaks,CA,"8,18,31,03,23,62,62,13,000",US
91404,Van Nuys,CA,818,US
91405,Van Nuys,CA,"81,83,10,323",US
91406,Van Nuys,CA,"62,68,05,81,83,23,310",US
91407,Van Nuys,CA,213,US
91408,Van Nuys,CA,213,US
91409,Van Nuys,CA,213,US
91410,Van Nuys,CA,213,US
91411,Van Nuys,CA,"81,83,23,21,36,26,661",US
91412,Panorama City,CA,213,US
91413,Sherman Oaks,CA,310,US
91416,Encino,CA,213,US
91423,Sherman Oaks,CA,"8,18,21,33,10,61,93,23,00,00,00,000",US
91426,Encino,CA,818,US
91436,Encino,CA,"81,83,23,21,33,10,805",US
91470,Van Nuys,CA,213,US
91482,Van Nuys,CA,213,US
91495,Sherman Oaks,CA,213,US
91496,Van Nuys,CA,213,US
91497,Van Nuys,CA,213,US
91499,Van Nuys,CA,213,US
91501,Burbank,CA,818,US
91502,Burbank,CA,"81,83,23,31,07,14,805",US
91503,Burbank,CA,818,US
91504,Burbank,CA,"81,83,10,323",US
91505,Burbank,CA,"8,18,66,13,23,626",US
91506,Burbank,CA,"81,83,10,323",US
91507,Burbank,CA,818,US
91508,Burbank,CA,818,US
91510,Burbank,CA,818,US
91521,Burbank,CA,818,US
91522,Burbank,CA,818,US
91523,Burbank,CA,818,US
91526,Burbank,CA,818,US
91601,North Hollywood,CA,"8,18,21,33,10,323",US
91602,North Hollywood,CA,"8,18,323",US
91603,North Hollywood,CA,"8,18,323",US
91604,Studio City,CA,"81,83,23,310",US
91605,North Hollywood,CA,"8,18,323",US
91606,North Hollywood,CA,"8,18,323",US
91607,Valley Village,CA,"21,38,18,323",US
91608,Universal City,CA,818,US
91609,North Hollywood,CA,213,US
91610,Toluca Lake,CA,,US
91611,North Hollywood,CA,213,US
91612,North Hollywood,CA,213,US
91614,Studio City,CA,818,US
91615,North Hollywood,CA,213,US
91616,North Hollywood,CA,213,US
91617,Valley Village,CA,213,US
91618,North Hollywood,CA,213,US
91701,Rancho Cucamonga,CA,909,US
91702,Azusa,CA,"6,26,818",US
91706,Baldwin Park,CA,"62,67,14,323",US
91708,Chino,CA,909,US
91709,Chino Hills,CA,"9,09,714",US
91710,Chino,CA,909,US
91711,Claremont,CA,909,US
91714,City Of Industry,CA,626,US
91715,City Of Industry,CA,626,US
91716,City Of Industry,CA,626,US
91722,Covina,CA,626,US
91723,Covina,CA,"62,68,18,949",US
91724,Covina,CA,"3,23,626",US
91729,Rancho Cucamonga,CA,909,US
91730,Rancho Cucamonga,CA,"71,49,09,760",US
91731,El Monte,CA,"5,62,62,67,14,323",US
91732,El Monte,CA,"6,26,323",US
91733,South El Monte,CA,"6,26,32,38,18,909",US
91734,El Monte,CA,626,US
91735,El Monte,CA,626,US
91737,Rancho Cucamonga,CA,909,US
91739,Rancho Cucamonga,CA,909,US
91740,Glendora,CA,"6,26,909",US
91741,Glendora,CA,626,US
91743,Guasti,CA,909,US
91744,La Puente,CA,"6,26,323",US
91745,Hacienda Heights,CA,"62,69,09,81,83,23,562",US
91746,La Puente,CA,"62,63,23,562",US
91747,La Puente,CA,626,US
91748,Rowland Heights,CA,"62,65,62,21,39,09,323",US
91749,La Puente,CA,626,US
91750,La Verne,CA,"6,26,909",US
91752,Mira Loma,CA,"9,09,951",US
91754,Monterey Park,CA,"3,23,62,62,13,562",US
91755,Monterey Park,CA,"6,26,323",US
91756,Monterey Park,CA,626,US
91758,Ontario,CA,"9,09,951",US
91759,Mt Baldy,CA,,US
91761,Ontario,CA,"9,09,714",US
91762,Ontario,CA,909,US
91763,Montclair,CA,909,US
91764,Ontario,CA,"9,09,951",US
91765,Diamond Bar,CA,"90,93,10,949",US
91766,Pomona,CA,"9,09,626",US
91767,Pomona,CA,"9,09,626",US
91768,Pomona,CA,"90,96,26,949",US
91769,Pomona,CA,909,US
91770,Rosemead,CA,"62,62,13,323",US
91771,Rosemead,CA,626,US
91772,Rosemead,CA,626,US
91773,San Dimas,CA,"5,62,81,89,09,626",US
91775,San Gabriel,CA,"6,26,323",US
91776,San Gabriel,CA,"65,06,26,323",US
91778,San Gabriel,CA,626,US
91780,Temple City,CA,"56,26,26,323",US
91784,Upland,CA,909,US
91785,Upland,CA,909,US
91786,Upland,CA,"90,92,13,626",US
91788,Walnut,CA,909,US
91789,Walnut,CA,"6,26,90,92,13,31,04,15,000",US
91790,West Covina,CA,"21,33,23,62,69,09,559",US
91791,West Covina,CA,"6,26,213",US
91792,West Covina,CA,"5,62,81,86,26,909",US
91793,West Covina,CA,626,US
91795,Walnut,CA,909,US
91797,Pomona,CA,909,US
91798,Ontario,CA,909,US
91799,Pomona,CA,909,US
91801,Alhambra,CA,"62,62,13,323",US
91802,Alhambra,CA,626,US
91803,Alhambra,CA,"2,13,62,68,18,323",US
91804,Alhambra,CA,626,US
91841,Alhambra,CA,626,US
91896,Alhambra,CA,626,US
91899,Alhambra,CA,626,US
91901,Alpine,CA,619,US
91902,Bonita,CA,619,US
91903,Alpine,CA,619,US
91905,Boulevard,CA,619,US
91906,Campo,CA,619,US
91908,Bonita,CA,619,US
91909,Chula Vista,CA,619,US
91910,Chula Vista,CA,"6,19,858",US
91911,Chula Vista,CA,"53,06,19,760",US
91912,Chula Vista,CA,619,US
91913,Chula Vista,CA,619,US
91914,Chula Vista,CA,619,US
91915,Chula Vista,CA,619,US
91916,Descanso,CA,619,US
91917,Dulzura,CA,619,US
91921,Chula Vista,CA,619,US
91931,Guatay,CA,,US
91932,Imperial Beach,CA,"6,19,858",US
91933,Imperial Beach,CA,619,US
91934,Jacumba,CA,619,US
91935,Jamul,CA,619,US
91941,La Mesa,CA,"6,19,858",US
91942,La Mesa,CA,"6,19,858",US
91943,La Mesa,CA,619,US
91944,La Mesa,CA,619,US
91945,Lemon Grove,CA,619,US
91946,Lemon Grove,CA,619,US
91947,Lincoln Acres,CA,,US
91948,Mount Laguna,CA,619,US
91950,National City,CA,"6,19,858",US
91951,National City,CA,619,US
91962,Pine Valley,CA,619,US
91963,Potrero,CA,619,US
91976,Spring Valley,CA,619,US
91977,Spring Valley,CA,619,US
91978,Spring Valley,CA,619,US
91979,Spring Valley,CA,619,US
91980,Tecate,CA,619,US
91987,Tecate,CA,619,US
91990,Potrero,CA,619,US
92003,Bonsall,CA,760,US
92004,Borrego Springs,CA,760,US
92007,Cardiff By The Sea,CA,"76,08,58,619",US
92008,Carlsbad,CA,"7,60,61,98,58,909",US
92009,Carlsbad,CA,760,US
92010,Carlsbad,CA,760,US
92011,Carlsbad,CA,760,US
92013,Carlsbad,CA,760,US
92014,Del Mar,CA,"6,19,858",US
92018,Carlsbad,CA,619,US
92019,El Cajon,CA,619,US
92020,El Cajon,CA,619,US
92021,El Cajon,CA,"6,19,858",US
92022,El Cajon,CA,619,US
92023,Encinitas,CA,760,US
92024,Encinitas,CA,"6,19,76,08,58,650",US
92025,Escondido,CA,"76,08,58,619",US
92026,Escondido,CA,"7,60,619",US
92027,Escondido,CA,"85,87,60,619",US
92028,Fallbrook,CA,"7,60,619",US
92029,Escondido,CA,760,US
92030,Escondido,CA,760,US
92033,Escondido,CA,760,US
92036,Julian,CA,760,US
92037,La Jolla,CA,"61,98,58,562",US
92038,La Jolla,CA,619,US
92039,La Jolla,CA,619,US
92040,Lakeside,CA,619,US
92046,Escondido,CA,760,US
92049,Oceanside,CA,760,US
92051,Oceanside,CA,760,US
92052,Oceanside,CA,760,US
92054,Oceanside,CA,"7,60,85,89,49,619",US
92055,Camp Pendleton,CA,"7,60,619",US
92056,Oceanside,CA,"7,60,858",US
92057,Oceanside,CA,760,US
92058,Oceanside,CA,760,US
92059,Pala,CA,760,US
92060,Palomar Mountain,CA,760,US
92061,Pauma Valley,CA,760,US
92064,Poway,CA,"85,86,19,760",US
92065,Ramona,CA,"7,60,619",US
92066,Ranchita,CA,760,US
92067,Rancho Santa Fe,CA,"8,58,760",US
92068,San Luis Rey,CA,,US
92069,San Marcos,CA,"7,60,61,99,49,714",US
92070,Santa Ysabel,CA,760,US
92071,Santee,CA,"6,19,858",US
92072,Santee,CA,"6,19,858",US
92074,Poway,CA,"85,87,60,619",US
92075,Solana Beach,CA,"76,08,58,619",US
92078,San Marcos,CA,760,US
92079,San Marcos,CA,760,US
92081,Vista,CA,760,US
92082,Valley Center,CA,"76,06,19,858",US
92083,Vista,CA,"7,60,949",US
92084,Vista,CA,760,US
92085,Vista,CA,760,US
92086,Warner Springs,CA,760,US
92088,Fallbrook,CA,760,US
92090,El Cajon,CA,619,US
92091,Rancho Santa Fe,CA,"8,58,619",US
92092,La Jolla,CA,858,US
92093,La Jolla,CA,858,US
92096,San Marcos,CA,760,US
92101,San Diego,CA,"6,19,85,89,49,31,05,10,000",US
92102,San Diego,CA,"61,99,25,858",US
92103,San Diego,CA,"61,98,58,760",US
92104,San Diego,CA,"61,98,58,760",US
92105,San Diego,CA,"6,19,858",US
92106,San Diego,CA,619,US
92107,San Diego,CA,"6,19,858",US
92108,San Diego,CA,"61,98,58,559",US
92109,San Diego,CA,"6,19,858",US
92110,San Diego,CA,"61,98,58,949",US
92111,San Diego,CA,"61,98,58,805",US
92112,San Diego,CA,"6,19,858",US
92113,San Diego,CA,619,US
92114,San Diego,CA,"6,19,858",US
92115,San Diego,CA,619,US
92116,San Diego,CA,"6,19,858",US
92117,San Diego,CA,"6,19,858",US
92118,Coronado,CA,"6,19,858",US
92119,San Diego,CA,619,US
92120,San Diego,CA,"61,98,58,949",US
92121,San Diego,CA,"61,98,58,760",US
92122,San Diego,CA,"61,98,58,31,07,14,760",US
92123,San Diego,CA,"6,19,858",US
92124,San Diego,CA,"6,19,858",US
92126,San Diego,CA,"85,86,19,760",US
92127,San Diego,CA,"61,98,58,760",US
92128,San Diego,CA,"6,19,858",US
92129,San Diego,CA,"6,19,858",US
92130,San Diego,CA,"8,58,619",US
92131,San Diego,CA,"8,58,40,86,19,650",US
92132,San Diego,CA,"6,19,858",US
92133,San Diego,CA,619,US
92134,San Diego,CA,"6,19,858",US
92135,San Diego,CA,619,US
92136,San Diego,CA,619,US
92137,San Diego,CA,619,US
92138,San Diego,CA,"6,19,858",US
92139,San Diego,CA,619,US
92140,San Diego,CA,"61,97,60,858",US
92142,San Diego,CA,619,US
92143,San Ysidro,CA,619,US
92145,San Diego,CA,"8,58,619",US
92147,San Diego,CA,619,US
92149,San Diego,CA,619,US
92150,San Diego,CA,619,US
92152,San Diego,CA,619,US
92153,San Diego,CA,619,US
92154,San Diego,CA,"6,19,858",US
92155,San Diego,CA,619,US
92158,San Diego,CA,619,US
92159,San Diego,CA,619,US
92160,San Diego,CA,619,US
92161,San Diego,CA,858,US
92162,San Diego,CA,619,US
92163,San Diego,CA,619,US
92164,San Diego,CA,619,US
92165,San Diego,CA,619,US
92166,San Diego,CA,619,US
92167,San Diego,CA,619,US
92168,San Diego,CA,619,US
92169,San Diego,CA,619,US
92170,San Diego,CA,619,US
92171,San Diego,CA,619,US
92172,San Diego,CA,619,US
92173,San Ysidro,CA,"6,19,858",US
92174,San Diego,CA,619,US
92175,San Diego,CA,619,US
92176,San Diego,CA,619,US
92177,San Diego,CA,619,US
92178,Coronado,CA,619,US
92179,San Diego,CA,619,US
92182,San Diego,CA,619,US
92184,San Diego,CA,619,US
92186,San Diego,CA,619,US
92187,San Diego,CA,619,US
92190,San Diego,CA,619,US
92191,San Diego,CA,619,US
92192,San Diego,CA,619,US
92193,San Diego,CA,619,US
92194,San Diego,CA,619,US
92195,San Diego,CA,619,US
92196,San Diego,CA,619,US
92197,San Diego,CA,619,US
92198,San Diego,CA,619,US
92199,San Diego,CA,858,US
92201,Indio,CA,760,US
92202,Indio,CA,760,US
92203,Indio,CA,760,US
92210,Indian Wells,CA,760,US
92211,Palm Desert,CA,760,US
92220,Banning,CA,"7,14,951",US
92222,Bard,CA,760,US
92223,Beaumont,CA,909,US
92225,Blythe,CA,760,US
92226,Blythe,CA,760,US
92227,Brawley,CA,760,US
92230,Cabazon,CA,909,US
92231,Calexico,CA,760,US
92232,Calexico,CA,760,US
92233,Calipatria,CA,760,US
92234,Cathedral City,CA,760,US
92235,Cathedral City,CA,760,US
92236,Coachella,CA,760,US
92239,Desert Center,CA,760,US
92240,Desert Hot Springs,CA,760,US
92241,Desert Hot Springs,CA,760,US
92242,Earp,CA,760,US
92243,El Centro,CA,"7,60,619",US
92244,El Centro,CA,760,US
92247,La Quinta,CA,760,US
92248,La Quinta,CA,760,US
92249,Heber,CA,760,US
92250,Holtville,CA,760,US
92251,Imperial,CA,760,US
92252,Joshua Tree,CA,760,US
92253,La Quinta,CA,760,US
92254,Mecca,CA,760,US
92255,Palm Desert,CA,760,US
92256,Morongo Valley,CA,760,US
92257,Niland,CA,760,US
92258,North Palm Springs,CA,760,US
92259,Ocotillo,CA,760,US
92260,Palm Desert,CA,760,US
92261,Palm Desert,CA,760,US
92262,Palm Springs,CA,"2,13,760",US
92263,Palm Springs,CA,760,US
92264,Palm Springs,CA,760,US
92266,Palo Verde,CA,760,US
92267,Parker Dam,CA,760,US
92268,Pioneertown,CA,760,US
92270,Rancho Mirage,CA,760,US
92273,Seeley,CA,760,US
92274,Thermal,CA,760,US
92275,Salton City,CA,760,US
92276,Thousand Palms,CA,760,US
92277,Twentynine Palms,CA,760,US
92278,Twentynine Palms,CA,760,US
92280,Vidal,CA,,US
92281,Westmorland,CA,760,US
92282,Whitewater,CA,,US
92283,Winterhaven,CA,760,US
92284,Yucca Valley,CA,760,US
92285,Landers,CA,760,US
92286,Yucca Valley,CA,760,US
92292,Palm Springs,CA,760,US
92301,Adelanto,CA,760,US
92304,Amboy,CA,760,US
92305,Angelus Oaks,CA,909,US
92307,Apple Valley,CA,760,US
92308,Apple Valley,CA,760,US
92309,Baker,CA,760,US
92310,Fort Irwin,CA,760,US
92311,Barstow,CA,760,US
92312,Barstow,CA,760,US
92313,Grand Terrace,CA,"9,09,951",US
92314,Big Bear City,CA,909,US
92315,Big Bear Lake,CA,909,US
92316,Bloomington,CA,"9,09,714",US
92317,Blue Jay,CA,909,US
92318,Bryn Mawr,CA,,US
92320,Calimesa,CA,909,US
92321,Cedar Glen,CA,909,US
92322,Cedarpines Park,CA,909,US
92323,Cima,CA,,US
92324,Colton,CA,"9,09,714",US
92325,Crestline,CA,909,US
92326,Crest Park,CA,,US
92327,Daggett,CA,760,US
92328,Death Valley,CA,760,US
92329,Phelan,CA,760,US
92331,Fontana,CA,909,US
92332,Essex,CA,,US
92333,Fawnskin,CA,909,US
92334,Fontana,CA,909,US
92335,Fontana,CA,909,US
92336,Fontana,CA,909,US
92337,Fontana,CA,"9,09,714",US
92338,Ludlow,CA,760,US
92339,Forest Falls,CA,909,US
92340,Hesperia,CA,760,US
92341,Green Valley Lake,CA,909,US
92342,Helendale,CA,760,US
92344,Hesperia,CA,760,US
92345,Hesperia,CA,"7,60,714",US
92346,Highland,CA,909,US
92347,Hinkley,CA,760,US
92350,Loma Linda,CA,909,US
92352,Lake Arrowhead,CA,909,US
92354,Loma Linda,CA,909,US
92356,Lucerne Valley,CA,760,US
92357,Loma Linda,CA,909,US
92358,Lytle Creek,CA,909,US
92359,Mentone,CA,909,US
92363,Needles,CA,760,US
92364,Nipton,CA,760,US
92365,Newberry Springs,CA,760,US
92366,Mountain Pass,CA,760,US
92368,Oro Grande,CA,760,US
92369,Patton,CA,,US
92371,Phelan,CA,760,US
92372,Pinon Hills,CA,"7,60,661",US
92373,Redlands,CA,909,US
92374,Redlands,CA,"9,09,626",US
92375,Redlands,CA,909,US
92376,Rialto,CA,909,US
92377,Rialto,CA,909,US
92378,Rimforest,CA,909,US
92382,Running Springs,CA,909,US
92384,Shoshone,CA,760,US
92385,Skyforest,CA,,US
92386,Sugarloaf,CA,909,US
92389,Tecopa,CA,760,US
92391,Twin Peaks,CA,909,US
92392,Victorville,CA,760,US
92393,Victorville,CA,760,US
92394,Victorville,CA,760,US
92395,Victorville,CA,909,US
92397,Wrightwood,CA,760,US
92398,Yermo,CA,760,US
92399,Yucaipa,CA,909,US
92401,San Bernardino,CA,909,US
92402,San Bernardino,CA,"9,09,714",US
92403,San Bernardino,CA,"9,09,951",US
92404,San Bernardino,CA,909,US
92405,San Bernardino,CA,909,US
92406,San Bernardino,CA,909,US
92407,San Bernardino,CA,"9,09,760",US
92408,San Bernardino,CA,909,US
92410,San Bernardino,CA,"9,09,951",US
92411,San Bernardino,CA,909,US
92412,San Bernardino,CA,909,US
92413,San Bernardino,CA,909,US
92414,San Bernardino,CA,909,US
92415,San Bernardino,CA,"9,09,760",US
92418,San Bernardino,CA,909,US
92423,San Bernardino,CA,909,US
92424,San Bernardino,CA,909,US
92427,San Bernardino,CA,909,US
92501,Riverside,CA,"9,09,951",US
92502,Riverside,CA,951,US
92503,Riverside,CA,"9,09,951",US
92504,Riverside,CA,"90,96,19,951",US
92505,Riverside,CA,909,US
92506,Riverside,CA,"9,09,951",US
92507,Riverside,CA,"9,09,951",US
92508,Riverside,CA,909,US
92509,Riverside,CA,909,US
92513,Riverside,CA,951,US
92514,Riverside,CA,951,US
92515,Riverside,CA,951,US
92516,Riverside,CA,951,US
92517,Riverside,CA,951,US
92518,March Air Reserve Base,CA,951,US
92519,Riverside,CA,951,US
92521,Riverside,CA,951,US
92522,Riverside,CA,951,US
92530,Lake Elsinore,CA,"7,14,951",US
92531,Lake Elsinore,CA,951,US
92532,Lake Elsinore,CA,"9,09,951",US
92536,Aguanga,CA,,US
92539,Anza,CA,"7,60,951",US
92543,Hemet,CA,951,US
92544,Hemet,CA,"9,09,951",US
92545,Hemet,CA,"9,09,951",US
92546,Hemet,CA,951,US
92548,Homeland,CA,"9,09,951",US
92549,Idyllwild,CA,951,US
92551,Moreno Valley,CA,909,US
92552,Moreno Valley,CA,909,US
92553,Moreno Valley,CA,951,US
92554,Moreno Valley,CA,951,US
92555,Moreno Valley,CA,951,US
92556,Moreno Valley,CA,951,US
92557,Moreno Valley,CA,951,US
92561,Mountain Center,CA,760,US
92562,Murrieta,CA,"7,14,951",US
92563,Murrieta,CA,"9,09,951",US
92564,Murrieta,CA,951,US
92567,Nuevo,CA,"9,09,951",US
92570,Perris,CA,"9,09,951",US
92571,Perris,CA,"9,51,909",US
92572,Perris,CA,909,US
92581,San Jacinto,CA,951,US
92582,San Jacinto,CA,951,US
92583,San Jacinto,CA,909,US
92584,Menifee,CA,"9,09,951",US
92585,Sun City,CA,"32,33,10,71,49,09,951",US
92586,Sun City,CA,951,US
92587,Sun City,CA,"9,09,951",US
92589,Temecula,CA,951,US
92590,Temecula,CA,"9,09,951",US
92591,Temecula,CA,"9,09,951",US
92592,Temecula,CA,"90,97,60,951",US
92593,Temecula,CA,909,US
92595,Wildomar,CA,"9,09,951",US
92596,Winchester,CA,,US
92599,Perris,CA,951,US
92602,Irvine,CA,"9,49,714",US
92603,Irvine,CA,949,US
92604,Irvine,CA,"9,49,71,47,60,213",US
92605,Huntington Beach,CA,"7,14,949",US
92606,Irvine,CA,"56,29,49,714",US
92607,Laguna Niguel,CA,949,US
92609,El Toro,CA,949,US
92610,Foothill Ranch,CA,949,US
92612,Irvine,CA,"51,09,49,714",US
92614,Irvine,CA,"71,49,49,80,52,13,619",US
92615,Huntington Beach,CA,714,US
92616,Irvine,CA,"7,14,949",US
92617,Irvine,CA,714,US
92618,Irvine,CA,"7,14,949",US
92619,Irvine,CA,949,US
92620,Irvine,CA,"9,49,714",US
92623,Irvine,CA,"7,14,949",US
92624,Capistrano Beach,CA,"9,49,714",US
92625,Corona Del Mar,CA,"5,62,94,97,14,310",US
92626,Costa Mesa,CA,"56,27,14,94,96,26,21,30,00,000",US
92627,Costa Mesa,CA,"9,49,714",US
92628,Costa Mesa,CA,714,US
92629,Dana Point,CA,949,US
92630,Lake Forest,CA,"9,49,714",US
92637,Laguna Woods,CA,949,US
92646,Huntington Beach,CA,"71,45,62,949",US
92647,Huntington Beach,CA,"7,14,949",US
92648,Huntington Beach,CA,"7,14,76,09,49,562",US
92649,Huntington Beach,CA,"7,14,562",US
92650,East Irvine,CA,,US
92651,Laguna Beach,CA,"71,49,49,310",US
92652,Laguna Beach,CA,"71,49,49,760",US
92653,Laguna Hills,CA,"71,49,49,619",US
92654,Laguna Hills,CA,949,US
92655,Midway City,CA,714,US
92656,Aliso Viejo,CA,"9,49,714",US
92657,Newport Coast,CA,949,US
92658,Newport Beach,CA,"9,49,714",US
92659,Newport Beach,CA,949,US
92660,Newport Beach,CA,"6,50,71,49,49,213",US
92661,Newport Beach,CA,"7,14,949",US
92662,Newport Beach,CA,"7,14,949",US
92663,Newport Beach,CA,"94,97,14,415",US
92672,San Clemente,CA,"9,49,714",US
92673,San Clemente,CA,949,US
92674,San Clemente,CA,949,US
92675,San Juan Capistrano,CA,"9,49,714",US
92676,Silverado,CA,714,US
92677,Laguna Niguel,CA,"94,97,14,310",US
92678,Trabuco Canyon,CA,949,US
92679,Trabuco Canyon,CA,"9,49,714",US
92683,Westminster,CA,"62,67,14,31,05,62,949",US
92684,Westminster,CA,714,US
92685,Westminster,CA,714,US
92688,Rancho Santa Margarita,CA,"9,49,714",US
92690,Mission Viejo,CA,949,US
92691,Mission Viejo,CA,"9,49,714",US
92692,Mission Viejo,CA,"94,93,10,714",US
92693,San Juan Capistrano,CA,949,US
92694,Ladera Ranch,CA,949,US
92697,Irvine,CA,949,US
92698,Aliso Viejo,CA,949,US
92701,Santa Ana,CA,"71,49,49,562",US
92702,Santa Ana,CA,714,US
92703,Santa Ana,CA,714,US
92704,Santa Ana,CA,"71,42,13,949",US
92705,Santa Ana,CA,"71,42,13,94,96,19,310",US
92706,Santa Ana,CA,"7,14,949",US
92707,Santa Ana,CA,"71,43,10,949",US
92708,Fountain Valley,CA,"71,46,26,949",US
92709,Irvine,CA,714,US
92710,Irvine,CA,714,US
92711,Santa Ana,CA,714,US
92712,Santa Ana,CA,714,US
92725,Santa Ana,CA,714,US
92728,Fountain Valley,CA,714,US
92735,Santa Ana,CA,714,US
92780,Tustin,CA,"7,14,90,96,61,94,98,18,000",US
92781,Tustin,CA,714,US
92782,Tustin,CA,714,US
92799,Santa Ana,CA,"71,45,62,949",US
92801,Anaheim,CA,"90,97,14,949",US
92802,Anaheim,CA,"7,14,56,29,09,949",US
92803,Anaheim,CA,714,US
92804,Anaheim,CA,"71,45,62,909",US
92805,Anaheim,CA,"71,43,10,56,26,26,949",US
92806,Anaheim,CA,"7,14,62,69,49,90,96,19,000",US
92807,Anaheim,CA,714,US
92808,Anaheim,CA,714,US
92809,Anaheim,CA,714,US
92811,Atwood,CA,714,US
92812,Anaheim,CA,714,US
92814,Anaheim,CA,714,US
92815,Anaheim,CA,714,US
92816,Anaheim,CA,714,US
92817,Anaheim,CA,714,US
92821,Brea,CA,"71,45,62,909",US
92822,Brea,CA,"8,18,714",US
92823,Brea,CA,714,US
92825,Anaheim,CA,714,US
92831,Fullerton,CA,"7,14,408",US
92832,Fullerton,CA,714,US
92833,Fullerton,CA,"71,43,10,562",US
92834,Fullerton,CA,714,US
92835,Fullerton,CA,714,US
92836,Fullerton,CA,714,US
92837,Fullerton,CA,714,US
92838,Fullerton,CA,714,US
92840,Garden Grove,CA,714,US
92841,Garden Grove,CA,"7,14,949",US
92842,Garden Grove,CA,714,US
92843,Garden Grove,CA,"5,10,714",US
92844,Garden Grove,CA,"7,14,310",US
92845,Garden Grove,CA,"3,10,714",US
92846,Garden Grove,CA,626,US
92850,Anaheim,CA,714,US
92856,Orange,CA,714,US
92857,Orange,CA,714,US
92859,Orange,CA,714,US
92860,Norco,CA,714,US
92861,Villa Park,CA,714,US
92862,Orange,CA,714,US
92863,Orange,CA,714,US
92864,Orange,CA,714,US
92865,Orange,CA,714,US
92866,Orange,CA,714,US
92867,Orange,CA,"7,14,949",US
92868,Orange,CA,"7,14,31,02,13,949",US
92869,Orange,CA,714,US
92870,Placentia,CA,"71,46,26,323",US
92871,Placentia,CA,714,US
92877,Corona,CA,"9,49,909",US
92878,Corona,CA,951,US
92879,Corona,CA,"90,97,14,951",US
92880,Corona,CA,"7,60,714",US
92881,Corona,CA,"6,19,71,49,51,909",US
92882,Corona,CA,"71,49,09,951",US
92883,Corona,CA,"6,26,951",US
92885,Yorba Linda,CA,714,US
92886,Yorba Linda,CA,714,US
92887,Yorba Linda,CA,714,US
92899,Anaheim,CA,"7,14,909",US
93001,Ventura,CA,"8,05,818",US
93002,Ventura,CA,805,US
93003,Ventura,CA,"6,61,805",US
93004,Ventura,CA,805,US
93005,Ventura,CA,805,US
93006,Ventura,CA,805,US
93007,Ventura,CA,805,US
93009,Ventura,CA,805,US
93010,Camarillo,CA,"8,05,661",US
93011,Camarillo,CA,805,US
93012,Camarillo,CA,805,US
93013,Carpinteria,CA,805,US
93014,Carpinteria,CA,805,US
93015,Fillmore,CA,805,US
93016,Fillmore,CA,805,US
93020,Moorpark,CA,805,US
93021,Moorpark,CA,"8,05,949",US
93022,Oak View,CA,805,US
93023,Ojai,CA,805,US
93024,Ojai,CA,805,US
93030,Oxnard,CA,"80,59,49,213",US
93031,Oxnard,CA,805,US
93032,Oxnard,CA,805,US
93033,Oxnard,CA,805,US
93034,Oxnard,CA,805,US
93035,Oxnard,CA,805,US
93036,Oxnard,CA,805,US
93040,Piru,CA,805,US
93041,Port Hueneme,CA,805,US
93042,Point Mugu Nawc,CA,805,US
93043,Port Hueneme Cbc Base,CA,805,US
93044,Port Hueneme,CA,805,US
93060,Santa Paula,CA,805,US
93061,Santa Paula,CA,818,US
93062,Simi Valley,CA,805,US
93063,Simi Valley,CA,805,US
93064,Brandeis,CA,805,US
93065,Simi Valley,CA,"53,08,05,714",US
93066,Somis,CA,805,US
93067,Summerland,CA,805,US
93093,Simi Valley,CA,805,US
93094,Simi Valley,CA,805,US
93099,Simi Valley,CA,805,US
93101,Santa Barbara,CA,805,US
93102,Santa Barbara,CA,805,US
93103,Santa Barbara,CA,805,US
93105,Santa Barbara,CA,805,US
93106,Santa Barbara,CA,805,US
93107,Santa Barbara,CA,805,US
93108,Santa Barbara,CA,805,US
93109,Santa Barbara,CA,805,US
93110,Santa Barbara,CA,805,US
93111,Santa Barbara,CA,"7,02,805",US
93116,Goleta,CA,805,US
93117,Goleta,CA,805,US
93118,Goleta,CA,805,US
93120,Santa Barbara,CA,805,US
93121,Santa Barbara,CA,805,US
93130,Santa Barbara,CA,805,US
93140,Santa Barbara,CA,805,US
93150,Santa Barbara,CA,805,US
93160,Santa Barbara,CA,805,US
93190,Santa Barbara,CA,805,US
93199,Goleta,CA,805,US
93201,Alpaugh,CA,559,US
93202,Armona,CA,559,US
93203,Arvin,CA,661,US
93204,Avenal,CA,559,US
93205,Bodfish,CA,"7,60,661",US
93206,Buttonwillow,CA,661,US
93207,California Hot Springs,CA,661,US
93208,Camp Nelson,CA,559,US
93210,Coalinga,CA,559,US
93212,Corcoran,CA,559,US
93215,Delano,CA,"8,05,661",US
93216,Delano,CA,661,US
93218,Ducor,CA,559,US
93219,Earlimart,CA,"6,61,559",US
93220,Edison,CA,,US
93221,Exeter,CA,559,US
93222,Pine Mountain Club,CA,661,US
93223,Farmersville,CA,559,US
93224,Fellows,CA,661,US
93225,Frazier Park,CA,661,US
93226,Glennville,CA,661,US
93227,Goshen,CA,559,US
93230,Hanford,CA,"2,09,559",US
93232,Hanford,CA,559,US
93234,Huron,CA,559,US
93235,Ivanhoe,CA,559,US
93237,Kaweah,CA,559,US
93238,Kernville,CA,760,US
93239,Kettleman City,CA,559,US
93240,Lake Isabella,CA,760,US
93241,Lamont,CA,661,US
93242,Laton,CA,559,US
93243,Lebec,CA,661,US
93244,Lemon Cove,CA,559,US
93245,Lemoore,CA,559,US
93246,Lemoore,CA,559,US
93247,Lindsay,CA,"5,59,805",US
93249,Lost Hills,CA,661,US
93250,Mc Farland,CA,661,US
93251,Mc Kittrick,CA,"6,61,805",US
93252,Maricopa,CA,661,US
93254,New Cuyama,CA,661,US
93255,Onyx,CA,"7,60,559",US
93256,Pixley,CA,"5,59,661",US
93257,Porterville,CA,559,US
93258,Porterville,CA,559,US
93260,Posey,CA,661,US
93261,Richgrove,CA,661,US
93262,Sequoia National Park,CA,559,US
93263,Shafter,CA,661,US
93265,Springville,CA,559,US
93266,Stratford,CA,559,US
93267,Strathmore,CA,"5,59,661",US
93268,Taft,CA,661,US
93270,Terra Bella,CA,"5,59,209",US
93271,Three Rivers,CA,559,US
93272,Tipton,CA,559,US
93274,Tulare,CA,"5,59,209",US
93275,Tulare,CA,559,US
93276,Tupman,CA,,US
93277,Visalia,CA,559,US
93278,Visalia,CA,559,US
93279,Visalia,CA,559,US
93280,Wasco,CA,661,US
93282,Waukena,CA,559,US
93283,Weldon,CA,760,US
93285,Wofford Heights,CA,760,US
93286,Woodlake,CA,559,US
93287,Woody,CA,661,US
93290,Visalia,CA,559,US
93291,Visalia,CA,"5,59,209",US
93292,Visalia,CA,559,US
93301,Bakersfield,CA,"80,56,61,310",US
93302,Bakersfield,CA,661,US
93303,Bakersfield,CA,661,US
93304,Bakersfield,CA,"6,61,805",US
93305,Bakersfield,CA,"6,61,805",US
93306,Bakersfield,CA,"6,61,805",US
93307,Bakersfield,CA,"6,61,805",US
93308,Bakersfield,CA,"66,18,05,909",US
93309,Bakersfield,CA,"66,18,05,408",US
93311,Bakersfield,CA,"8,05,661",US
93312,Bakersfield,CA,"6,61,805",US
93313,Bakersfield,CA,"8,05,661",US
93314,Bakersfield,CA,"6,61,805",US
93380,Bakersfield,CA,661,US
93381,Bakersfield,CA,661,US
93382,Bakersfield,CA,661,US
93383,Bakersfield,CA,661,US
93384,Bakersfield,CA,661,US
93385,Bakersfield,CA,661,US
93386,Bakersfield,CA,661,US
93387,Bakersfield,CA,805,US
93388,Bakersfield,CA,661,US
93389,Bakersfield,CA,661,US
93390,Bakersfield,CA,661,US
93401,San Luis Obispo,CA,"8,05,858",US
93402,Los Osos,CA,805,US
93403,San Luis Obispo,CA,805,US
93405,San Luis Obispo,CA,805,US
93406,San Luis Obispo,CA,805,US
93407,San Luis Obispo,CA,805,US
93408,San Luis Obispo,CA,805,US
93409,San Luis Obispo,CA,805,US
93410,San Luis Obispo,CA,805,US
93412,Los Osos,CA,805,US
93420,Arroyo Grande,CA,805,US
93421,Arroyo Grande,CA,805,US
93422,Atascadero,CA,"6,50,80,59,16,408",US
93423,Atascadero,CA,"6,61,805",US
93424,Avila Beach,CA,805,US
93426,Bradley,CA,805,US
93427,Buellton,CA,805,US
93428,Cambria,CA,805,US
93429,Casmalia,CA,,US
93430,Cayucos,CA,805,US
93432,Creston,CA,805,US
93433,Grover Beach,CA,"6,26,805",US
93434,Guadalupe,CA,805,US
93435,Harmony,CA,,US
93436,Lompoc,CA,805,US
93437,Lompoc,CA,"8,05,661",US
93438,Lompoc,CA,805,US
93440,Los Alamos,CA,805,US
93441,Los Olivos,CA,805,US
93442,Morro Bay,CA,805,US
93443,Morro Bay,CA,805,US
93444,Nipomo,CA,805,US
93445,Oceano,CA,805,US
93446,Paso Robles,CA,805,US
93447,Paso Robles,CA,805,US
93448,Pismo Beach,CA,805,US
93449,Pismo Beach,CA,805,US
93450,San Ardo,CA,"8,31,805",US
93451,San Miguel,CA,805,US
93452,San Simeon,CA,805,US
93453,Santa Margarita,CA,805,US
93454,Santa Maria,CA,805,US
93455,Santa Maria,CA,805,US
93456,Santa Maria,CA,805,US
93457,Santa Maria,CA,805,US
93458,Santa Maria,CA,805,US
93460,Santa Ynez,CA,805,US
93461,Shandon,CA,805,US
93463,Solvang,CA,805,US
93464,Solvang,CA,805,US
93465,Templeton,CA,805,US
93475,Oceano,CA,805,US
93483,Grover Beach,CA,805,US
93501,Mojave,CA,"6,61,760",US
93502,Mojave,CA,661,US
93504,California City,CA,760,US
93505,California City,CA,"7,60,661",US
93510,Acton,CA,661,US
93512,Benton,CA,760,US
93513,Big Pine,CA,760,US
93514,Bishop,CA,760,US
93515,Bishop,CA,760,US
93516,Boron,CA,760,US
93517,Bridgeport,CA,760,US
93518,Caliente,CA,661,US
93519,Cantil,CA,,US
93522,Darwin,CA,760,US
93523,Edwards,CA,"6,61,760",US
93524,Edwards,CA,661,US
93526,Independence,CA,760,US
93527,Inyokern,CA,760,US
93528,Johannesburg,CA,760,US
93529,June Lake,CA,760,US
93530,Keeler,CA,760,US
93531,Keene,CA,661,US
93532,Lake Hughes,CA,661,US
93534,Lancaster,CA,"2,13,661",US
93535,Lancaster,CA,"6,61,818",US
93536,Lancaster,CA,661,US
93539,Lancaster,CA,818,US
93541,Lee Vining,CA,760,US
93542,Little Lake,CA,760,US
93543,Littlerock,CA,661,US
93544,Llano,CA,661,US
93545,Lone Pine,CA,760,US
93546,Mammoth Lakes,CA,760,US
93549,Olancha,CA,760,US
93550,Palmdale,CA,"66,15,62,310",US
93551,Palmdale,CA,"66,13,23,805",US
93552,Palmdale,CA,"66,18,05,818",US
93553,Pearblossom,CA,661,US
93554,Randsburg,CA,760,US
93555,Ridgecrest,CA,760,US
93556,Ridgecrest,CA,760,US
93558,Red Mountain,CA,760,US
93560,Rosamond,CA,661,US
93561,Tehachapi,CA,"6,61,909",US
93562,Trona,CA,760,US
93563,Valyermo,CA,661,US
93581,Tehachapi,CA,661,US
93584,Lancaster,CA,661,US
93586,Lancaster,CA,661,US
93590,Palmdale,CA,661,US
93591,Palmdale,CA,661,US
93592,Trona,CA,760,US
93596,Boron,CA,760,US
93599,Palmdale,CA,661,US
93601,Ahwahnee,CA,559,US
93602,Auberry,CA,559,US
93603,Badger,CA,559,US
93604,Bass Lake,CA,559,US
93605,Big Creek,CA,559,US
93606,Biola,CA,559,US
93607,Burrel,CA,559,US
93608,Cantua Creek,CA,559,US
93609,Caruthers,CA,559,US
93610,Chowchilla,CA,"5,59,209",US
93611,Clovis,CA,"2,09,559",US
93612,Clovis,CA,559,US
93613,Clovis,CA,559,US
93614,Coarsegold,CA,559,US
93615,Cutler,CA,559,US
93616,Del Rey,CA,559,US
93618,Dinuba,CA,559,US
93619,Clovis,CA,559,US
93620,Dos Palos,CA,209,US
93621,Dunlap,CA,559,US
93622,Firebaugh,CA,"5,59,209",US
93623,Fish Camp,CA,559,US
93624,Five Points,CA,559,US
93625,Fowler,CA,559,US
93626,Friant,CA,559,US
93627,Helm,CA,559,US
93628,Hume,CA,559,US
93630,Kerman,CA,559,US
93631,Kingsburg,CA,559,US
93633,Kings Canyon National Pk,CA,559,US
93634,Lakeshore,CA,559,US
93635,Los Banos,CA,209,US
93636,Madera,CA,559,US
93637,Madera,CA,559,US
93638,Madera,CA,559,US
93639,Madera,CA,559,US
93640,Mendota,CA,559,US
93641,Miramonte,CA,559,US
93642,Mono Hot Springs,CA,559,US
93643,North Fork,CA,"5,59,209",US
93644,Oakhurst,CA,"5,59,209",US
93645,O Neals,CA,559,US
93646,Orange Cove,CA,559,US
93647,Orosi,CA,559,US
93648,Parlier,CA,559,US
93649,Piedra,CA,559,US
93650,Fresno,CA,559,US
93651,Prather,CA,559,US
93652,Raisin City,CA,559,US
93653,Raymond,CA,559,US
93654,Reedley,CA,559,US
93656,Riverdale,CA,559,US
93657,Sanger,CA,559,US
93660,San Joaquin,CA,559,US
93661,Santa Rita Park,CA,209,US
93662,Selma,CA,559,US
93664,Shaver Lake,CA,559,US
93665,South Dos Palos,CA,209,US
93666,Sultana,CA,559,US
93667,Tollhouse,CA,559,US
93668,Tranquillity,CA,559,US
93669,Wishon,CA,559,US
93670,Yettem,CA,559,US
93673,Traver,CA,559,US
93675,Squaw Valley,CA,559,US
93701,Fresno,CA,"5,59,209",US
93702,Fresno,CA,559,US
93703,Fresno,CA,559,US
93704,Fresno,CA,"2,09,559",US
93705,Fresno,CA,559,US
93706,Fresno,CA,559,US
93707,Fresno,CA,559,US
93708,Fresno,CA,559,US
93709,Fresno,CA,559,US
93710,Fresno,CA,"2,09,559",US
93711,Fresno,CA,559,US
93712,Fresno,CA,559,US
93714,Fresno,CA,559,US
93715,Fresno,CA,"2,09,559",US
93716,Fresno,CA,559,US
93717,Fresno,CA,559,US
93718,Fresno,CA,559,US
93720,Fresno,CA,"2,09,559",US
93721,Fresno,CA,"5,59,209",US
93722,Fresno,CA,559,US
93723,Fresno,CA,559,US
93724,Fresno,CA,559,US
93725,Fresno,CA,559,US
93726,Fresno,CA,"5,59,209",US
93727,Fresno,CA,559,US
93728,Fresno,CA,"2,09,559",US
93729,Fresno,CA,559,US
93730,Fresno,CA,559,US
93737,Fresno,CA,559,US
93740,Fresno,CA,559,US
93741,Fresno,CA,559,US
93744,Fresno,CA,559,US
93745,Fresno,CA,559,US
93747,Fresno,CA,559,US
93750,Fresno,CA,559,US
93755,Fresno,CA,559,US
93760,Fresno,CA,559,US
93761,Fresno,CA,559,US
93764,Fresno,CA,559,US
93765,Fresno,CA,559,US
93771,Fresno,CA,559,US
93772,Fresno,CA,559,US
93773,Fresno,CA,559,US
93774,Fresno,CA,559,US
93775,Fresno,CA,559,US
93776,Fresno,CA,559,US
93777,Fresno,CA,559,US
93778,Fresno,CA,559,US
93779,Fresno,CA,559,US
93780,Fresno,CA,559,US
93784,Fresno,CA,559,US
93786,Fresno,CA,559,US
93790,Fresno,CA,559,US
93791,Fresno,CA,559,US
93792,Fresno,CA,559,US
93793,Fresno,CA,559,US
93794,Fresno,CA,559,US
93844,Fresno,CA,559,US
93888,Fresno,CA,559,US
93901,Salinas,CA,831,US
93902,Salinas,CA,831,US
93905,Salinas,CA,"8,31,408",US
93906,Salinas,CA,"8,31,408",US
93907,Salinas,CA,831,US
93908,Salinas,CA,831,US
93912,Salinas,CA,209,US
93915,Salinas,CA,831,US
93920,Big Sur,CA,831,US
93921,Carmel By The Sea,CA,831,US
93922,Carmel,CA,831,US
93923,Carmel,CA,"8,31,530",US
93924,Carmel Valley,CA,831,US
93925,Chualar,CA,831,US
93926,Gonzales,CA,831,US
93927,Greenfield,CA,831,US
93928,Jolon,CA,831,US
93930,King City,CA,831,US
93932,Lockwood,CA,831,US
93933,Marina,CA,831,US
93940,Monterey,CA,"4,08,831",US
93942,Monterey,CA,831,US
93943,Monterey,CA,831,US
93944,Monterey,CA,831,US
93950,Pacific Grove,CA,831,US
93953,Pebble Beach,CA,831,US
93954,San Lucas,CA,831,US
93955,Seaside,CA,831,US
93960,Soledad,CA,"4,08,831",US
93962,Spreckels,CA,831,US
94002,Belmont,CA,"6,50,415",US
94005,Brisbane,CA,"4,15,650",US
94010,Burlingame,CA,"4,15,650",US
94011,Burlingame,CA,650,US
94013,Daly City,CA,650,US
94014,Daly City,CA,"41,56,50,510",US
94015,Daly City,CA,"6,50,415",US
94016,Daly City,CA,650,US
94017,Daly City,CA,650,US
94018,El Granada,CA,650,US
94019,Half Moon Bay,CA,"6,50,415",US
94020,La Honda,CA,650,US
94021,Loma Mar,CA,650,US
94022,Los Altos,CA,"6,50,408",US
94023,Los Altos,CA,650,US
94024,Los Altos,CA,"65,09,16,408",US
94025,Menlo Park,CA,"6,50,51,04,08,415",US
94026,Menlo Park,CA,650,US
94027,Atherton,CA,650,US
94028,Portola Valley,CA,"4,15,650",US
94030,Millbrae,CA,"6,50,408",US
94035,Mountain View,CA,650,US
94037,Montara,CA,650,US
94038,Moss Beach,CA,650,US
94039,Mountain View,CA,650,US
94040,Mountain View,CA,"6,50,408",US
94041,Mountain View,CA,650,US
94042,Mountain View,CA,650,US
94043,Mountain View,CA,"6,50,408",US
94044,Pacifica,CA,"6,50,415",US
94060,Pescadero,CA,650,US
94061,Redwood City,CA,"65,04,15,408",US
94062,Redwood City,CA,650,US
94063,Redwood City,CA,650,US
94064,Redwood City,CA,650,US
94065,Redwood City,CA,650,US
94066,San Bruno,CA,"65,04,15,408",US
94070,San Carlos,CA,"65,03,10,41,59,49,510",US
94074,San Gregorio,CA,650,US
94080,South San Francisco,CA,"65,04,15,925",US
94083,South San Francisco,CA,650,US
94085,Sunnyvale,CA,"40,86,50,510",US
94086,Sunnyvale,CA,"40,86,50,510",US
94087,Sunnyvale,CA,"40,86,50,949",US
94088,Sunnyvale,CA,408,US
94089,Sunnyvale,CA,"4,08,650",US
94101,San Francisco,CA,415,US
94102,San Francisco,CA,"4,15,61,96,50,510",US
94103,San Francisco,CA,"4,15,51,06,50,707",US
94104,San Francisco,CA,"4,15,92,55,10,83,16,50,000",US
94105,San Francisco,CA,"4,15,51,06,50,310",US
94106,San Francisco,CA,415,US
94107,San Francisco,CA,"4,15,65,04,08,510",US
94108,San Francisco,CA,"4,15,92,56,50,510",US
94109,San Francisco,CA,"41,55,10,650",US
94110,San Francisco,CA,"4,15,562",US
94111,San Francisco,CA,"4,15,51,08,58,650",US
94112,San Francisco,CA,"4,15,650",US
94114,San Francisco,CA,"41,55,10,916",US
94115,San Francisco,CA,"4,15,510",US
94116,San Francisco,CA,415,US
94117,San Francisco,CA,"4,15,510",US
94118,San Francisco,CA,"4,15,510",US
94119,San Francisco,CA,415,US
94120,San Francisco,CA,415,US
94121,San Francisco,CA,"4,15,858",US
94122,San Francisco,CA,"4,15,619",US
94123,San Francisco,CA,"4,15,707",US
94124,San Francisco,CA,"4,15,510",US
94125,San Francisco,CA,415,US
94126,San Francisco,CA,415,US
94127,San Francisco,CA,"4,15,650",US
94128,San Francisco,CA,650,US
94129,San Francisco,CA,415,US
94130,San Francisco,CA,415,US
94131,San Francisco,CA,"4,15,650",US
94132,San Francisco,CA,415,US
94133,San Francisco,CA,"41,59,25,408",US
94134,San Francisco,CA,"5,10,415",US
94135,San Francisco,CA,415,US
94136,San Francisco,CA,415,US
94137,San Francisco,CA,415,US
94138,San Francisco,CA,415,US
94139,San Francisco,CA,415,US
94140,San Francisco,CA,415,US
94141,San Francisco,CA,415,US
94142,San Francisco,CA,415,US
94143,San Francisco,CA,415,US
94144,San Francisco,CA,415,US
94145,San Francisco,CA,415,US
94146,San Francisco,CA,415,US
94147,San Francisco,CA,415,US
94150,San Francisco,CA,415,US
94151,San Francisco,CA,415,US
94152,San Francisco,CA,415,US
94153,San Francisco,CA,415,US
94154,San Francisco,CA,415,US
94155,San Francisco,CA,415,US
94156,San Francisco,CA,415,US
94158,San Francisco,CA,415,US
94159,San Francisco,CA,415,US
94160,San Francisco,CA,415,US
94161,San Francisco,CA,415,US
94162,San Francisco,CA,415,US
94163,San Francisco,CA,415,US
94164,San Francisco,CA,415,US
94171,San Francisco,CA,415,US
94172,San Francisco,CA,415,US
94175,San Francisco,CA,415,US
94177,San Francisco,CA,415,US
94188,San Francisco,CA,415,US
94199,San Francisco,CA,415,US
94203,Sacramento,CA,916,US
94204,Sacramento,CA,916,US
94205,Sacramento,CA,916,US
94206,Sacramento,CA,916,US
94207,Sacramento,CA,916,US
94208,Sacramento,CA,916,US
94209,Sacramento,CA,916,US
94211,Sacramento,CA,916,US
94229,Sacramento,CA,916,US
94230,Sacramento,CA,916,US
94232,Sacramento,CA,916,US
94234,Sacramento,CA,916,US
94235,Sacramento,CA,916,US
94236,Sacramento,CA,916,US
94237,Sacramento,CA,916,US
94239,Sacramento,CA,916,US
94240,Sacramento,CA,916,US
94244,Sacramento,CA,916,US
94245,Sacramento,CA,916,US
94246,Sacramento,CA,916,US
94247,Sacramento,CA,916,US
94248,Sacramento,CA,916,US
94249,Sacramento,CA,916,US
94250,Sacramento,CA,916,US
94252,Sacramento,CA,916,US
94254,Sacramento,CA,916,US
94256,Sacramento,CA,916,US
94257,Sacramento,CA,916,US
94258,Sacramento,CA,916,US
94259,Sacramento,CA,916,US
94261,Sacramento,CA,916,US
94262,Sacramento,CA,916,US
94263,Sacramento,CA,916,US
94267,Sacramento,CA,916,US
94268,Sacramento,CA,916,US
94269,Sacramento,CA,916,US
94271,Sacramento,CA,916,US
94273,Sacramento,CA,916,US
94274,Sacramento,CA,916,US
94277,Sacramento,CA,916,US
94278,Sacramento,CA,916,US
94279,Sacramento,CA,916,US
94280,Sacramento,CA,916,US
94282,Sacramento,CA,916,US
94283,Sacramento,CA,916,US
94284,Sacramento,CA,916,US
94285,Sacramento,CA,916,US
94286,Sacramento,CA,916,US
94287,Sacramento,CA,916,US
94288,Sacramento,CA,916,US
94289,Sacramento,CA,916,US
94290,Sacramento,CA,916,US
94291,Sacramento,CA,916,US
94293,Sacramento,CA,916,US
94294,Sacramento,CA,916,US
94295,Sacramento,CA,916,US
94296,Sacramento,CA,916,US
94297,Sacramento,CA,916,US
94298,Sacramento,CA,916,US
94299,Sacramento,CA,916,US
94301,Palo Alto,CA,"65,05,10,415",US
94302,Palo Alto,CA,"6,50,310",US
94303,Palo Alto,CA,"6,50,408",US
94304,Palo Alto,CA,650,US
94305,Stanford,CA,650,US
94306,Palo Alto,CA,"6,50,408",US
94309,Palo Alto,CA,650,US
94401,San Mateo,CA,"65,06,19,415",US
94402,San Mateo,CA,650,US
94403,San Mateo,CA,"65,04,08,415",US
94404,San Mateo,CA,"41,56,50,408",US
94497,San Mateo,CA,650,US
94501,Alameda,CA,"5,10,415",US
94502,Alameda,CA,510,US
94503,American Canyon,CA,707,US
94505,Discovery Bay,CA,,US
94506,Danville,CA,"9,25,510",US
94507,Alamo,CA,"5,10,925",US
94508,Angwin,CA,707,US
94509,Antioch,CA,"5,10,925",US
94510,Benicia,CA,"70,78,58,41,55,10,925",US
94511,Bethel Island,CA,925,US
94512,Birds Landing,CA,707,US
94513,Brentwood,CA,"9,25,916",US
94514,Byron,CA,925,US
94515,Calistoga,CA,707,US
94516,Canyon,CA,,US
94517,Clayton,CA,925,US
94518,Concord,CA,"9,25,510",US
94519,Concord,CA,"5,10,925",US
94520,Concord,CA,"51,09,25,70,74,15,209",US
94521,Concord,CA,"9,25,510",US
94522,Concord,CA,925,US
94523,Pleasant Hill,CA,"9,25,707",US
94524,Concord,CA,925,US
94525,Crockett,CA,510,US
94526,Danville,CA,"9,25,510",US
94527,Concord,CA,925,US
94528,Diablo,CA,925,US
94529,Concord,CA,925,US
94530,El Cerrito,CA,510,US
94531,Antioch,CA,"51,09,25,408",US
94533,Fairfield,CA,"5,10,707",US
94534,Fairfield,CA,707,US
94535,Travis Afb,CA,707,US
94536,Fremont,CA,"51,04,08,925",US
94537,Fremont,CA,510,US
94538,Fremont,CA,"5,10,70,74,08,925",US
94539,Fremont,CA,"5,10,65,04,15,92,52,09,000",US
94540,Hayward,CA,510,US
94541,Hayward,CA,"5,10,925",US
94542,Hayward,CA,510,US
94543,Hayward,CA,510,US
94544,Hayward,CA,"5,10,20,94,15,925",US
94545,Hayward,CA,"51,04,15,650",US
94546,Castro Valley,CA,"5,10,925",US
94547,Hercules,CA,"5,10,707",US
94548,Knightsen,CA,,US
94549,Lafayette,CA,"92,55,10,707",US
94550,Livermore,CA,"92,54,08,51,04,15,619",US
94551,Livermore,CA,925,US
94552,Castro Valley,CA,510,US
94553,Martinez,CA,"5,10,925",US
94555,Fremont,CA,510,US
94556,Moraga,CA,"70,79,25,949",US
94557,Hayward,CA,510,US
94558,Napa,CA,707,US
94559,Napa,CA,"7,07,510",US
94560,Newark,CA,"51,07,07,408",US
94561,Oakley,CA,925,US
94562,Oakville,CA,707,US
94563,Orinda,CA,"9,25,510",US
94564,Pinole,CA,510,US
94565,Pittsburg,CA,"92,55,10,415",US
94566,Pleasanton,CA,925,US
94567,Pope Valley,CA,707,US
94568,Dublin,CA,"92,55,10,831",US
94569,Port Costa,CA,510,US
94570,Moraga,CA,925,US
94571,Rio Vista,CA,"70,75,10,916",US
94572,Rodeo,CA,510,US
94573,Rutherford,CA,707,US
94574,Saint Helena,CA,707,US
94575,Moraga,CA,925,US
94576,Deer Park,CA,707,US
94577,San Leandro,CA,"5,10,92,58,58,949",US
94578,San Leandro,CA,510,US
94579,San Leandro,CA,510,US
94580,San Lorenzo,CA,510,US
94581,Napa,CA,707,US
94582,San Ramon,CA,925,US
94583,San Ramon,CA,"9,25,51,04,15,707",US
94585,Suisun City,CA,"7,07,925",US
94586,Sunol,CA,925,US
94587,Union City,CA,"51,03,10,92,54,08,916",US
94588,Pleasanton,CA,"9,25,510",US
94589,Vallejo,CA,707,US
94590,Vallejo,CA,"7,07,510",US
94591,Vallejo,CA,"70,79,16,510",US
94592,Vallejo,CA,707,US
94595,Walnut Creek,CA,"5,10,92,54,15,707",US
94596,Walnut Creek,CA,"5,10,92,54,15,619",US
94597,Walnut Creek,CA,925,US
94598,Walnut Creek,CA,"92,55,10,707",US
94599,Yountville,CA,707,US
94601,Oakland,CA,"51,04,15,408",US
94602,Oakland,CA,510,US
94603,Oakland,CA,"5,10,925",US
94604,Oakland,CA,510,US
94605,Oakland,CA,510,US
94606,Oakland,CA,510,US
94607,Oakland,CA,"51,05,59,41,59,25,650",US
94608,Emeryville,CA,"5,10,415",US
94609,Oakland,CA,"5,10,415",US
94610,Oakland,CA,"5,10,415",US
94611,Oakland,CA,"5,10,415",US
94612,Oakland,CA,"51,04,15,925",US
94613,Oakland,CA,510,US
94614,Oakland,CA,510,US
94615,Oakland,CA,"41,55,10,925",US
94617,Oakland,CA,"41,55,10,650",US
94618,Oakland,CA,510,US
94619,Oakland,CA,510,US
94620,Piedmont,CA,510,US
94621,Oakland,CA,"5,10,925",US
94622,Oakland,CA,510,US
94623,Oakland,CA,510,US
94624,Oakland,CA,510,US
94625,Oakland,CA,510,US
94649,Oakland,CA,510,US
94659,Oakland,CA,510,US
94660,Oakland,CA,510,US
94661,Oakland,CA,510,US
94662,Emeryville,CA,510,US
94666,Oakland,CA,510,US
94701,Berkeley,CA,510,US
94702,Berkeley,CA,510,US
94703,Berkeley,CA,"5,10,415",US
94704,Berkeley,CA,"5,10,415",US
94705,Berkeley,CA,510,US
94706,Albany,CA,510,US
94707,Berkeley,CA,510,US
94708,Berkeley,CA,"8,31,510",US
94709,Berkeley,CA,510,US
94710,Berkeley,CA,"5,10,65,04,08,925",US
94712,Berkeley,CA,510,US
94720,Berkeley,CA,510,US
94801,Richmond,CA,510,US
94802,Richmond,CA,510,US
94803,El Sobrante,CA,510,US
94804,Richmond,CA,"4,15,510",US
94805,Richmond,CA,510,US
94806,San Pablo,CA,"5,10,310",US
94807,Richmond,CA,510,US
94808,Richmond,CA,510,US
94820,El Sobrante,CA,510,US
94850,Richmond,CA,510,US
94901,San Rafael,CA,415,US
94903,San Rafael,CA,415,US
94904,Greenbrae,CA,415,US
94912,San Rafael,CA,415,US
94913,San Rafael,CA,415,US
94914,Kentfield,CA,415,US
94915,San Rafael,CA,415,US
94920,Belvedere Tiburon,CA,415,US
94922,Bodega,CA,707,US
94923,Bodega Bay,CA,707,US
94924,Bolinas,CA,415,US
94925,Corte Madera,CA,"41,55,10,925",US
94926,Rohnert Park,CA,707,US
94927,Rohnert Park,CA,707,US
94928,Rohnert Park,CA,707,US
94929,Dillon Beach,CA,"7,07,415",US
94930,Fairfax,CA,415,US
94931,Cotati,CA,707,US
94933,Forest Knolls,CA,415,US
94937,Inverness,CA,415,US
94938,Lagunitas,CA,415,US
94939,Larkspur,CA,"4,15,925",US
94940,Marshall,CA,415,US
94941,Mill Valley,CA,"4,15,510",US
94942,Mill Valley,CA,415,US
94945,Novato,CA,415,US
94946,Nicasio,CA,415,US
94947,Novato,CA,"41,57,07,408",US
94948,Novato,CA,415,US
94949,Novato,CA,"4,15,650",US
94950,Olema,CA,415,US
94951,Penngrove,CA,707,US
94952,Petaluma,CA,"7,07,415",US
94953,Petaluma,CA,707,US
94954,Petaluma,CA,707,US
94955,Petaluma,CA,707,US
94956,Point Reyes Station,CA,415,US
94957,Ross,CA,415,US
94960,San Anselmo,CA,415,US
94963,San Geronimo,CA,415,US
94964,San Quentin,CA,415,US
94965,Sausalito,CA,415,US
94966,Sausalito,CA,415,US
94970,Stinson Beach,CA,415,US
94971,Tomales,CA,"7,07,415",US
94972,Valley Ford,CA,707,US
94973,Woodacre,CA,415,US
94974,San Quentin,CA,415,US
94975,Petaluma,CA,707,US
94976,Corte Madera,CA,415,US
94977,Larkspur,CA,415,US
94978,Fairfax,CA,415,US
94979,San Anselmo,CA,415,US
94998,Novato,CA,415,US
94999,Petaluma,CA,707,US
95001,Aptos,CA,408,US
95002,Alviso,CA,408,US
95003,Aptos,CA,"8,31,408",US
95004,Aromas,CA,831,US
95005,Ben Lomond,CA,"8,31,408",US
95006,Boulder Creek,CA,"8,31,408",US
95007,Brookdale,CA,831,US
95008,Campbell,CA,408,US
95009,Campbell,CA,408,US
95010,Capitola,CA,"4,08,831",US
95011,Campbell,CA,408,US
95012,Castroville,CA,831,US
95013,Coyote,CA,408,US
95014,Cupertino,CA,"4,08,650",US
95015,Cupertino,CA,408,US
95017,Davenport,CA,831,US
95018,Felton,CA,831,US
95019,Freedom,CA,831,US
95020,Gilroy,CA,"4,08,805",US
95021,Gilroy,CA,408,US
95023,Hollister,CA,"4,08,831",US
95024,Hollister,CA,831,US
95026,Holy City,CA,,US
95030,Los Gatos,CA,408,US
95031,Los Gatos,CA,408,US
95032,Los Gatos,CA,"4,08,650",US
95033,Los Gatos,CA,408,US
95035,Milpitas,CA,"40,85,10,650",US
95036,Milpitas,CA,408,US
95037,Morgan Hill,CA,408,US
95038,Morgan Hill,CA,408,US
95039,Moss Landing,CA,831,US
95041,Mount Hermon,CA,831,US
95042,New Almaden,CA,,US
95043,Paicines,CA,831,US
95044,Redwood Estates,CA,408,US
95045,San Juan Bautista,CA,"8,31,408",US
95046,San Martin,CA,408,US
95050,Santa Clara,CA,"40,86,19,650",US
95051,Santa Clara,CA,"4,08,925",US
95052,Santa Clara,CA,408,US
95053,Santa Clara,CA,408,US
95054,Santa Clara,CA,"40,86,50,83,19,49,858",US
95055,Santa Clara,CA,408,US
95056,Santa Clara,CA,408,US
95060,Santa Cruz,CA,"40,88,31,650",US
95061,Santa Cruz,CA,831,US
95062,Santa Cruz,CA,"83,14,08,415",US
95063,Santa Cruz,CA,831,US
95064,Santa Cruz,CA,831,US
95065,Santa Cruz,CA,831,US
95066,Scotts Valley,CA,"8,31,408",US
95067,Scotts Valley,CA,831,US
95070,Saratoga,CA,"40,89,25,415",US
95071,Saratoga,CA,408,US
95073,Soquel,CA,"4,08,831",US
95075,Tres Pinos,CA,"8,31,408",US
95076,Watsonville,CA,"40,88,31,510",US
95077,Watsonville,CA,831,US
95101,San Jose,CA,"4,08,650",US
95103,San Jose,CA,408,US
95106,San Jose,CA,408,US
95108,San Jose,CA,408,US
95109,San Jose,CA,408,US
