zip,primary_city,state,area_codes,country
34039,Dpo,AA,,US
34041,Dpo,AA,,US
34042,Apo,AA,,HN
34043,Apo,AA,,US
34050,Fpo,AA,,US
34055,Dpo,AA,,US
34058,Fpo,AA,,BS
34060,Dpo,AA,,US
34071,Apo,AA,,PY
34076,Apo,AA,,EC
34078,Apo,AA,,US
34079,Fpo,AA,,US
34090,Fpo,AA,,US
34091,Fpo,AA,,US
34092,Fpo,AA,,US
34093,Fpo,AA,,US
34095,Fpo,AA,,US
34098,Fpo,AA,,US
34099,Fpo,AA,,US
34101,Naples,FL,239,US
34102,Naples,FL,"2,39,941",US
34103,Naples,FL,239,US
34104,Naples,FL,239,US
34105,Naples,FL,239,US
34106,Naples,FL,239,US
34107,Naples,FL,239,US
34108,Naples,FL,"2,39,941",US
34109,Naples,FL,"5,61,239",US
34110,Naples,FL,"3,52,239",US
34112,Naples,FL,239,US
34113,Naples,FL,239,US
34114,Naples,FL,239,US
34116,Naples,FL,239,US
34117,Naples,FL,239,US
34119,Naples,FL,239,US
34120,Naples,FL,239,US
34133,Bonita Springs,FL,239,US
34134,Bonita Springs,FL,239,US
34135,Bonita Springs,FL,941,US
34136,Bonita Springs,FL,239,US
34137,Copeland,FL,239,US
34138,Chokoloskee,FL,239,US
34139,Everglades City,FL,239,US
34140,Goodland,FL,239,US
34141,Ochopee,FL,239,US
34142,Immokalee,FL,"2,39,941",US
34143,Immokalee,FL,239,US
34145,Marco Island,FL,239,US
34146,Marco Island,FL,239,US
34201,Bradenton,FL,941,US
34202,Bradenton,FL,941,US
34203,Bradenton,FL,941,US
34204,Bradenton,FL,941,US
34205,Bradenton,FL,941,US
34206,Bradenton,FL,941,US
34207,Bradenton,FL,941,US
34208,Bradenton,FL,941,US
34209,Bradenton,FL,941,US
34210,Bradenton,FL,"7,27,941",US
34211,Bradenton,FL,941,US
34212,Bradenton,FL,941,US
34215,Cortez,FL,941,US
34216,Anna Maria,FL,941,US
34217,Bradenton Beach,FL,941,US
34218,Holmes Beach,FL,941,US
34219,Parrish,FL,941,US
34220,Palmetto,FL,941,US
34221,Palmetto,FL,941,US
34222,Ellenton,FL,941,US
34223,Englewood,FL,941,US
34224,Englewood,FL,941,US
34228,Longboat Key,FL,941,US
34229,Osprey,FL,941,US
34230,Sarasota,FL,"9,41,813",US
34231,Sarasota,FL,"8,13,941",US
34232,Sarasota,FL,"9,41,305",US
34233,Sarasota,FL,941,US
34234,Sarasota,FL,941,US
34235,Sarasota,FL,941,US
34236,Sarasota,FL,941,US
34237,Sarasota,FL,"9,41,813",US
34238,Sarasota,FL,941,US
34239,Sarasota,FL,941,US
34240,Sarasota,FL,"9,41,863",US
34241,Sarasota,FL,941,US
34242,Sarasota,FL,941,US
34243,Sarasota,FL,941,US
34250,Terra Ceia,FL,941,US
34251,Myakka City,FL,941,US
34260,Sarasota,FL,941,US
34264,Oneco,FL,941,US
34265,Arcadia,FL,863,US
34266,Arcadia,FL,863,US
34267,Fort Ogden,FL,,US
34268,Nocatee,FL,,US
34269,Arcadia,FL,"8,63,941",US
34270,Tallevast,FL,941,US
34272,Laurel,FL,941,US
34274,Nokomis,FL,941,US
34275,Nokomis,FL,941,US
34276,Sarasota,FL,941,US
34277,Sarasota,FL,941,US
34278,Sarasota,FL,941,US
34280,Bradenton,FL,941,US
34281,Bradenton,FL,941,US
34282,Bradenton,FL,941,US
34284,Venice,FL,941,US
34285,Venice,FL,941,US
34286,North Port,FL,941,US
34287,North Port,FL,941,US
34288,North Port,FL,941,US
34289,North Port,FL,941,US
34290,North Port,FL,941,US
34291,North Port,FL,941,US
34292,Venice,FL,941,US
34293,Venice,FL,941,US
34295,Englewood,FL,941,US
34420,Belleview,FL,352,US
34421,Belleview,FL,352,US
34423,Crystal River,FL,352,US
34428,Crystal River,FL,352,US
34429,Crystal River,FL,352,US
34430,Dunnellon,FL,352,US
34431,Dunnellon,FL,352,US
34432,Dunnellon,FL,"3,52,321",US
34433,Dunnellon,FL,352,US
34434,Dunnellon,FL,352,US
34436,Floral City,FL,352,US
34442,Hernando,FL,352,US
34445,Holder,FL,352,US
34446,Homosassa,FL,352,US
34447,Homosassa Springs,FL,352,US
34448,Homosassa,FL,"3,52,813",US
34449,Inglis,FL,352,US
34450,Inverness,FL,"8,13,352",US
34451,Inverness,FL,352,US
34452,Inverness,FL,352,US
34453,Inverness,FL,352,US
34460,Lecanto,FL,352,US
34461,Lecanto,FL,352,US
34464,Beverly Hills,FL,352,US
34465,Beverly Hills,FL,352,US
34470,Ocala,FL,"3,52,561",US
34471,Ocala,FL,352,US
34472,Ocala,FL,352,US
34473,Ocala,FL,352,US
34474,Ocala,FL,352,US
34475,Ocala,FL,352,US
34476,Ocala,FL,352,US
34477,Ocala,FL,352,US
34478,Ocala,FL,352,US
34479,Ocala,FL,352,US
34480,Ocala,FL,352,US
34481,Ocala,FL,352,US
34482,Ocala,FL,352,US
34483,Ocala,FL,352,US
34484,Oxford,FL,352,US
34487,Homosassa,FL,352,US
34488,Silver Springs,FL,352,US
34489,Silver Springs,FL,352,US
34491,Summerfield,FL,352,US
34492,Summerfield,FL,352,US
34498,Yankeetown,FL,352,US
34601,Brooksville,FL,352,US
34602,Brooksville,FL,"8,13,352",US
34603,Brooksville,FL,352,US
34604,Brooksville,FL,352,US
34605,Brooksville,FL,352,US
34606,Spring Hill,FL,"3,52,863",US
34607,Spring Hill,FL,"7,27,352",US
34608,Spring Hill,FL,352,US
34609,Spring Hill,FL,352,US
34610,Spring Hill,FL,"81,37,27,352",US
34611,Spring Hill,FL,352,US
34613,Brooksville,FL,"3,52,727",US
34614,Brooksville,FL,352,US
34636,Istachatta,FL,352,US
34637,Land O Lakes,FL,813,US
34638,Land O Lakes,FL,813,US
34639,Land O Lakes,FL,"3,52,813",US
34652,New Port Richey,FL,"72,78,13,407",US
34653,New Port Richey,FL,"7,27,813",US
34654,New Port Richey,FL,"7,27,813",US
34655,New Port Richey,FL,"7,27,813",US
34656,New Port Richey,FL,727,US
34660,Ozona,FL,727,US
34661,Nobleton,FL,352,US
34667,Hudson,FL,"8,13,727",US
34668,Port Richey,FL,"7,27,813",US
34669,Hudson,FL,"8,13,727",US
34673,Port Richey,FL,727,US
34674,Hudson,FL,727,US
34677,Oldsmar,FL,"8,13,727",US
34679,Aripeka,FL,,US
34680,Elfers,FL,727,US
34681,Crystal Beach,FL,727,US
34682,Palm Harbor,FL,727,US
34683,Palm Harbor,FL,727,US
34684,Palm Harbor,FL,727,US
34685,Palm Harbor,FL,"8,13,727",US
34688,Tarpon Springs,FL,727,US
34689,Tarpon Springs,FL,727,US
34690,Holiday,FL,727,US
34691,Holiday,FL,"7,27,813",US
34692,Holiday,FL,727,US
34695,Safety Harbor,FL,727,US
34697,Dunedin,FL,727,US
34698,Dunedin,FL,"8,13,727",US
34705,Astatula,FL,352,US
34711,Clermont,FL,"35,24,07,863",US
34712,Clermont,FL,352,US
34713,Clermont,FL,352,US
34714,Clermont,FL,352,US
34715,Clermont,FL,352,US
34729,Ferndale,FL,352,US
34731,Fruitland Park,FL,352,US
34734,Gotha,FL,407,US
34736,Groveland,FL,352,US
34737,Howey In The Hills,FL,352,US
34739,Kenansville,FL,"3,21,407",US
34740,Killarney,FL,407,US
34741,Kissimmee,FL,"4,07,321",US
34742,Kissimmee,FL,407,US
34743,Kissimmee,FL,"4,07,321",US
34744,Kissimmee,FL,"4,07,321",US
34745,Kissimmee,FL,407,US
34746,Kissimmee,FL,"40,73,21,813",US
34747,Kissimmee,FL,"3,21,407",US
34748,Leesburg,FL,352,US
34749,Leesburg,FL,352,US
34753,Mascotte,FL,352,US
34755,Minneola,FL,352,US
34756,Montverde,FL,"4,07,321",US
34758,Kissimmee,FL,"4,07,321",US
34759,Kissimmee,FL,"86,34,07,321",US
34760,Oakland,FL,407,US
34761,Ocoee,FL,"4,07,321",US
34762,Okahumpka,FL,352,US
34769,Saint Cloud,FL,"4,07,321",US
34770,Saint Cloud,FL,407,US
34771,Saint Cloud,FL,"4,07,321",US
34772,Saint Cloud,FL,"4,07,321",US
34773,Saint Cloud,FL,407,US
34777,Winter Garden,FL,407,US
34778,Winter Garden,FL,407,US
34785,Wildwood,FL,352,US
34786,Windermere,FL,407,US
34787,Winter Garden,FL,407,US
34788,Leesburg,FL,352,US
34789,Leesburg,FL,352,US
34797,Yalaha,FL,352,US
34945,Fort Pierce,FL,772,US
34946,Fort Pierce,FL,772,US
34947,Fort Pierce,FL,772,US
34948,Fort Pierce,FL,772,US
34949,Fort Pierce,FL,772,US
34950,Fort Pierce,FL,772,US
34951,Fort Pierce,FL,772,US
34952,Port Saint Lucie,FL,772,US
34953,Port Saint Lucie,FL,561,US
34954,Fort Pierce,FL,772,US
34956,Indiantown,FL,"5,61,772",US
34957,Jensen Beach,FL,772,US
34958,Jensen Beach,FL,772,US
34972,Okeechobee,FL,"8,63,407",US
34973,Okeechobee,FL,941,US
34974,Okeechobee,FL,863,US
34979,Fort Pierce,FL,772,US
34981,Fort Pierce,FL,772,US
34982,Fort Pierce,FL,772,US
34983,Port Saint Lucie,FL,"5,61,772",US
34984,Port Saint Lucie,FL,772,US
34985,Port Saint Lucie,FL,772,US
34986,Port Saint Lucie,FL,"5,61,772",US
34987,Port Saint Lucie,FL,772,US
34988,Port Saint Lucie,FL,772,US
34990,Palm City,FL,561,US
34991,Palm City,FL,772,US
34992,Port Salerno,FL,772,US
34994,Stuart,FL,"5,61,772",US
34995,Stuart,FL,772,US
34996,Stuart,FL,"5,61,772",US
34997,Stuart,FL,"95,45,61,772",US
35004,Moody,AL,205,US
35005,Adamsville,AL,205,US
35006,Adger,AL,205,US
35007,Alabaster,AL,205,US
35010,Alexander City,AL,"2,56,334",US
35011,Alexander City,AL,256,US
35013,Allgood,AL,205,US
35014,Alpine,AL,256,US
35015,Alton,AL,205,US
35016,Arab,AL,256,US
35019,Baileyton,AL,256,US
35020,Bessemer,AL,205,US
35021,Bessemer,AL,205,US
35022,Bessemer,AL,205,US
35023,Bessemer,AL,205,US
35031,Blountsville,AL,"2,05,256",US
35032,Bon Air,AL,,US
35033,Bremen,AL,256,US
35034,Brent,AL,205,US
35035,Brierfield,AL,205,US
35036,Brookside,AL,205,US
35038,Burnwell,AL,205,US
35040,Calera,AL,205,US
35041,Cardiff,AL,205,US
35042,Centreville,AL,205,US
35043,Chelsea,AL,205,US
35044,Childersburg,AL,256,US
35045,Clanton,AL,205,US
35046,Clanton,AL,205,US
35048,Clay,AL,205,US
35049,Cleveland,AL,205,US
35051,Columbiana,AL,205,US
35052,Cook Springs,AL,205,US
35053,Crane Hill,AL,256,US
35054,Cropwell,AL,205,US
35055,Cullman,AL,256,US
35056,Cullman,AL,256,US
35057,Cullman,AL,256,US
35058,Cullman,AL,256,US
35060,Docena,AL,205,US
35061,Dolomite,AL,205,US
35062,Dora,AL,205,US
35063,Empire,AL,205,US
35064,Fairfield,AL,205,US
35068,Fultondale,AL,205,US
35070,Garden City,AL,256,US
35071,Gardendale,AL,205,US
35072,Goodwater,AL,256,US
35073,Graysville,AL,205,US
35074,Green Pond,AL,205,US
35077,Hanceville,AL,256,US
35078,Harpersville,AL,205,US
35079,Hayden,AL,"2,05,256",US
35080,Helena,AL,205,US
35082,Hollins,AL,256,US
35083,Holly Pond,AL,256,US
35085,Jemison,AL,205,US
35087,Joppa,AL,256,US
35089,Kellyton,AL,256,US
35091,Kimberly,AL,205,US
35094,Leeds,AL,205,US
35096,Lincoln,AL,"2,05,256",US
35097,Locust Fork,AL,205,US
35098,Logan,AL,256,US
35111,Mc Calla,AL,205,US
35112,Margaret,AL,205,US
35114,Maylene,AL,205,US
35115,Montevallo,AL,205,US
35116,Morris,AL,205,US
35117,Mount Olive,AL,205,US
35118,Mulga,AL,205,US
35119,New Castle,AL,205,US
35120,Odenville,AL,205,US
35121,Oneonta,AL,205,US
35123,Palmerdale,AL,205,US
35124,Pelham,AL,205,US
35125,Pell City,AL,205,US
35126,Pinson,AL,205,US
35127,Pleasant Grove,AL,205,US
35128,Pell City,AL,205,US
35130,Quinton,AL,205,US
35131,Ragland,AL,205,US
35133,Remlap,AL,205,US
35135,Riverside,AL,205,US
35136,Rockford,AL,256,US
35137,Saginaw,AL,205,US
35139,Sayre,AL,205,US
35142,Shannon,AL,205,US
35143,Shelby,AL,205,US
35144,Siluria,AL,205,US
35146,Springville,AL,205,US
35147,Sterrett,AL,205,US
35148,Sumiton,AL,205,US
35149,Sycamore,AL,,US
35150,Sylacauga,AL,"2,56,205",US
35151,Sylacauga,AL,256,US
35160,Talladega,AL,"2,56,205",US
35161,Talladega,AL,256,US
35171,Thorsby,AL,205,US
35172,Trafford,AL,205,US
35173,Trussville,AL,205,US
35175,Union Grove,AL,256,US
35176,Vandiver,AL,205,US
35178,Vincent,AL,205,US
35179,Vinemont,AL,256,US
35180,Warrior,AL,205,US
35181,Watson,AL,205,US
35182,Wattsville,AL,,US
35183,Weogufka,AL,256,US
35184,West Blocton,AL,205,US
35185,Westover,AL,205,US
35186,Wilsonville,AL,205,US
35187,Wilton,AL,205,US
35188,Woodstock,AL,205,US
35201,Birmingham,AL,205,US
35202,Birmingham,AL,205,US
35203,Birmingham,AL,205,US
35204,Birmingham,AL,"2,05,256",US
35205,Birmingham,AL,205,US
35206,Birmingham,AL,205,US
35207,Birmingham,AL,"2,05,256",US
35208,Birmingham,AL,205,US
35209,Birmingham,AL,205,US
35210,Birmingham,AL,"2,05,334",US
35211,Birmingham,AL,205,US
35212,Birmingham,AL,205,US
35213,Birmingham,AL,205,US
35214,Birmingham,AL,205,US
35215,Birmingham,AL,205,US
35216,Birmingham,AL,205,US
35217,Birmingham,AL,205,US
35218,Birmingham,AL,205,US
35219,Birmingham,AL,205,US
35220,Birmingham,AL,205,US
35221,Birmingham,AL,205,US
35222,Birmingham,AL,205,US
35223,Birmingham,AL,205,US
35224,Birmingham,AL,205,US
35225,Birmingham,AL,205,US
35226,Birmingham,AL,205,US
35228,Birmingham,AL,205,US
35229,Birmingham,AL,205,US
35230,Birmingham,AL,205,US
35231,Birmingham,AL,205,US
35232,Birmingham,AL,205,US
35233,Birmingham,AL,205,US
35234,Birmingham,AL,"2,56,205",US
35235,Birmingham,AL,205,US
35236,Birmingham,AL,205,US
35237,Birmingham,AL,205,US
35238,Birmingham,AL,205,US
35240,Birmingham,AL,205,US
35242,Birmingham,AL,205,US
35243,Birmingham,AL,205,US
35244,Birmingham,AL,205,US
35245,Birmingham,AL,205,US
35246,Birmingham,AL,205,US
35249,Birmingham,AL,205,US
35253,Birmingham,AL,205,US
35254,Birmingham,AL,205,US
35255,Birmingham,AL,205,US
35259,Birmingham,AL,205,US
35260,Birmingham,AL,205,US
35261,Birmingham,AL,205,US
35263,Birmingham,AL,205,US
35266,Birmingham,AL,205,US
35277,Birmingham,AL,205,US
35278,Birmingham,AL,205,US
35279,Birmingham,AL,205,US
35280,Birmingham,AL,205,US
35281,Birmingham,AL,205,US
35282,Birmingham,AL,205,US
35283,Birmingham,AL,205,US
35285,Birmingham,AL,205,US
35286,Birmingham,AL,205,US
35287,Birmingham,AL,205,US
35288,Birmingham,AL,205,US
35289,Birmingham,AL,205,US
35290,Birmingham,AL,205,US
35291,Birmingham,AL,205,US
35292,Birmingham,AL,205,US
35293,Birmingham,AL,205,US
35294,Birmingham,AL,205,US
35295,Birmingham,AL,205,US
35296,Birmingham,AL,205,US
35297,Birmingham,AL,205,US
35298,Birmingham,AL,205,US
35299,Birmingham,AL,205,US
35401,Tuscaloosa,AL,205,US
35402,Tuscaloosa,AL,205,US
35403,Tuscaloosa,AL,205,US
35404,Tuscaloosa,AL,205,US
35405,Tuscaloosa,AL,205,US
35406,Tuscaloosa,AL,205,US
35407,Tuscaloosa,AL,205,US
35440,Abernant,AL,205,US
35441,Akron,AL,205,US
35442,Aliceville,AL,205,US
35443,Boligee,AL,205,US
35444,Brookwood,AL,205,US
35446,Buhl,AL,205,US
35447,Carrollton,AL,205,US
35448,Clinton,AL,205,US
35449,Coaling,AL,205,US
35452,Coker,AL,205,US
35453,Cottondale,AL,205,US
35456,Duncanville,AL,205,US
35457,Echola,AL,205,US
35458,Elrod,AL,205,US
35459,Emelle,AL,205,US
35460,Epes,AL,205,US
35461,Ethelsville,AL,205,US
35462,Eutaw,AL,205,US
35463,Fosters,AL,205,US
35464,Gainesville,AL,205,US
35466,Gordo,AL,205,US
35468,Kellerman,AL,205,US
35469,Knoxville,AL,205,US
35470,Livingston,AL,"2,05,334",US
35471,Mc Shan,AL,205,US
35473,Northport,AL,205,US
35474,Moundville,AL,205,US
35475,Northport,AL,205,US
35476,Northport,AL,205,US
35477,Panola,AL,205,US
35478,Peterson,AL,205,US
35480,Ralph,AL,205,US
35481,Reform,AL,205,US
35482,Samantha,AL,205,US
35485,Tuscaloosa,AL,205,US
35486,Tuscaloosa,AL,205,US
35487,Tuscaloosa,AL,205,US
35490,Vance,AL,205,US
35491,West Greene,AL,205,US
35501,Jasper,AL,205,US
35502,Jasper,AL,205,US
35503,Jasper,AL,205,US
35504,Jasper,AL,205,US
35540,Addison,AL,256,US
35541,Arley,AL,"2,05,256",US
35542,Bankston,AL,205,US
35543,Bear Creek,AL,205,US
35544,Beaverton,AL,205,US
35545,Belk,AL,205,US
35546,Berry,AL,205,US
35548,Brilliant,AL,205,US
35549,Carbon Hill,AL,205,US
35550,Cordova,AL,205,US
35551,Delmar,AL,,US
35552,Detroit,AL,205,US
35553,Double Springs,AL,205,US
35554,Eldridge,AL,205,US
35555,Fayette,AL,205,US
35559,Glen Allen,AL,205,US
35560,Goodsprings,AL,205,US
35563,Guin,AL,205,US
35564,Hackleburg,AL,205,US
35565,Haleyville,AL,205,US
35570,Hamilton,AL,205,US
35571,Hodges,AL,205,US
35572,Houston,AL,"2,05,256",US
35573,Kansas,AL,205,US
35574,Kennedy,AL,205,US
35575,Lynn,AL,205,US
35576,Millport,AL,205,US
35577,Natural Bridge,AL,,US
35578,Nauvoo,AL,205,US
35579,Oakman,AL,205,US
35580,Parrish,AL,205,US
35581,Phil Campbell,AL,"2,05,256",US
35582,Red Bay,AL,"2,56,205",US
35584,Sipsey,AL,205,US
35585,Spruce Pine,AL,"2,05,256",US
35586,Sulligent,AL,205,US
35587,Townley,AL,205,US
35592,Vernon,AL,205,US
35593,Vina,AL,"2,56,205",US
35594,Winfield,AL,205,US
35601,Decatur,AL,256,US
35602,Decatur,AL,256,US
35603,Decatur,AL,256,US
35609,Decatur,AL,256,US
35610,Anderson,AL,256,US
35611,Athens,AL,"2,56,205",US
35612,Athens,AL,256,US
35613,Athens,AL,256,US
35614,Athens,AL,256,US
35615,Belle Mina,AL,256,US
35616,Cherokee,AL,256,US
35617,Cloverdale,AL,256,US
35618,Courtland,AL,256,US
35619,Danville,AL,256,US
35620,Elkmont,AL,256,US
35621,Eva,AL,256,US
35622,Falkville,AL,256,US
35630,Florence,AL,256,US
35631,Florence,AL,256,US
35632,Florence,AL,256,US
35633,Florence,AL,256,US
35634,Florence,AL,256,US
35640,Hartselle,AL,256,US
35643,Hillsboro,AL,256,US
35645,Killen,AL,256,US
35646,Leighton,AL,256,US
35647,Lester,AL,256,US
35648,Lexington,AL,256,US
35649,Mooresville,AL,256,US
35650,Moulton,AL,256,US
35651,Mount Hope,AL,256,US
35652,Rogersville,AL,256,US
35653,Russellville,AL,256,US
35654,Russellville,AL,256,US
35660,Sheffield,AL,256,US
35661,Muscle Shoals,AL,256,US
35662,Muscle Shoals,AL,256,US
35670,Somerville,AL,256,US
35671,Tanner,AL,256,US
35672,Town Creek,AL,256,US
35673,Trinity,AL,256,US
35674,Tuscumbia,AL,256,US
35677,Waterloo,AL,256,US
35699,Decatur,AL,256,US
35739,Ardmore,AL,256,US
35740,Bridgeport,AL,256,US
35741,Brownsboro,AL,256,US
35742,Capshaw,AL,256,US
35744,Dutton,AL,256,US
35745,Estillfork,AL,256,US
35746,Fackler,AL,256,US
35747,Grant,AL,256,US
35748,Gurley,AL,256,US
35749,Harvest,AL,256,US
35750,Hazel Green,AL,256,US
35751,Hollytree,AL,256,US
35752,Hollywood,AL,"2,05,256",US
35754,Laceys Spring,AL,256,US
35755,Langston,AL,256,US
35756,Madison,AL,256,US
35757,Madison,AL,256,US
35758,Madison,AL,256,US
35759,Meridianville,AL,256,US
35760,New Hope,AL,256,US
35761,New Market,AL,256,US
35762,Normal,AL,256,US
35763,Owens Cross Roads,AL,256,US
35764,Paint Rock,AL,256,US
35765,Pisgah,AL,256,US
35766,Princeton,AL,256,US
35767,Ryland,AL,256,US
35768,Scottsboro,AL,"2,56,205",US
35769,Scottsboro,AL,256,US
35771,Section,AL,256,US
35772,Stevenson,AL,256,US
35773,Toney,AL,256,US
35774,Trenton,AL,256,US
35775,Valhermoso Springs,AL,256,US
35776,Woodville,AL,256,US
35801,Huntsville,AL,256,US
35802,Huntsville,AL,256,US
35803,Huntsville,AL,256,US
35804,Huntsville,AL,256,US
35805,Huntsville,AL,256,US
35806,Huntsville,AL,256,US
35807,Huntsville,AL,256,US
35808,Huntsville,AL,256,US
35809,Huntsville,AL,256,US
35810,Huntsville,AL,256,US
35811,Huntsville,AL,256,US
35812,Huntsville,AL,256,US
35813,Huntsville,AL,256,US
35814,Huntsville,AL,256,US
35815,Huntsville,AL,256,US
35816,Huntsville,AL,256,US
35824,Huntsville,AL,256,US
35893,Huntsville,AL,256,US
35894,Huntsville,AL,256,US
35895,Huntsville,AL,256,US
35896,Huntsville,AL,256,US
35897,Huntsville,AL,256,US
35898,Huntsville,AL,256,US
35899,Huntsville,AL,256,US
35901,Gadsden,AL,256,US
35902,Gadsden,AL,256,US
35903,Gadsden,AL,256,US
35904,Gadsden,AL,256,US
35905,Gadsden,AL,256,US
35906,Rainbow City,AL,256,US
35907,Gadsden,AL,256,US
35950,Albertville,AL,256,US
35951,Albertville,AL,256,US
35952,Altoona,AL,"2,05,256",US
35953,Ashville,AL,205,US
35954,Attalla,AL,256,US
35956,Boaz,AL,"2,56,205",US
35957,Boaz,AL,256,US
35958,Bryant,AL,256,US
35959,Cedar Bluff,AL,256,US
35960,Centre,AL,256,US
35961,Collinsville,AL,256,US
35962,Crossville,AL,256,US
35963,Dawson,AL,256,US
35964,Douglas,AL,256,US
35966,Flat Rock,AL,256,US
35967,Fort Payne,AL,256,US
35968,Fort Payne,AL,256,US
35971,Fyffe,AL,256,US
35972,Gallant,AL,"2,56,205",US
35973,Gaylesville,AL,256,US
35974,Geraldine,AL,256,US
35975,Groveoak,AL,256,US
35976,Guntersville,AL,256,US
35978,Henagar,AL,256,US
35979,Higdon,AL,256,US
35980,Horton,AL,"2,05,256",US
35981,Ider,AL,256,US
35983,Leesburg,AL,256,US
35984,Mentone,AL,256,US
35986,Rainsville,AL,256,US
35987,Steele,AL,"2,05,256",US
35988,Sylvania,AL,256,US
35989,Valley Head,AL,256,US
35990,Walnut Grove,AL,205,US
36003,Autaugaville,AL,334,US
36005,Banks,AL,334,US
36006,Billingsley,AL,"3,34,205",US
36008,Booth,AL,334,US
36009,Brantley,AL,334,US
36010,Brundidge,AL,334,US
36013,Cecil,AL,334,US
36015,Chapman,AL,334,US
36016,Clayton,AL,334,US
36017,Clio,AL,334,US
36020,Coosada,AL,334,US
36022,Deatsville,AL,334,US
36023,East Tallassee,AL,,US
36024,Eclectic,AL,334,US
36025,Elmore,AL,334,US
36026,Equality,AL,"3,34,256",US
36027,Eufaula,AL,334,US
36028,Dozier,AL,334,US
36029,Fitzpatrick,AL,334,US
36030,Forest Home,AL,334,US
36031,Fort Davis,AL,334,US
36032,Fort Deposit,AL,334,US
36033,Georgiana,AL,334,US
36034,Glenwood,AL,334,US
36035,Goshen,AL,334,US
36036,Grady,AL,334,US
36037,Greenville,AL,334,US
36038,Gantt,AL,334,US
36039,Hardaway,AL,334,US
36040,Hayneville,AL,334,US
36041,Highland Home,AL,334,US
36042,Honoraville,AL,334,US
36043,Hope Hull,AL,334,US
36045,Kent,AL,334,US
36046,Lapine,AL,334,US
36047,Letohatchee,AL,334,US
36048,Louisville,AL,334,US
36049,Luverne,AL,334,US
36051,Marbury,AL,"3,34,205",US
36052,Mathews,AL,334,US
36053,Midway,AL,334,US
36054,Millbrook,AL,334,US
36057,Mount Meigs,AL,334,US
36061,Perote,AL,334,US
36062,Petrey,AL,334,US
36064,Pike Road,AL,334,US
36065,Pine Level,AL,334,US
36066,Prattville,AL,334,US
36067,Prattville,AL,334,US
36068,Prattville,AL,334,US
36069,Ramer,AL,334,US
36071,Rutledge,AL,334,US
36072,Eufaula,AL,334,US
36075,Shorter,AL,334,US
36078,Tallassee,AL,334,US
36079,Troy,AL,334,US
36080,Titus,AL,"3,34,256",US
36081,Troy,AL,334,US
36082,Troy,AL,334,US
36083,Tuskegee,AL,334,US
36087,Tuskegee Institute,AL,334,US
36088,Tuskegee Institute,AL,334,US
36089,Union Springs,AL,334,US
36091,Verbena,AL,205,US
36092,Wetumpka,AL,334,US
36093,Wetumpka,AL,334,US
36101,Montgomery,AL,334,US
36102,Montgomery,AL,334,US
36103,Montgomery,AL,334,US
36104,Montgomery,AL,334,US
36105,Montgomery,AL,334,US
36106,Montgomery,AL,334,US
36107,Montgomery,AL,334,US
36108,Montgomery,AL,334,US
36109,Montgomery,AL,334,US
36110,Montgomery,AL,334,US
36111,Montgomery,AL,334,US
36112,Montgomery,AL,334,US
36113,Montgomery,AL,334,US
36114,Montgomery,AL,334,US
36115,Montgomery,AL,334,US
36116,Montgomery,AL,"2,05,334",US
36117,Montgomery,AL,334,US
36118,Montgomery,AL,334,US
36119,Montgomery,AL,334,US
36120,Montgomery,AL,334,US
36121,Montgomery,AL,334,US
36123,Montgomery,AL,334,US
36124,Montgomery,AL,334,US
36125,Montgomery,AL,334,US
36130,Montgomery,AL,334,US
36131,Montgomery,AL,334,US
36132,Montgomery,AL,334,US
36133,Montgomery,AL,334,US
36134,Montgomery,AL,334,US
36135,Montgomery,AL,334,US
36140,Montgomery,AL,334,US
36141,Montgomery,AL,334,US
36142,Montgomery,AL,334,US
36177,Montgomery,AL,334,US
36191,Montgomery,AL,334,US
36201,Anniston,AL,256,US
36202,Anniston,AL,256,US
36203,Oxford,AL,"2,56,205",US
36204,Anniston,AL,256,US
36205,Anniston,AL,256,US
36206,Anniston,AL,256,US
36207,Anniston,AL,256,US
36210,Anniston,AL,256,US
36250,Alexandria,AL,256,US
36251,Ashland,AL,256,US
36253,Bynum,AL,256,US
36254,Choccolocco,AL,256,US
36255,Cragford,AL,256,US
36256,Daviston,AL,256,US
36257,De Armanville,AL,256,US
36258,Delta,AL,256,US
36260,Eastaboga,AL,256,US
36261,Edwardsville,AL,256,US
36262,Fruithurst,AL,256,US
36263,Graham,AL,256,US
36264,Heflin,AL,256,US
36265,Jacksonville,AL,256,US
36266,Lineville,AL,256,US
36267,Millerville,AL,256,US
36268,Munford,AL,256,US
36269,Muscadine,AL,256,US
36271,Ohatchee,AL,256,US
36272,Piedmont,AL,256,US
36273,Ranburne,AL,256,US
36274,Roanoke,AL,"3,34,256",US
36275,Spring Garden,AL,256,US
36276,Wadley,AL,"2,56,334",US
36277,Weaver,AL,256,US
36278,Wedowee,AL,256,US
36279,Wellington,AL,256,US
36280,Woodland,AL,256,US
36301,Dothan,AL,334,US
36302,Dothan,AL,334,US
36303,Dothan,AL,334,US
36304,Dothan,AL,334,US
36305,Dothan,AL,334,US
36310,Abbeville,AL,334,US
36311,Ariton,AL,334,US
36312,Ashford,AL,334,US
36313,Bellwood,AL,334,US
36314,Black,AL,334,US
36316,Chancellor,AL,334,US
36317,Clopton,AL,334,US
36318,Coffee Springs,AL,334,US
36319,Columbia,AL,334,US
36320,Cottonwood,AL,334,US
36321,Cowarts,AL,334,US
36322,Daleville,AL,334,US
36323,Elba,AL,334,US
36330,Enterprise,AL,334,US
36331,Enterprise,AL,334,US
36340,Geneva,AL,334,US
36343,Gordon,AL,334,US
36344,Hartford,AL,334,US
36345,Headland,AL,334,US
36346,Jack,AL,334,US
36349,Malvern,AL,334,US
36350,Midland City,AL,334,US
36351,New Brockton,AL,334,US
36352,Newton,AL,334,US
36353,Newville,AL,334,US
36360,Ozark,AL,334,US
36361,Ozark,AL,334,US
36362,Fort Rucker,AL,334,US
36370,Pansey,AL,334,US
36371,Pinckard,AL,334,US
36373,Shorterville,AL,334,US
36374,Skipperville,AL,334,US
36375,Slocomb,AL,334,US
36376,Webb,AL,334,US
36401,Evergreen,AL,251,US
36420,Andalusia,AL,334,US
36421,Andalusia,AL,334,US
36425,Beatrice,AL,251,US
36426,Brewton,AL,251,US
36427,Brewton,AL,251,US
36429,Brooklyn,AL,251,US
36432,Castleberry,AL,251,US
36435,Coy,AL,334,US
36436,Dickinson,AL,"3,34,251",US
36439,Excel,AL,251,US
36441,Flomaton,AL,251,US
36442,Florala,AL,334,US
36444,Franklin,AL,251,US
36445,Frisco City,AL,251,US
36446,Fulton,AL,334,US
36449,Goodway,AL,,US
36451,Grove Hill,AL,"2,51,334",US
36453,Kinston,AL,334,US
36454,Lenox,AL,251,US
36455,Lockhart,AL,334,US
36456,Mc Kenzie,AL,334,US
36457,Megargel,AL,,US
36458,Mexia,AL,,US
36460,Monroeville,AL,251,US
36461,Monroeville,AL,251,US
36462,Monroeville,AL,251,US
36467,Opp,AL,334,US
36470,Perdue Hill,AL,,US
36471,Peterman,AL,251,US
36473,Range,AL,251,US
36474,Red Level,AL,334,US
36475,Repton,AL,251,US
36476,River Falls,AL,334,US
36477,Samson,AL,334,US
36480,Uriah,AL,251,US
36481,Vredenburgh,AL,334,US
36482,Whatley,AL,251,US
36483,Wing,AL,334,US
36501,Jackson,AL,,US
36502,Atmore,AL,251,US
36503,Atmore,AL,251,US
36504,Atmore,AL,251,US
36505,Axis,AL,251,US
36507,Bay Minette,AL,251,US
36509,Bayou La Batre,AL,251,US
36511,Bon Secour,AL,251,US
36512,Bucks,AL,251,US
36513,Calvert,AL,251,US
36515,Carlton,AL,251,US
36518,Chatom,AL,251,US
36521,Chunchula,AL,251,US
36522,Citronelle,AL,251,US
36523,Coden,AL,251,US
36524,Coffeeville,AL,251,US
36525,Creola,AL,251,US
36526,Daphne,AL,251,US
36527,Spanish Fort,AL,251,US
36528,Dauphin Island,AL,251,US
36529,Deer Park,AL,251,US
36530,Elberta,AL,251,US
36532,Fairhope,AL,251,US
36533,Fairhope,AL,251,US
36535,Foley,AL,251,US
36536,Foley,AL,251,US
36538,Frankville,AL,251,US
36539,Fruitdale,AL,251,US
36540,Gainestown,AL,251,US
36541,Grand Bay,AL,251,US
36542,Gulf Shores,AL,251,US
36543,Huxford,AL,251,US
36544,Irvington,AL,251,US
36545,Jackson,AL,251,US
36547,Gulf Shores,AL,251,US
36548,Leroy,AL,251,US
36549,Lillian,AL,251,US
36550,Little River,AL,251,US
36551,Loxley,AL,251,US
36553,Mc Intosh,AL,251,US
36555,Magnolia Springs,AL,251,US
36556,Malcolm,AL,251,US
36558,Millry,AL,251,US
36559,Montrose,AL,251,US
36560,Mount Vernon,AL,251,US
36561,Orange Beach,AL,251,US
36562,Perdido,AL,251,US
36564,Point Clear,AL,251,US
36567,Robertsdale,AL,251,US
36568,Saint Elmo,AL,251,US
36569,Saint Stephens,AL,251,US
36571,Saraland,AL,251,US
36572,Satsuma,AL,251,US
36574,Seminole,AL,251,US
36575,Semmes,AL,251,US
36576,Silverhill,AL,251,US
36577,Spanish Fort,AL,251,US
36578,Stapleton,AL,251,US
36579,Stockton,AL,251,US
36580,Summerdale,AL,251,US
36581,Sunflower,AL,251,US
36582,Theodore,AL,251,US
36583,Tibbie,AL,251,US
36584,Vinegar Bend,AL,251,US
36585,Wagarville,AL,251,US
36587,Wilmer,AL,"2,51,228",US
36590,Theodore,AL,251,US
36601,Mobile,AL,251,US
36602,Mobile,AL,251,US
36603,Mobile,AL,251,US
36604,Mobile,AL,251,US
36605,Mobile,AL,251,US
36606,Mobile,AL,251,US
36607,Mobile,AL,251,US
36608,Mobile,AL,251,US
36609,Mobile,AL,251,US
36610,Mobile,AL,251,US
36611,Mobile,AL,251,US
36612,Mobile,AL,251,US
36613,Eight Mile,AL,251,US
36615,Mobile,AL,251,US
36616,Mobile,AL,251,US
36617,Mobile,AL,251,US
36618,Mobile,AL,251,US
36619,Mobile,AL,251,US
36621,Mobile,AL,251,US
36622,Mobile,AL,251,US
36625,Mobile,AL,251,US
36628,Mobile,AL,251,US
36630,Mobile,AL,251,US
36633,Mobile,AL,251,US
36640,Mobile,AL,251,US
36641,Mobile,AL,251,US
36644,Mobile,AL,251,US
36652,Mobile,AL,251,US
36660,Mobile,AL,251,US
36663,Mobile,AL,251,US
36670,Mobile,AL,251,US
36671,Mobile,AL,251,US
36675,Mobile,AL,251,US
36685,Mobile,AL,251,US
36688,Mobile,AL,251,US
36689,Mobile,AL,251,US
36690,Mobile,AL,251,US
36691,Mobile,AL,251,US
36693,Mobile,AL,251,US
36695,Mobile,AL,251,US
36701,Selma,AL,334,US
36702,Selma,AL,334,US
36703,Selma,AL,334,US
36720,Alberta,AL,334,US
36721,Annemanie,AL,,US
36722,Arlington,AL,334,US
36723,Boykin,AL,334,US
36726,Camden,AL,334,US
36727,Campbell,AL,,US
36728,Catherine,AL,334,US
36732,Demopolis,AL,334,US
36736,Dixons Mills,AL,334,US
36738,Faunsdale,AL,334,US
36740,Forkland,AL,334,US
36741,Furman,AL,,US
36742,Gallion,AL,334,US
36744,Greensboro,AL,334,US
36745,Jefferson,AL,334,US
36748,Linden,AL,334,US
36749,Jones,AL,334,US
36750,Maplesville,AL,"3,34,205",US
36751,Lower Peach Tree,AL,334,US
36752,Lowndesboro,AL,334,US
36753,Mc Williams,AL,,US
36754,Magnolia,AL,334,US
36756,Marion,AL,334,US
36758,Plantersville,AL,334,US
36759,Marion Junction,AL,334,US
36761,Minter,AL,334,US
36762,Morvin,AL,,US
36763,Myrtlewood,AL,334,US
36764,Nanafalia,AL,334,US
36765,Newbern,AL,334,US
36766,Oak Hill,AL,,US
36767,Orrville,AL,334,US
36768,Pine Apple,AL,251,US
36769,Pine Hill,AL,334,US
36773,Safford,AL,334,US
36775,Sardis,AL,334,US
36776,Sawyerville,AL,"3,34,205",US
36782,Sweet Water,AL,334,US
36783,Thomaston,AL,334,US
36784,Thomasville,AL,334,US
36785,Tyler,AL,334,US
36786,Uniontown,AL,334,US
36790,Stanton,AL,334,US
36792,Randolph,AL,"3,34,205",US
36793,Lawley,AL,334,US
36801,Opelika,AL,"2,51,334",US
36802,Opelika,AL,334,US
36803,Opelika,AL,334,US
36804,Opelika,AL,334,US
36830,Auburn,AL,334,US
36831,Auburn,AL,334,US
36832,Auburn,AL,334,US
36849,Auburn University,AL,334,US
36850,Camp Hill,AL,"2,56,334",US
36851,Cottonton,AL,334,US
36852,Cusseta,AL,334,US
36853,Dadeville,AL,256,US
36854,Valley,AL,334,US
36855,Five Points,AL,334,US
36856,Fort Mitchell,AL,334,US
36858,Hatchechubbee,AL,334,US
36859,Holy Trinity,AL,334,US
36860,Hurtsboro,AL,334,US
36861,Jacksons Gap,AL,256,US
36862,Lafayette,AL,334,US
36863,Lanett,AL,334,US
36865,Loachapoka,AL,,US
36866,Notasulga,AL,334,US
36867,Phenix City,AL,334,US
36868,Phenix City,AL,334,US
36869,Phenix City,AL,334,US
36870,Phenix City,AL,334,US
36871,Pittsview,AL,334,US
36872,Valley,AL,334,US
36874,Salem,AL,334,US
36875,Seale,AL,334,US
36877,Smiths Station,AL,334,US
36879,Waverly,AL,"3,34,256",US
36901,Bellamy,AL,205,US
36904,Butler,AL,205,US
36907,Cuba,AL,205,US
36908,Gilbertown,AL,"2,51,205",US
36910,Jachin,AL,205,US
36912,Lisman,AL,205,US
36913,Melvin,AL,251,US
36915,Needham,AL,"2,05,251",US
36916,Pennington,AL,205,US
36919,Silas,AL,251,US
36921,Toxey,AL,"2,51,205",US
36922,Ward,AL,205,US
36925,York,AL,205,US
37010,Adams,TN,"6,15,931",US
37011,Antioch,TN,615,US
37012,Alexandria,TN,615,US
37013,Antioch,TN,615,US
37014,Arrington,TN,615,US
37015,Ashland City,TN,"6,15,931",US
37016,Auburntown,TN,615,US
37018,Beechgrove,TN,931,US
37019,Belfast,TN,931,US
37020,Bell Buckle,TN,"6,15,931",US
37022,Bethpage,TN,615,US
37023,Big Rock,TN,931,US
37024,Brentwood,TN,615,US
37025,Bon Aqua,TN,"6,15,931",US
37026,Bradyville,TN,615,US
37027,Brentwood,TN,615,US
37028,Bumpus Mills,TN,931,US
37029,Burns,TN,615,US
37030,Carthage,TN,615,US
37031,Castalian Springs,TN,615,US
37032,Cedar Hill,TN,615,US
37033,Centerville,TN,931,US
37034,Chapel Hill,TN,931,US
37035,Chapmansboro,TN,"6,15,931",US
37036,Charlotte,TN,615,US
37037,Christiana,TN,"6,15,931",US
37040,Clarksville,TN,"6,15,931",US
37041,Clarksville,TN,931,US
37042,Clarksville,TN,931,US
37043,Clarksville,TN,"9,31,615",US
37044,Clarksville,TN,931,US
37046,College Grove,TN,"6,15,931",US
37047,Cornersville,TN,931,US
37048,Cottontown,TN,615,US
37049,Cross Plains,TN,615,US
37050,Cumberland City,TN,931,US
37051,Cumberland Furnace,TN,"6,15,931",US
37052,Cunningham,TN,"9,31,615",US
37055,Dickson,TN,"6,15,931",US
37056,Dickson,TN,615,US
37057,Dixon Springs,TN,615,US
37058,Dover,TN,931,US
37059,Dowelltown,TN,615,US
37060,Eagleville,TN,"6,15,931",US
37061,Erin,TN,931,US
37062,Fairview,TN,615,US
37063,Fosterville,TN,615,US
37064,Franklin,TN,615,US
37065,Franklin,TN,615,US
37066,Gallatin,TN,615,US
37067,Franklin,TN,615,US
37068,Franklin,TN,615,US
37069,Franklin,TN,615,US
37070,Goodlettsville,TN,615,US
37071,Gladeville,TN,615,US
37072,Goodlettsville,TN,615,US
37073,Greenbrier,TN,615,US
37074,Hartsville,TN,615,US
37075,Hendersonville,TN,615,US
37076,Hermitage,TN,615,US
37077,Hendersonville,TN,615,US
37078,Hurricane Mills,TN,931,US
37079,Indian Mound,TN,931,US
37080,Joelton,TN,615,US
37082,Kingston Springs,TN,615,US
37083,Lafayette,TN,615,US
37085,Lascassas,TN,615,US
37086,La Vergne,TN,615,US
37087,Lebanon,TN,615,US
37088,Lebanon,TN,615,US
37089,La Vergne,TN,615,US
37090,Lebanon,TN,615,US
37091,Lewisburg,TN,931,US
37095,Liberty,TN,615,US
37096,Linden,TN,931,US
37097,Lobelville,TN,931,US
37098,Lyles,TN,"9,31,615",US
37101,Mc Ewen,TN,931,US
37110,Mcminnville,TN,931,US
37111,Mcminnville,TN,931,US
37115,Madison,TN,615,US
37116,Madison,TN,615,US
37118,Milton,TN,615,US
37119,Mitchellville,TN,615,US
37121,Mount Juliet,TN,615,US
37122,Mount Juliet,TN,615,US
37127,Murfreesboro,TN,615,US
37128,Murfreesboro,TN,615,US
37129,Murfreesboro,TN,615,US
37130,Murfreesboro,TN,615,US
37131,Murfreesboro,TN,615,US
37132,Murfreesboro,TN,615,US
37133,Murfreesboro,TN,615,US
37134,New Johnsonville,TN,931,US
37135,Nolensville,TN,615,US
37136,Norene,TN,615,US
37137,Nunnelly,TN,931,US
37138,Old Hickory,TN,615,US
37140,Only,TN,931,US
37141,Orlinda,TN,615,US
37142,Palmyra,TN,931,US
37143,Pegram,TN,615,US
37144,Petersburg,TN,931,US
37145,Pleasant Shade,TN,615,US
37146,Pleasant View,TN,615,US
37148,Portland,TN,615,US
37149,Readyville,TN,,US
37150,Red Boiling Springs,TN,615,US
37151,Riddleton,TN,615,US
37152,Ridgetop,TN,,US
37153,Rockvale,TN,615,US
37160,Shelbyville,TN,"9,31,615",US
37161,Shelbyville,TN,931,US
37162,Shelbyville,TN,931,US
37165,Slayden,TN,615,US
37166,Smithville,TN,"6,15,931",US
37167,Smyrna,TN,"6,15,931",US
37171,Southside,TN,"9,31,615",US
37172,Springfield,TN,615,US
37174,Spring Hill,TN,"6,15,931",US
37175,Stewart,TN,931,US
37178,Tennessee Ridge,TN,931,US
37179,Thompsons Station,TN,615,US
37180,Unionville,TN,931,US
37181,Vanleer,TN,"9,31,615",US
37183,Wartrace,TN,931,US
37184,Watertown,TN,615,US
37185,Waverly,TN,931,US
37186,Westmoreland,TN,615,US
37187,White Bluff,TN,615,US
37188,White House,TN,615,US
37189,Whites Creek,TN,615,US
37190,Woodbury,TN,"6,15,931",US
37191,Woodlawn,TN,931,US
37201,Nashville,TN,615,US
37202,Nashville,TN,615,US
37203,Nashville,TN,615,US
37204,Nashville,TN,615,US
37205,Nashville,TN,615,US
37206,Nashville,TN,615,US
37207,Nashville,TN,"6,15,865",US
37208,Nashville,TN,615,US
37209,Nashville,TN,615,US
37210,Nashville,TN,615,US
37211,Nashville,TN,615,US
37212,Nashville,TN,615,US
37213,Nashville,TN,615,US
37214,Nashville,TN,615,US
37215,Nashville,TN,615,US
37216,Nashville,TN,615,US
37217,Nashville,TN,615,US
37218,Nashville,TN,615,US
37219,Nashville,TN,615,US
37220,Nashville,TN,615,US
37221,Nashville,TN,615,US
37222,Nashville,TN,615,US
37224,Nashville,TN,615,US
37227,Nashville,TN,615,US
37228,Nashville,TN,615,US
37229,Nashville,TN,615,US
37230,Nashville,TN,615,US
37232,Nashville,TN,615,US
37234,Nashville,TN,615,US
37235,Nashville,TN,615,US
37236,Nashville,TN,615,US
37237,Nashville,TN,615,US
37238,Nashville,TN,615,US
37240,Nashville,TN,615,US
37241,Nashville,TN,615,US
37242,Nashville,TN,615,US
37243,Nashville,TN,615,US
37244,Nashville,TN,615,US
37245,Nashville,TN,615,US
37246,Nashville,TN,615,US
37247,Nashville,TN,615,US
37248,Nashville,TN,615,US
37249,Nashville,TN,615,US
37250,Nashville,TN,615,US
37301,Altamont,TN,931,US
37302,Apison,TN,423,US
37303,Athens,TN,423,US
37304,Bakewell,TN,423,US
37305,Beersheba Springs,TN,931,US
37306,Belvidere,TN,931,US
37307,Benton,TN,423,US
37308,Birchwood,TN,423,US
37309,Calhoun,TN,423,US
37310,Charleston,TN,423,US
37311,Cleveland,TN,423,US
37312,Cleveland,TN,423,US
37313,Coalmont,TN,931,US
37314,Coker Creek,TN,423,US
37315,Collegedale,TN,423,US
37316,Conasauga,TN,423,US
37317,Copperhill,TN,423,US
37318,Cowan,TN,931,US
37320,Cleveland,TN,423,US
37321,Dayton,TN,423,US
37322,Decatur,TN,423,US
37323,Cleveland,TN,423,US
37324,Decherd,TN,931,US
37325,Delano,TN,423,US
37326,Ducktown,TN,423,US
37327,Dunlap,TN,423,US
37328,Elora,TN,931,US
37329,Englewood,TN,423,US
37330,Estill Springs,TN,931,US
37331,Etowah,TN,423,US
37332,Evensville,TN,423,US
37333,Farner,TN,423,US
37334,Fayetteville,TN,931,US
37335,Flintville,TN,931,US
37336,Georgetown,TN,423,US
37337,Grandview,TN,423,US
37338,Graysville,TN,423,US
37339,Gruetli Laager,TN,931,US
37340,Guild,TN,423,US
37341,Harrison,TN,423,US
37342,Hillsboro,TN,931,US
37343,Hixson,TN,423,US
37345,Huntland,TN,931,US
37347,Jasper,TN,423,US
37348,Kelso,TN,931,US
37349,Manchester,TN,931,US
37350,Lookout Mountain,TN,423,US
37351,Lupton City,TN,423,US
37352,Lynchburg,TN,931,US
37353,Mc Donald,TN,423,US
37354,Madisonville,TN,423,US
37355,Manchester,TN,931,US
37356,Monteagle,TN,931,US
37357,Morrison,TN,931,US
37359,Mulberry,TN,931,US
37360,Normandy,TN,931,US
37361,Ocoee,TN,423,US
37362,Old Fort,TN,423,US
37363,Ooltewah,TN,423,US
37364,Cleveland,TN,423,US
37365,Palmer,TN,931,US
37366,Pelham,TN,931,US
37367,Pikeville,TN,423,US
37369,Reliance,TN,423,US
37370,Riceville,TN,423,US
37371,Athens,TN,423,US
37373,Sale Creek,TN,423,US
37374,Sequatchie,TN,"4,23,931",US
37375,Sewanee,TN,931,US
37376,Sherwood,TN,931,US
37377,Signal Mountain,TN,423,US
37378,Smartt,TN,931,US
37379,Soddy Daisy,TN,423,US
37380,South Pittsburg,TN,"93,14,23,865",US
37381,Spring City,TN,423,US
37382,Summitville,TN,931,US
37383,Sewanee,TN,931,US
37384,Soddy Daisy,TN,423,US
37385,Tellico Plains,TN,423,US
37387,Tracy City,TN,931,US
37388,Tullahoma,TN,931,US
37389,Arnold Afb,TN,931,US
37391,Turtletown,TN,423,US
37394,Viola,TN,931,US
37396,Whiteside,TN,423,US
37397,Whitwell,TN,423,US
37398,Winchester,TN,931,US
37401,Chattanooga,TN,423,US
37402,Chattanooga,TN,"4,23,931",US
37403,Chattanooga,TN,423,US
37404,Chattanooga,TN,423,US
37405,Chattanooga,TN,423,US
37406,Chattanooga,TN,423,US
37407,Chattanooga,TN,423,US
37408,Chattanooga,TN,423,US
37409,Chattanooga,TN,423,US
37410,Chattanooga,TN,423,US
37411,Chattanooga,TN,423,US
37412,Chattanooga,TN,423,US
37414,Chattanooga,TN,423,US
37415,Chattanooga,TN,423,US
37416,Chattanooga,TN,423,US
37419,Chattanooga,TN,423,US
37421,Chattanooga,TN,423,US
37422,Chattanooga,TN,423,US
37424,Chattanooga,TN,423,US
37450,Chattanooga,TN,423,US
37501,Memphis,TN,901,US
37544,Memphis,TN,901,US
37601,Johnson City,TN,423,US
37602,Johnson City,TN,423,US
37604,Johnson City,TN,"4,23,615",US
37605,Johnson City,TN,423,US
37614,Johnson City,TN,423,US
37615,Johnson City,TN,423,US
37616,Afton,TN,423,US
37617,Blountville,TN,423,US
37618,Bluff City,TN,"6,15,423",US
37620,Bristol,TN,423,US
37621,Bristol,TN,423,US
37625,Bristol,TN,423,US
37640,Butler,TN,423,US
37641,Chuckey,TN,423,US
37642,Church Hill,TN,423,US
37643,Elizabethton,TN,423,US
37644,Elizabethton,TN,423,US
37645,Mount Carmel,TN,423,US
37650,Erwin,TN,423,US
37656,Fall Branch,TN,423,US
37657,Flag Pond,TN,423,US
37658,Hampton,TN,423,US
37659,Jonesborough,TN,423,US
37660,Kingsport,TN,"4,23,615",US
37662,Kingsport,TN,423,US
37663,Kingsport,TN,423,US
37664,Kingsport,TN,423,US
37665,Kingsport,TN,423,US
37669,Kingsport,TN,423,US
37680,Laurel Bloomery,TN,"8,65,423",US
37681,Limestone,TN,423,US
37682,Milligan College,TN,423,US
37683,Mountain City,TN,423,US
37684,Mountain Home,TN,423,US
37686,Piney Flats,TN,423,US
37687,Roan Mountain,TN,423,US
37688,Shady Valley,TN,423,US
37690,Telford,TN,423,US
37691,Trade,TN,423,US
37692,Unicoi,TN,423,US
37694,Watauga,TN,423,US
37699,Piney Flats,TN,423,US
37701,Alcoa,TN,865,US
37705,Andersonville,TN,865,US
37707,Arthur,TN,423,US
37708,Bean Station,TN,865,US
37709,Blaine,TN,865,US
37710,Briceville,TN,"8,65,423",US
37711,Bulls Gap,TN,423,US
37713,Bybee,TN,"4,23,865",US
37714,Caryville,TN,"8,65,423",US
37715,Clairfield,TN,423,US
37716,Clinton,TN,865,US
37717,Clinton,TN,865,US
37719,Coalfield,TN,423,US
37721,Corryton,TN,865,US
37722,Cosby,TN,"8,65,423",US
37723,Crab Orchard,TN,931,US
37724,Cumberland Gap,TN,"4,23,865",US
37725,Dandridge,TN,865,US
37726,Deer Lodge,TN,"4,23,931",US
37727,Del Rio,TN,423,US
37729,Duff,TN,423,US
37730,Eagan,TN,423,US
37731,Eidson,TN,423,US
37732,Elgin,TN,423,US
37733,Rugby,TN,423,US
37737,Friendsville,TN,865,US
37738,Gatlinburg,TN,865,US
37742,Greenback,TN,865,US
37743,Greeneville,TN,423,US
37744,Greeneville,TN,423,US
37745,Greeneville,TN,423,US
37748,Harriman,TN,"8,65,423",US
37752,Harrogate,TN,423,US
37753,Hartford,TN,423,US
37754,Heiskell,TN,865,US
37755,Helenwood,TN,423,US
37756,Huntsville,TN,423,US
37757,Jacksboro,TN,423,US
37760,Jefferson City,TN,865,US
37762,Jellico,TN,"8,65,423",US
37763,Kingston,TN,865,US
37764,Kodak,TN,865,US
37765,Kyles Ford,TN,423,US
37766,La Follette,TN,423,US
37769,Lake City,TN,865,US
37770,Lancing,TN,423,US
37771,Lenoir City,TN,865,US
37772,Lenoir City,TN,865,US
37773,Lone Mountain,TN,423,US
37774,Loudon,TN,865,US
37777,Louisville,TN,865,US
37778,Lowland,TN,423,US
37779,Luttrell,TN,865,US
37801,Maryville,TN,865,US
37802,Maryville,TN,865,US
37803,Maryville,TN,865,US
37804,Maryville,TN,865,US
37806,Mascot,TN,865,US
37807,Maynardville,TN,865,US
37809,Midway,TN,423,US
37810,Mohawk,TN,423,US
37811,Mooresburg,TN,"8,65,423",US
37813,Morristown,TN,"4,23,865",US
37814,Morristown,TN,"4,23,865",US
37815,Morristown,TN,423,US
37816,Morristown,TN,423,US
37818,Mosheim,TN,423,US
37819,Newcomb,TN,423,US
37820,New Market,TN,865,US
37821,Newport,TN,"4,23,865",US
37822,Newport,TN,865,US
37824,New Tazewell,TN,423,US
37825,New Tazewell,TN,"4,23,865",US
37826,Niota,TN,423,US
37828,Norris,TN,865,US
37829,Oakdale,TN,423,US
37830,Oak Ridge,TN,"6,15,865",US
37831,Oak Ridge,TN,865,US
37840,Oliver Springs,TN,"8,65,423",US
37841,Oneida,TN,423,US
37843,Parrottsville,TN,"4,23,865",US
37845,Petros,TN,423,US
37846,Philadelphia,TN,"8,65,423",US
37847,Pioneer,TN,423,US
37848,Powder Springs,TN,865,US
37849,Powell,TN,865,US
37851,Pruden,TN,423,US
37852,Robbins,TN,423,US
37853,Rockford,TN,865,US
37854,Rockwood,TN,"8,65,423",US
37857,Rogersville,TN,"4,23,615",US
37860,Russellville,TN,423,US
37861,Rutledge,TN,865,US
37862,Sevierville,TN,865,US
37863,Pigeon Forge,TN,865,US
37864,Sevierville,TN,865,US
37865,Seymour,TN,865,US
37866,Sharps Chapel,TN,865,US
37867,Shawanee,TN,423,US
37868,Pigeon Forge,TN,865,US
37869,Sneedville,TN,423,US
37870,Speedwell,TN,423,US
37871,Strawberry Plains,TN,865,US
37872,Sunbright,TN,423,US
37873,Surgoinsville,TN,423,US
37874,Sweetwater,TN,"4,23,865",US
37876,Sevierville,TN,865,US
37877,Talbott,TN,"8,65,423",US
37878,Tallassee,TN,865,US
37879,Tazewell,TN,423,US
37880,Ten Mile,TN,"4,23,865",US
37881,Thorn Hill,TN,"8,65,423",US
37882,Townsend,TN,865,US
37885,Vonore,TN,423,US
37886,Walland,TN,865,US
37887,Wartburg,TN,423,US
37888,Washburn,TN,865,US
37890,White Pine,TN,865,US
37891,Whitesburg,TN,423,US
37892,Winfield,TN,"4,23,615",US
37901,Knoxville,TN,865,US
37902,Knoxville,TN,865,US
37909,Knoxville,TN,"4,23,865",US
37912,Knoxville,TN,"4,23,865",US
37914,Knoxville,TN,865,US
37915,Knoxville,TN,865,US
37916,Knoxville,TN,865,US
37917,Knoxville,TN,865,US
37918,Knoxville,TN,865,US
37919,Knoxville,TN,865,US
37920,Knoxville,TN,865,US
37921,Knoxville,TN,865,US
37922,Knoxville,TN,"4,23,865",US
37923,Knoxville,TN,865,US
37924,Knoxville,TN,865,US
37927,Knoxville,TN,865,US
37928,Knoxville,TN,865,US
37929,Knoxville,TN,865,US
37930,Knoxville,TN,865,US
37931,Knoxville,TN,865,US
37932,Knoxville,TN,865,US
37933,Knoxville,TN,865,US
37934,Knoxville,TN,865,US
37938,Knoxville,TN,865,US
37939,Knoxville,TN,865,US
37940,Knoxville,TN,865,US
37950,Knoxville,TN,865,US
37990,Knoxville,TN,865,US
37995,Knoxville,TN,865,US
37996,Knoxville,TN,865,US
37997,Knoxville,TN,865,US
37998,Knoxville,TN,865,US
38001,Alamo,TN,731,US
38002,Arlington,TN,901,US
38004,Atoka,TN,901,US
38006,Bells,TN,"7,31,901",US
38007,Bogota,TN,731,US
38008,Bolivar,TN,731,US
38010,Braden,TN,901,US
38011,Brighton,TN,"7,31,901",US
38012,Brownsville,TN,"7,31,901",US
38014,Brunswick,TN,901,US
38015,Burlison,TN,901,US
38016,Cordova,TN,901,US
38017,Collierville,TN,"9,01,662",US
38018,Cordova,TN,901,US
38019,Covington,TN,901,US
38021,Crockett Mills,TN,731,US
38023,Drummonds,TN,901,US
38024,Dyersburg,TN,731,US
38025,Dyersburg,TN,731,US
38027,Collierville,TN,901,US
38028,Eads,TN,901,US
38029,Ellendale,TN,901,US
38030,Finley,TN,731,US
38034,Friendship,TN,731,US
38036,Gallaway,TN,901,US
38037,Gates,TN,731,US
38039,Grand Junction,TN,"7,31,901",US
38040,Halls,TN,731,US
38041,Henning,TN,"7,31,901",US
38042,Hickory Valley,TN,731,US
38044,Hornsby,TN,731,US
38045,Laconia,TN,901,US
38046,La Grange,TN,901,US
38047,Lenox,TN,731,US
38048,Macon,TN,901,US
38049,Mason,TN,901,US
38050,Maury City,TN,731,US
38052,Middleton,TN,731,US
38053,Millington,TN,901,US
38054,Millington,TN,901,US
38055,Millington,TN,901,US
38057,Moscow,TN,901,US
38058,Munford,TN,901,US
38059,Newbern,TN,731,US
38060,Oakland,TN,901,US
38061,Pocahontas,TN,731,US
38063,Ripley,TN,731,US
38066,Rossville,TN,901,US
38067,Saulsbury,TN,731,US
38068,Somerville,TN,901,US
38069,Stanton,TN,731,US
38070,Tigrett,TN,731,US
38071,Tipton,TN,901,US
38075,Whiteville,TN,"7,31,901",US
38076,Williston,TN,901,US
38077,Wynnburg,TN,731,US
38079,Tiptonville,TN,731,US
38080,Ridgely,TN,731,US
38083,Millington,TN,901,US
38088,Cordova,TN,901,US
38101,Memphis,TN,901,US
38103,Memphis,TN,901,US
38104,Memphis,TN,"9,01,615",US
38105,Memphis,TN,901,US
38106,Memphis,TN,901,US
38107,Memphis,TN,901,US
38108,Memphis,TN,901,US
38109,Memphis,TN,901,US
38110,Memphis,TN,901,US
38111,Memphis,TN,901,US
38112,Memphis,TN,"9,01,931",US
38113,Memphis,TN,901,US
38114,Memphis,TN,901,US
38115,Memphis,TN,901,US
38116,Memphis,TN,901,US
38117,Memphis,TN,901,US
38118,Memphis,TN,"9,01,731",US
38119,Memphis,TN,"9,01,615",US
38120,Memphis,TN,901,US
38122,Memphis,TN,901,US
38124,Memphis,TN,901,US
38125,Memphis,TN,901,US
38126,Memphis,TN,901,US
38127,Memphis,TN,901,US
38128,Memphis,TN,901,US
38130,Memphis,TN,901,US
38131,Memphis,TN,901,US
38132,Memphis,TN,901,US
38133,Memphis,TN,901,US
38134,Memphis,TN,"7,31,901",US
38135,Memphis,TN,901,US
38136,Memphis,TN,901,US
38137,Memphis,TN,901,US
38138,Germantown,TN,901,US
38139,Germantown,TN,901,US
38141,Memphis,TN,901,US
38142,Memphis,TN,901,US
38145,Memphis,TN,901,US
38147,Memphis,TN,901,US
38148,Memphis,TN,901,US
38150,Memphis,TN,901,US
38151,Memphis,TN,901,US
38152,Memphis,TN,901,US
38157,Memphis,TN,901,US
38159,Memphis,TN,901,US
38161,Memphis,TN,901,US
38163,Memphis,TN,901,US
38165,Memphis,TN,901,US
38166,Memphis,TN,901,US
38167,Memphis,TN,901,US
38168,Memphis,TN,901,US
38173,Memphis,TN,901,US
38174,Memphis,TN,901,US
38175,Memphis,TN,901,US
38177,Memphis,TN,901,US
38181,Memphis,TN,901,US
38182,Memphis,TN,901,US
38183,Germantown,TN,901,US
38184,Memphis,TN,901,US
38186,Memphis,TN,901,US
38187,Memphis,TN,901,US
38188,Memphis,TN,901,US
38190,Memphis,TN,901,US
38193,Memphis,TN,901,US
38194,Memphis,TN,901,US
38197,Memphis,TN,901,US
38201,Mc Kenzie,TN,731,US
38220,Atwood,TN,731,US
38221,Big Sandy,TN,731,US
38222,Buchanan,TN,731,US
38223,Como,TN,731,US
38224,Cottage Grove,TN,731,US
38225,Dresden,TN,731,US
38226,Dukedom,TN,731,US
38227,Elbridge,TN,,US
38229,Gleason,TN,731,US
38230,Greenfield,TN,731,US
38231,Henry,TN,731,US
38232,Hornbeak,TN,731,US
38233,Kenton,TN,731,US
38235,Mc Lemoresville,TN,731,US
38236,Mansfield,TN,731,US
38237,Martin,TN,"7,31,901",US
38238,Martin,TN,731,US
38240,Obion,TN,"9,01,731",US
38241,Palmersville,TN,731,US
38242,Paris,TN,731,US
38251,Puryear,TN,731,US
38253,Rives,TN,731,US
38254,Samburg,TN,731,US
38255,Sharon,TN,731,US
38256,Springville,TN,731,US
38257,South Fulton,TN,731,US
38258,Trezevant,TN,731,US
38259,Trimble,TN,731,US
38260,Troy,TN,731,US
38261,Union City,TN,"7,31,270",US
38271,Woodland Mills,TN,731,US
38281,Union City,TN,731,US
38301,Jackson,TN,"7,31,901",US
38302,Jackson,TN,731,US
38303,Jackson,TN,731,US
38305,Jackson,TN,731,US
38308,Jackson,TN,731,US
38310,Adamsville,TN,731,US
38311,Bath Springs,TN,731,US
38313,Beech Bluff,TN,731,US
38314,Jackson,TN,731,US
38315,Bethel Springs,TN,731,US
38316,Bradford,TN,731,US
38317,Bruceton,TN,731,US
38318,Buena Vista,TN,731,US
38320,Camden,TN,731,US
38321,Cedar Grove,TN,731,US
38324,Clarksburg,TN,731,US
38326,Counce,TN,731,US
38327,Crump,TN,731,US
38328,Darden,TN,731,US
38329,Decaturville,TN,731,US
38330,Dyer,TN,731,US
38331,Eaton,TN,731,US
38332,Enville,TN,731,US
38333,Eva,TN,731,US
38334,Finger,TN,731,US
38336,Fruitvale,TN,731,US
38337,Gadsden,TN,731,US
38338,Gibson,TN,731,US
38339,Guys,TN,731,US
38340,Henderson,TN,731,US
38341,Holladay,TN,731,US
38342,Hollow Rock,TN,731,US
38343,Humboldt,TN,731,US
38344,Huntingdon,TN,731,US
38345,Huron,TN,731,US
38346,Idlewild,TN,731,US
38347,Jacks Creek,TN,731,US
38348,Lavinia,TN,731,US
38351,Lexington,TN,"7,31,901",US
38352,Luray,TN,731,US
38355,Medina,TN,731,US
38356,Medon,TN,731,US
38357,Michie,TN,731,US
38358,Milan,TN,731,US
38359,Milledgeville,TN,731,US
38361,Morris Chapel,TN,731,US
38362,Oakfield,TN,731,US
38363,Parsons,TN,731,US
38365,Pickwick Dam,TN,731,US
38366,Pinson,TN,731,US
38367,Ramer,TN,731,US
38368,Reagan,TN,731,US
38369,Rutherford,TN,731,US
38370,Saltillo,TN,731,US
38371,Sardis,TN,731,US
38372,Savannah,TN,731,US
38374,Scotts Hill,TN,731,US
38375,Selmer,TN,731,US
38376,Shiloh,TN,731,US
38377,Silerton,TN,731,US
38378,Spring Creek,TN,731,US
38379,Stantonville,TN,731,US
38380,Sugar Tree,TN,,US
38381,Toone,TN,731,US
38382,Trenton,TN,731,US
38387,Westport,TN,731,US
38388,Wildersville,TN,731,US
38389,Yorkville,TN,731,US
38390,Yuma,TN,731,US
38391,Denmark,TN,731,US
38392,Mercer,TN,731,US
38393,Chewalla,TN,731,US
38401,Columbia,TN,"9,31,615",US
38402,Columbia,TN,931,US
38425,Clifton,TN,931,US
38449,Ardmore,TN,931,US
38450,Collinwood,TN,931,US
38451,Culleoka,TN,931,US
38452,Cypress Inn,TN,931,US
38453,Dellrose,TN,931,US
38454,Duck River,TN,931,US
38455,Elkton,TN,931,US
38456,Ethridge,TN,931,US
38457,Five Points,TN,931,US
38459,Frankewing,TN,931,US
38460,Goodspring,TN,931,US
38461,Hampshire,TN,931,US
38462,Hohenwald,TN,"9,31,615",US
38463,Iron City,TN,931,US
38464,Lawrenceburg,TN,931,US
38468,Leoma,TN,931,US
38469,Loretto,TN,931,US
38471,Lutts,TN,931,US
38472,Lynnville,TN,931,US
38473,Minor Hill,TN,931,US
38474,Mount Pleasant,TN,931,US
38475,Olivehill,TN,731,US
38476,Primm Springs,TN,"9,31,615",US
38477,Prospect,TN,931,US
38478,Pulaski,TN,931,US
38481,Saint Joseph,TN,931,US
38482,Santa Fe,TN,931,US
38483,Summertown,TN,931,US
38485,Waynesboro,TN,931,US
38486,Westpoint,TN,931,US
38487,Williamsport,TN,931,US
38488,Taft,TN,931,US
38501,Cookeville,TN,"61,59,31,901",US
38502,Cookeville,TN,931,US
38503,Cookeville,TN,931,US
38504,Allardt,TN,931,US
38505,Cookeville,TN,931,US
38506,Cookeville,TN,931,US
38541,Allons,TN,931,US
38542,Allred,TN,931,US
38543,Alpine,TN,931,US
38544,Baxter,TN,931,US
38545,Bloomington Springs,TN,931,US
38547,Brush Creek,TN,615,US
38548,Buffalo Valley,TN,,US
38549,Byrdstown,TN,931,US
38550,Campaign,TN,931,US
38551,Celina,TN,931,US
38552,Chestnut Mound,TN,615,US
38553,Clarkrange,TN,931,US
38554,Crawford,TN,931,US
38555,Crossville,TN,931,US
38556,Jamestown,TN,931,US
38557,Crossville,TN,931,US
38558,Crossville,TN,931,US
38559,Doyle,TN,931,US
38560,Elmwood,TN,615,US
38562,Gainesboro,TN,931,US
38563,Gordonsville,TN,615,US
38564,Granville,TN,"9,31,615",US
38565,Grimsley,TN,931,US
38567,Hickman,TN,615,US
38568,Hilham,TN,931,US
38569,Lancaster,TN,615,US
38570,Livingston,TN,931,US
38571,Crossville,TN,931,US
38572,Crossville,TN,931,US
38573,Monroe,TN,,US
38574,Monterey,TN,931,US
38575,Moss,TN,931,US
38577,Pall Mall,TN,931,US
38578,Pleasant Hill,TN,931,US
38579,Quebeck,TN,931,US
38580,Rickman,TN,931,US
38581,Rock Island,TN,931,US
38582,Silver Point,TN,931,US
38583,Sparta,TN,931,US
38585,Spencer,TN,931,US
38587,Walling,TN,931,US
38588,Whitleyville,TN,931,US
38589,Wilder,TN,931,US
38601,Abbeville,MS,662,US
38602,Arkabutla,MS,662,US
38603,Ashland,MS,662,US
38606,Batesville,MS,"6,62,601",US
38609,Belen,MS,662,US
38610,Blue Mountain,MS,662,US
38611,Byhalia,MS,662,US
38614,Clarksdale,MS,"6,62,601",US
38617,Coahoma,MS,662,US
38618,Coldwater,MS,662,US
38619,Como,MS,662,US
38620,Courtland,MS,662,US
38621,Crenshaw,MS,662,US
38622,Crowder,MS,662,US
38623,Darling,MS,662,US
38625,Dumas,MS,662,US
38626,Dundee,MS,662,US
38627,Etta,MS,662,US
38628,Falcon,MS,662,US
38629,Falkner,MS,662,US
38630,Farrell,MS,662,US
38631,Friars Point,MS,662,US
38632,Hernando,MS,662,US
38633,Hickory Flat,MS,662,US
38634,Holly Springs,MS,662,US
38635,Holly Springs,MS,662,US
38637,Horn Lake,MS,662,US
38638,Independence,MS,662,US
38639,Jonestown,MS,662,US
38641,Lake Cormorant,MS,662,US
38642,Lamar,MS,662,US
38643,Lambert,MS,662,US
38644,Lula,MS,662,US
38645,Lyon,MS,662,US
38646,Marks,MS,662,US
38647,Michigan City,MS,662,US
38649,Mount Pleasant,MS,662,US
38650,Myrtle,MS,662,US
38651,Nesbit,MS,662,US
38652,New Albany,MS,662,US
38654,Olive Branch,MS,"6,62,901",US
38655,Oxford,MS,662,US
38658,Pope,MS,662,US
38659,Potts Camp,MS,662,US
38661,Red Banks,MS,662,US
38663,Ripley,MS,662,US
38664,Robinsonville,MS,662,US
38665,Sarah,MS,662,US
38666,Sardis,MS,662,US
38668,Senatobia,MS,662,US
38669,Sherard,MS,662,US
38670,Sledge,MS,662,US
38671,Southaven,MS,"6,62,901",US
38672,Southaven,MS,662,US
38673,Taylor,MS,662,US
38674,Tiplersville,MS,662,US
38675,Tula,MS,662,US
38676,Tunica,MS,662,US
38677,University,MS,662,US
38679,Victoria,MS,662,US
38680,Walls,MS,662,US
38683,Walnut,MS,662,US
38685,Waterford,MS,662,US
38686,Walls,MS,662,US
38701,Greenville,MS,662,US
38702,Greenville,MS,662,US
38703,Greenville,MS,662,US
38704,Greenville,MS,662,US
38720,Alligator,MS,662,US
38721,Anguilla,MS,662,US
38722,Arcola,MS,662,US
38723,Avon,MS,662,US
38725,Benoit,MS,662,US
38726,Beulah,MS,662,US
38730,Boyle,MS,662,US
38731,Chatham,MS,662,US
38732,Cleveland,MS,662,US
38733,Cleveland,MS,662,US
38736,Doddsville,MS,662,US
38737,Drew,MS,662,US
38738,Parchman,MS,662,US
38739,Dublin,MS,662,US
38740,Duncan,MS,662,US
38744,Glen Allan,MS,662,US
38745,Grace,MS,662,US
38746,Gunnison,MS,662,US
38748,Hollandale,MS,662,US
38749,Holly Ridge,MS,662,US
38751,Indianola,MS,662,US
38753,Inverness,MS,662,US
38754,Isola,MS,662,US
38756,Leland,MS,662,US
38759,Merigold,MS,662,US
38760,Metcalfe,MS,662,US
38761,Moorhead,MS,662,US
38762,Mound Bayou,MS,662,US
38764,Pace,MS,662,US
38765,Panther Burn,MS,662,US
38767,Rena Lara,MS,662,US
38768,Rome,MS,662,US
38769,Rosedale,MS,662,US
38771,Ruleville,MS,662,US
38772,Scott,MS,662,US
38773,Shaw,MS,662,US
38774,Shelby,MS,662,US
38776,Stoneville,MS,662,US
38778,Sunflower,MS,662,US
38780,Wayside,MS,662,US
38781,Winstonville,MS,662,US
38782,Winterville,MS,662,US
38801,Tupelo,MS,662,US
38802,Tupelo,MS,662,US
38803,Tupelo,MS,662,US
38804,Tupelo,MS,662,US
38820,Algoma,MS,662,US
38821,Amory,MS,662,US
38824,Baldwyn,MS,662,US
38825,Becker,MS,662,US
38826,Belden,MS,662,US
38827,Belmont,MS,662,US
38828,Blue Springs,MS,662,US
38829,Booneville,MS,662,US
38833,Burnsville,MS,662,US
38834,Corinth,MS,"6,01,662",US
38835,Corinth,MS,662,US
38838,Dennis,MS,662,US
38839,Derma,MS,662,US
38841,Ecru,MS,662,US
38843,Fulton,MS,662,US
38844,Gattman,MS,601,US
38846,Glen,MS,662,US
38847,Golden,MS,662,US
38848,Greenwood Springs,MS,662,US
38849,Guntown,MS,662,US
38850,Houlka,MS,662,US
38851,Houston,MS,662,US
38852,Iuka,MS,662,US
38855,Mantachie,MS,662,US
38856,Marietta,MS,662,US
38857,Mooreville,MS,662,US
38858,Nettleton,MS,662,US
38859,New Site,MS,662,US
38860,Okolona,MS,662,US
38862,Plantersville,MS,662,US
38863,Pontotoc,MS,662,US
38864,Randolph,MS,662,US
38865,Rienzi,MS,662,US
38866,Saltillo,MS,662,US
38868,Shannon,MS,662,US
38869,Sherman,MS,662,US
38870,Smithville,MS,662,US
38871,Thaxton,MS,662,US
38873,Tishomingo,MS,662,US
38874,Toccopola,MS,,US
38875,Trebloc,MS,662,US
38876,Tremont,MS,662,US
38877,Van Vleet,MS,662,US
38878,Vardaman,MS,662,US
38879,Verona,MS,662,US
38880,Wheeler,MS,662,US
38901,Grenada,MS,662,US
38902,Grenada,MS,662,US
38913,Banner,MS,662,US
38914,Big Creek,MS,662,US
38915,Bruce,MS,662,US
38916,Calhoun City,MS,662,US
38917,Carrollton,MS,662,US
38920,Cascilla,MS,662,US
38921,Charleston,MS,662,US
38922,Coffeeville,MS,662,US
38923,Coila,MS,662,US
38924,Cruger,MS,662,US
38925,Duck Hill,MS,662,US
38926,Elliott,MS,662,US
38927,Enid,MS,662,US
38928,Glendora,MS,662,US
38929,Gore Springs,MS,662,US
38930,Greenwood,MS,"6,62,601",US
38935,Greenwood,MS,662,US
38940,Holcomb,MS,662,US
38941,Itta Bena,MS,"6,62,601",US
38943,Mc Carley,MS,662,US
38944,Minter City,MS,662,US
38945,Money,MS,662,US
38946,Morgan City,MS,662,US
38947,North Carrollton,MS,662,US
38948,Oakland,MS,662,US
38949,Paris,MS,662,US
38950,Philipp,MS,662,US
38951,Pittsboro,MS,662,US
38952,Schlater,MS,662,US
38953,Scobey,MS,662,US
38954,Sidon,MS,662,US
38955,Slate Spring,MS,662,US
38957,Sumner,MS,662,US
38958,Swan Lake,MS,662,US
38959,Swiftown,MS,662,US
38960,Tie Plant,MS,662,US
38961,Tillatoba,MS,662,US
38962,Tippo,MS,662,US
38963,Tutwiler,MS,662,US
38964,Vance,MS,662,US
38965,Water Valley,MS,662,US
38966,Webb,MS,662,US
38967,Winona,MS,662,US
39038,Belzoni,MS,662,US
39039,Benton,MS,662,US
39040,Bentonia,MS,662,US
39041,Bolton,MS,601,US
39042,Brandon,MS,601,US
39043,Brandon,MS,601,US
39044,Braxton,MS,601,US
39045,Camden,MS,"6,62,601",US
39046,Canton,MS,601,US
39047,Brandon,MS,601,US
39051,Carthage,MS,"6,01,662",US
39054,Cary,MS,662,US
39056,Clinton,MS,601,US
39057,Conehatta,MS,601,US
39058,Clinton,MS,601,US
39059,Crystal Springs,MS,601,US
39060,Clinton,MS,601,US
39061,Delta City,MS,662,US
39062,D Lo,MS,601,US
39063,Durant,MS,662,US
39066,Edwards,MS,601,US
39067,Ethel,MS,662,US
39069,Fayette,MS,601,US
39071,Flora,MS,601,US
39072,Pocahontas,MS,601,US
39073,Florence,MS,601,US
39074,Forest,MS,"6,01,769",US
39077,Gallman,MS,601,US
39078,Georgetown,MS,601,US
39079,Goodman,MS,662,US
39080,Harperville,MS,601,US
39081,Harriston,MS,601,US
39082,Harrisville,MS,601,US
39083,Hazlehurst,MS,601,US
39086,Hermanville,MS,601,US
39087,Hillsboro,MS,601,US
39088,Holly Bluff,MS,662,US
39090,Kosciusko,MS,"6,62,601",US
39092,Lake,MS,"6,01,769",US
39094,Lena,MS,601,US
39095,Lexington,MS,662,US
39096,Lorman,MS,601,US
39097,Louise,MS,662,US
39098,Ludlow,MS,601,US
39107,Mc Adams,MS,662,US
39108,Mc Cool,MS,662,US
39109,Madden,MS,601,US
39110,Madison,MS,601,US
39111,Magee,MS,601,US
39113,Mayersville,MS,662,US
39114,Mendenhall,MS,601,US
39115,Midnight,MS,662,US
39116,Mize,MS,601,US
39117,Morton,MS,601,US
39119,Mount Olive,MS,"6,01,769",US
39120,Natchez,MS,"6,01,769",US
39121,Natchez,MS,601,US
39122,Natchez,MS,601,US
39130,Madison,MS,601,US
39140,Newhebron,MS,601,US
39144,Pattison,MS,601,US
39145,Pelahatchie,MS,601,US
39146,Pickens,MS,662,US
39148,Piney Woods,MS,601,US
39149,Pinola,MS,601,US
39150,Port Gibson,MS,601,US
39151,Puckett,MS,601,US
39152,Pulaski,MS,601,US
39153,Raleigh,MS,601,US
39154,Raymond,MS,601,US
39156,Redwood,MS,601,US
39157,Ridgeland,MS,601,US
39158,Ridgeland,MS,601,US
39159,Rolling Fork,MS,662,US
39160,Sallis,MS,662,US
39161,Sandhill,MS,601,US
39162,Satartia,MS,,US
39163,Sharon,MS,,US
39165,Sibley,MS,601,US
39166,Silver City,MS,,US
39167,Star,MS,601,US
39168,Taylorsville,MS,"6,01,769",US
39169,Tchula,MS,662,US
39170,Terry,MS,601,US
39171,Thomastown,MS,601,US
39173,Tinsley,MS,662,US
39174,Tougaloo,MS,,US
39175,Utica,MS,601,US
39176,Vaiden,MS,662,US
39177,Valley Park,MS,662,US
39179,Vaughan,MS,662,US
39180,Vicksburg,MS,"6,01,769",US
39181,Vicksburg,MS,601,US
39182,Vicksburg,MS,601,US
39183,Vicksburg,MS,601,US
39189,Walnut Grove,MS,601,US
39190,Washington,MS,601,US
39191,Wesson,MS,601,US
39192,West,MS,662,US
39193,Whitfield,MS,601,US
39194,Yazoo City,MS,662,US
39201,Jackson,MS,601,US
39202,Jackson,MS,601,US
39203,Jackson,MS,601,US
39204,Jackson,MS,601,US
39205,Jackson,MS,601,US
39206,Jackson,MS,601,US
39207,Jackson,MS,601,US
39208,Pearl,MS,601,US
39209,Jackson,MS,601,US
39210,Jackson,MS,601,US
39211,Jackson,MS,601,US
39212,Jackson,MS,601,US
39213,Jackson,MS,601,US
39215,Jackson,MS,601,US
39216,Jackson,MS,601,US
39217,Jackson,MS,601,US
39218,Richland,MS,601,US
39225,Jackson,MS,601,US
39232,Flowood,MS,601,US
39235,Jackson,MS,601,US
39236,Jackson,MS,601,US
39250,Jackson,MS,601,US
39269,Jackson,MS,"6,01,769",US
39271,Jackson,MS,601,US
39272,Byram,MS,601,US
39282,Jackson,MS,601,US
39283,Jackson,MS,601,US
39284,Jackson,MS,601,US
39286,Jackson,MS,601,US
39288,Pearl,MS,601,US
39289,Jackson,MS,601,US
39296,Jackson,MS,601,US
39298,Jackson,MS,601,US
39301,Meridian,MS,601,US
39302,Meridian,MS,601,US
39303,Meridian,MS,601,US
39304,Meridian,MS,601,US
39305,Meridian,MS,601,US
39307,Meridian,MS,601,US
39309,Meridian,MS,601,US
39320,Bailey,MS,"6,01,769",US
39322,Buckatunna,MS,601,US
39323,Chunky,MS,601,US
39324,Clara,MS,601,US
39325,Collinsville,MS,601,US
39326,Daleville,MS,601,US
39327,Decatur,MS,601,US
39328,De Kalb,MS,601,US
39330,Enterprise,MS,601,US
39332,Hickory,MS,601,US
39335,Lauderdale,MS,601,US
39336,Lawrence,MS,601,US
39337,Little Rock,MS,601,US
39338,Louin,MS,601,US
39339,Louisville,MS,662,US
39341,Macon,MS,662,US
39342,Marion,MS,601,US
39345,Newton,MS,601,US
39346,Noxapater,MS,"6,62,601",US
39347,Pachuta,MS,601,US
39348,Paulding,MS,601,US
39350,Philadelphia,MS,"60,16,62,769",US
39352,Porterville,MS,"6,62,601",US
39354,Preston,MS,"6,01,662",US
39355,Quitman,MS,601,US
39356,Rose Hill,MS,601,US
39358,Scooba,MS,662,US
39359,Sebastopol,MS,601,US
39360,Shubuta,MS,601,US
39361,Shuqualak,MS,662,US
39362,State Line,MS,601,US
39363,Stonewall,MS,601,US
39364,Toomsuba,MS,601,US
39365,Union,MS,601,US
39366,Vossburg,MS,601,US
39367,Waynesboro,MS,601,US
39401,Hattiesburg,MS,"6,01,769",US
39402,Hattiesburg,MS,601,US
39403,Hattiesburg,MS,601,US
39404,Hattiesburg,MS,601,US
39406,Hattiesburg,MS,601,US
39407,Hattiesburg,MS,601,US
39421,Bassfield,MS,601,US
39422,Bay Springs,MS,601,US
39423,Beaumont,MS,"6,01,769",US
39425,Brooklyn,MS,601,US
39426,Carriere,MS,601,US
39427,Carson,MS,601,US
39428,Collins,MS,"6,01,769",US
39429,Columbia,MS,601,US
39436,Eastabuchie,MS,601,US
39437,Ellisville,MS,601,US
39439,Heidelberg,MS,"6,01,769",US
39440,Laurel,MS,601,US
39441,Laurel,MS,601,US
39442,Laurel,MS,601,US
39443,Laurel,MS,601,US
39451,Leakesville,MS,601,US
39452,Lucedale,MS,"6,01,228",US
39455,Lumberton,MS,"6,01,769",US
39456,Mc Lain,MS,"6,01,769",US
39457,Mc Neill,MS,601,US
39459,Moselle,MS,601,US
39460,Moss,MS,601,US
39461,Neely,MS,601,US
39462,New Augusta,MS,601,US
39463,Nicholson,MS,601,US
39464,Ovett,MS,601,US
39465,Petal,MS,601,US
39466,Picayune,MS,"60,12,28,769",US
39470,Poplarville,MS,601,US
39474,Prentiss,MS,601,US
39475,Purvis,MS,"6,01,769",US
39476,Richton,MS,601,US
39477,Sandersville,MS,601,US
39478,Sandy Hook,MS,601,US
39479,Seminary,MS,601,US
39480,Soso,MS,601,US
39481,Stringer,MS,601,US
39482,Sumrall,MS,"6,01,769",US
39483,Foxworth,MS,601,US
39501,Gulfport,MS,228,US
39502,Gulfport,MS,228,US
39503,Gulfport,MS,228,US
39505,Gulfport,MS,228,US
39506,Gulfport,MS,228,US
39507,Gulfport,MS,"22,86,01,662",US
39520,Bay Saint Louis,MS,228,US
39521,Bay Saint Louis,MS,228,US
39522,Stennis Space Center,MS,228,US
39525,Diamondhead,MS,228,US
39529,Stennis Space Center,MS,228,US
39530,Biloxi,MS,228,US
39531,Biloxi,MS,228,US
39532,Biloxi,MS,228,US
39533,Biloxi,MS,228,US
39534,Biloxi,MS,228,US
39535,Biloxi,MS,228,US
39540,Diberville,MS,228,US
39552,Escatawpa,MS,228,US
39553,Gautier,MS,"22,86,01,662",US
39555,Hurley,MS,"6,01,228",US
39556,Kiln,MS,228,US
39558,Lakeshore,MS,228,US
39560,Long Beach,MS,"2,28,662",US
39561,Mc Henry,MS,601,US
39562,Moss Point,MS,228,US
39563,Moss Point,MS,"6,62,228",US
39564,Ocean Springs,MS,228,US
39565,Vancleave,MS,228,US
39566,Ocean Springs,MS,228,US
39567,Pascagoula,MS,"22,86,01,662",US
39568,Pascagoula,MS,228,US
39569,Pascagoula,MS,228,US
39571,Pass Christian,MS,228,US
39572,Pearlington,MS,"9,85,228",US
39573,Perkinston,MS,"6,01,228",US
39574,Saucier,MS,228,US
39576,Waveland,MS,228,US
39577,Wiggins,MS,601,US
39581,Pascagoula,MS,228,US
39595,Pascagoula,MS,228,US
39601,Brookhaven,MS,601,US
39602,Brookhaven,MS,601,US
39603,Brookhaven,MS,601,US
39629,Bogue Chitto,MS,601,US
39630,Bude,MS,601,US
39631,Centreville,MS,601,US
39632,Chatawa,MS,601,US
39633,Crosby,MS,601,US
39635,Fernwood,MS,601,US
39638,Gloster,MS,601,US
39641,Jayess,MS,601,US
39643,Kokomo,MS,601,US
39645,Liberty,MS,601,US
39647,Mc Call Creek,MS,601,US
39648,Mccomb,MS,"6,01,769",US
39649,Mccomb,MS,601,US
39652,Magnolia,MS,601,US
39653,Meadville,MS,601,US
39654,Monticello,MS,601,US
39656,Oak Vale,MS,601,US
39657,Osyka,MS,601,US
39661,Roxie,MS,601,US
39662,Ruth,MS,601,US
39663,Silver Creek,MS,601,US
39664,Smithdale,MS,601,US
39665,Sontag,MS,601,US
39666,Summit,MS,601,US
39667,Tylertown,MS,601,US
39668,Union Church,MS,601,US
39669,Woodville,MS,601,US
39701,Columbus,MS,662,US
39702,Columbus,MS,662,US
39703,Columbus,MS,662,US
39704,Columbus,MS,662,US
39705,Columbus,MS,662,US
39710,Columbus,MS,662,US
39730,Aberdeen,MS,662,US
39735,Ackerman,MS,662,US
39736,Artesia,MS,662,US
39737,Bellefontaine,MS,662,US
39739,Brooksville,MS,662,US
39740,Caledonia,MS,662,US
39741,Cedarbluff,MS,662,US
39743,Crawford,MS,662,US
39744,Eupora,MS,662,US
39745,French Camp,MS,662,US
39746,Hamilton,MS,662,US
39747,Kilmichael,MS,662,US
39750,Maben,MS,662,US
39751,Mantee,MS,662,US
39752,Mathiston,MS,662,US
39753,Mayhew,MS,662,US
39754,Montpelier,MS,662,US
39755,Pheba,MS,662,US
39756,Prairie,MS,662,US
39759,Starkville,MS,662,US
39760,Starkville,MS,662,US
39762,Mississippi State,MS,662,US
39766,Steens,MS,662,US
39767,Stewart,MS,662,US
39769,Sturgis,MS,662,US
39771,Walthall,MS,662,US
39772,Weir,MS,662,US
39773,West Point,MS,662,US
39776,Woodland,MS,662,US
39813,Arlington,GA,229,US
39815,Attapulgus,GA,229,US
39817,Bainbridge,GA,229,US
39818,Bainbridge,GA,229,US
39819,Bainbridge,GA,229,US
39823,Blakely,GA,229,US
39824,Bluffton,GA,229,US
39825,Brinson,GA,229,US
39826,Bronwood,GA,229,US
39827,Cairo,GA,229,US
39828,Cairo,GA,229,US
39829,Calvary,GA,229,US
39832,Cedar Springs,GA,229,US
39834,Climax,GA,229,US
39836,Coleman,GA,229,US
39837,Colquitt,GA,229,US
39840,Cuthbert,GA,229,US
39841,Damascus,GA,229,US
39842,Dawson,GA,229,US
39845,Donalsonville,GA,229,US
39846,Edison,GA,229,US
39851,Fort Gaines,GA,229,US
39852,Fowlstown,GA,229,US
39854,Georgetown,GA,229,US
39859,Iron City,GA,229,US
39861,Jakin,GA,229,US
39862,Leary,GA,229,US
39866,Morgan,GA,229,US
39867,Morris,GA,,US
39870,Newton,GA,229,US
39877,Parrott,GA,229,US
39885,Sasser,GA,229,US
39886,Shellman,GA,229,US
39897,Whigham,GA,229,US
39901,Atlanta,GA,404,US
40003,Bagdad,KY,502,US
40004,Bardstown,KY,502,US
40006,Bedford,KY,502,US
40007,Bethlehem,KY,502,US
40008,Bloomfield,KY,502,US
40009,Bradfordsville,KY,270,US
40010,Buckner,KY,502,US
40011,Campbellsburg,KY,502,US
40012,Chaplin,KY,502,US
40013,Coxs Creek,KY,502,US
40014,Crestwood,KY,502,US
40018,Eastwood,KY,502,US
40019,Eminence,KY,502,US
40020,Fairfield,KY,502,US
40022,Finchville,KY,502,US
40023,Fisherville,KY,502,US
40025,Glenview,KY,502,US
40026,Goshen,KY,502,US
40027,Harrods Creek,KY,502,US
40031,La Grange,KY,502,US
40032,La Grange,KY,502,US
40033,Lebanon,KY,270,US
40036,Lockport,KY,502,US
40037,Loretto,KY,"2,70,502",US
40040,Mackville,KY,859,US
40041,Masonic Home,KY,502,US
40045,Milton,KY,502,US
40046,Mount Eden,KY,502,US
40047,Mount Washington,KY,502,US
40048,Nazareth,KY,502,US
40049,Nerinx,KY,270,US
40050,New Castle,KY,502,US
40051,New Haven,KY,"5,02,270",US
40052,New Hope,KY,"5,02,270",US
40055,Pendleton,KY,502,US
40056,Pewee Valley,KY,502,US
40057,Pleasureville,KY,502,US
40058,Port Royal,KY,502,US
40059,Prospect,KY,502,US
40060,Raywick,KY,270,US
40061,Saint Catharine,KY,859,US
40062,Saint Francis,KY,270,US
40063,Saint Mary,KY,270,US
40065,Shelbyville,KY,502,US
40066,Shelbyville,KY,502,US
40067,Simpsonville,KY,502,US
40068,Smithfield,KY,502,US
40069,Springfield,KY,859,US
40070,Sulphur,KY,502,US
40071,Taylorsville,KY,502,US
40075,Turners Station,KY,502,US
40076,Waddy,KY,502,US
40077,Westport,KY,502,US
40078,Willisburg,KY,"6,06,859",US
40104,Battletown,KY,270,US
40107,Boston,KY,502,US
40108,Brandenburg,KY,270,US
40109,Brooks,KY,502,US
40110,Clermont,KY,502,US
40111,Cloverport,KY,270,US
40115,Custer,KY,270,US
40117,Ekron,KY,270,US
40118,Fairdale,KY,502,US
40119,Falls Of Rough,KY,270,US
40121,Fort Knox,KY,502,US
40122,Fort Knox,KY,502,US
40129,Hillview,KY,502,US
40140,Garfield,KY,270,US
40142,Guston,KY,270,US
40143,Hardinsburg,KY,270,US
40144,Harned,KY,270,US
40145,Hudson,KY,270,US
40146,Irvington,KY,270,US
40150,Lebanon Junction,KY,502,US
40152,Mc Daniels,KY,270,US
40153,Mc Quady,KY,270,US
40155,Muldraugh,KY,502,US
40157,Payneville,KY,270,US
40159,Radcliff,KY,270,US
40160,Radcliff,KY,"5,02,270",US
40161,Rhodelia,KY,270,US
40162,Rineyville,KY,270,US
40165,Shepherdsville,KY,502,US
40170,Stephensport,KY,270,US
40171,Union Star,KY,270,US
40175,Vine Grove,KY,270,US
40176,Webster,KY,270,US
40177,West Point,KY,502,US
40178,Westview,KY,270,US
40201,Louisville,KY,502,US
40202,Louisville,KY,502,US
40203,Louisville,KY,502,US
40204,Louisville,KY,502,US
40205,Louisville,KY,502,US
40206,Louisville,KY,502,US
40207,Louisville,KY,502,US
40208,Louisville,KY,502,US
40209,Louisville,KY,502,US
40210,Louisville,KY,502,US
40211,Louisville,KY,502,US
40212,Louisville,KY,502,US
40213,Louisville,KY,502,US
40214,Louisville,KY,502,US
40215,Louisville,KY,502,US
40216,Louisville,KY,502,US
40217,Louisville,KY,502,US
40218,Louisville,KY,502,US
40219,Louisville,KY,502,US
40220,Louisville,KY,502,US
40221,Louisville,KY,502,US
40222,Louisville,KY,502,US
40223,Louisville,KY,502,US
40224,Louisville,KY,502,US
40225,Louisville,KY,502,US
40228,Louisville,KY,502,US
40229,Louisville,KY,502,US
40231,Louisville,KY,502,US
40232,Louisville,KY,502,US
40233,Louisville,KY,502,US
40241,Louisville,KY,502,US
40242,Louisville,KY,502,US
40243,Louisville,KY,502,US
40245,Louisville,KY,502,US
40250,Louisville,KY,502,US
40251,Louisville,KY,502,US
40252,Louisville,KY,502,US
40253,Louisville,KY,502,US
40255,Louisville,KY,502,US
40256,Louisville,KY,502,US
40257,Louisville,KY,502,US
40258,Louisville,KY,502,US
40259,Louisville,KY,502,US
40261,Louisville,KY,502,US
40266,Louisville,KY,502,US
40268,Louisville,KY,502,US
40269,Louisville,KY,502,US
40270,Louisville,KY,502,US
40272,Louisville,KY,502,US
40280,Louisville,KY,502,US
40281,Louisville,KY,502,US
40282,Louisville,KY,502,US
40283,Louisville,KY,502,US
40285,Louisville,KY,502,US
40287,Louisville,KY,502,US
40289,Louisville,KY,502,US
40290,Louisville,KY,502,US
40291,Louisville,KY,502,US
40292,Louisville,KY,502,US
40293,Louisville,KY,502,US
40294,Louisville,KY,502,US
40295,Louisville,KY,502,US
40296,Louisville,KY,502,US
40297,Louisville,KY,502,US
40298,Louisville,KY,502,US
40299,Louisville,KY,502,US
40310,Burgin,KY,859,US
40311,Carlisle,KY,859,US
40312,Clay City,KY,"6,06,859",US
40313,Clearfield,KY,606,US
40316,Denniston,KY,606,US
40317,Elliottville,KY,606,US
40319,Farmers,KY,606,US
40322,Frenchburg,KY,606,US
40324,Georgetown,KY,"5,02,859",US
40328,Gravel Switch,KY,"8,59,270",US
40330,Harrodsburg,KY,859,US
40334,Hope,KY,,US
40336,Irvine,KY,606,US
40337,Jeffersonville,KY,859,US
40339,Keene,KY,859,US
40340,Nicholasville,KY,859,US
40342,Lawrenceburg,KY,502,US
40346,Means,KY,606,US
40347,Midway,KY,"8,59,502",US
40348,Millersburg,KY,859,US
40350,Moorefield,KY,859,US
40351,Morehead,KY,606,US
40353,Mount Sterling,KY,859,US
40355,New Liberty,KY,"5,02,606",US
40356,Nicholasville,KY,859,US
40357,North Middletown,KY,859,US
40358,Olympia,KY,606,US
40359,Owenton,KY,502,US
40360,Owingsville,KY,606,US
40361,Paris,KY,859,US
40362,Paris,KY,859,US
40363,Perry Park,KY,502,US
40366,Preston,KY,,US
40370,Sadieville,KY,"5,02,859",US
40371,Salt Lick,KY,"6,06,859",US
40372,Salvisa,KY,859,US
40374,Sharpsburg,KY,"6,06,859",US
40376,Slade,KY,606,US
40379,Stamping Ground,KY,"5,02,859",US
40380,Stanton,KY,606,US
40383,Versailles,KY,859,US
40384,Versailles,KY,859,US
40385,Waco,KY,"8,59,606",US
40386,Versailles,KY,859,US
40387,Wellington,KY,606,US
40390,Wilmore,KY,859,US
40391,Winchester,KY,859,US
40392,Winchester,KY,859,US
40402,Annville,KY,606,US
40403,Berea,KY,"8,59,606",US
40404,Berea,KY,859,US
40405,Bighill,KY,859,US
40409,Brodhead,KY,606,US
40410,Bryantsville,KY,859,US
40419,Crab Orchard,KY,"6,06,859",US
40422,Danville,KY,"8,59,606",US
40423,Danville,KY,859,US
40434,Gray Hawk,KY,606,US
40437,Hustonville,KY,606,US
40440,Junction City,KY,859,US
40442,Kings Mountain,KY,"6,06,859",US
40444,Lancaster,KY,859,US
40445,Livingston,KY,606,US
40446,Lancaster,KY,859,US
40447,Mc Kee,KY,606,US
40448,Mc Kinney,KY,606,US
40452,Mitchellsburg,KY,859,US
40456,Mount Vernon,KY,606,US
40460,Orlando,KY,606,US
40461,Paint Lick,KY,859,US
40464,Parksville,KY,859,US
40468,Perryville,KY,859,US
40472,Ravenna,KY,606,US
40473,Renfro Valley,KY,606,US
40475,Richmond,KY,859,US
40476,Richmond,KY,859,US
40481,Sandgap,KY,606,US
40484,Stanford,KY,"6,06,859",US
40486,Tyner,KY,606,US
40488,Waneta,KY,606,US
40489,Waynesburg,KY,606,US
40492,Wildie,KY,606,US
40495,Winston,KY,606,US
40502,Lexington,KY,859,US
40503,Lexington,KY,859,US
40504,Lexington,KY,859,US
40505,Lexington,KY,859,US
40506,Lexington,KY,859,US
40507,Lexington,KY,859,US
40508,Lexington,KY,859,US
40509,Lexington,KY,859,US
40510,Lexington,KY,859,US
40511,Lexington,KY,"8,59,502",US
40512,Lexington,KY,"6,06,859",US
40513,Lexington,KY,859,US
40514,Lexington,KY,859,US
40515,Lexington,KY,859,US
40516,Lexington,KY,859,US
40517,Lexington,KY,859,US
40522,Lexington,KY,859,US
40523,Lexington,KY,859,US
40524,Lexington,KY,859,US
40526,Lexington,KY,859,US
40533,Lexington,KY,859,US
40536,Lexington,KY,859,US
40544,Lexington,KY,859,US
40546,Lexington,KY,859,US
40550,Lexington,KY,859,US
40555,Lexington,KY,859,US
40574,Lexington,KY,859,US
40575,Lexington,KY,859,US
40576,Lexington,KY,859,US
40577,Lexington,KY,859,US
40578,Lexington,KY,859,US
40579,Lexington,KY,859,US
40580,Lexington,KY,859,US
40581,Lexington,KY,859,US
40582,Lexington,KY,859,US
40583,Lexington,KY,859,US
40588,Lexington,KY,859,US
40591,Lexington,KY,859,US
40598,Lexington,KY,859,US
40601,Frankfort,KY,502,US
40602,Frankfort,KY,502,US
40603,Frankfort,KY,502,US
40604,Frankfort,KY,502,US
40618,Frankfort,KY,502,US
40619,Frankfort,KY,502,US
40620,Frankfort,KY,502,US
40621,Frankfort,KY,502,US
40622,Frankfort,KY,502,US
40701,Corbin,KY,606,US
40702,Corbin,KY,606,US
40724,Bush,KY,606,US
40729,East Bernstadt,KY,606,US
40730,Emlyn,KY,606,US
40734,Gray,KY,606,US
40737,Keavy,KY,606,US
40740,Lily,KY,606,US
40741,London,KY,606,US
40742,London,KY,606,US
40743,London,KY,606,US
40744,London,KY,606,US
40745,London,KY,606,US
40754,Nevisdale,KY,606,US
40755,Pittsburg,KY,606,US
40759,Rockholds,KY,606,US
40763,Siler,KY,606,US
40769,Williamsburg,KY,606,US
40771,Woodbine,KY,606,US
40801,Ages Brookside,KY,606,US
40803,Asher,KY,606,US
40806,Baxter,KY,606,US
40807,Benham,KY,606,US
40808,Big Laurel,KY,606,US
40810,Bledsoe,KY,606,US
40813,Calvin,KY,606,US
40815,Cawood,KY,606,US
40816,Chappell,KY,606,US
40818,Coalgood,KY,606,US
40819,Coldiron,KY,606,US
40820,Cranks,KY,606,US
40823,Cumberland,KY,606,US
40824,Dayhoit,KY,606,US
40826,Eolia,KY,606,US
40827,Essie,KY,606,US
40828,Evarts,KY,606,US
40829,Grays Knob,KY,606,US
40830,Gulston,KY,606,US
40831,Harlan,KY,"6,06,859",US
40840,Helton,KY,606,US
40843,Holmes Mill,KY,"8,59,606",US
40844,Hoskinston,KY,606,US
40845,Hulen,KY,606,US
40847,Kenvir,KY,606,US
40849,Lejunior,KY,606,US
40854,Loyall,KY,606,US
40855,Lynch,KY,606,US
40856,Miracle,KY,606,US
40858,Mozelle,KY,606,US
40862,Partridge,KY,606,US
40863,Pathfork,KY,606,US
40865,Putney,KY,606,US
40868,Stinnett,KY,606,US
40870,Totz,KY,606,US
40873,Wallins Creek,KY,606,US
40874,Warbranch,KY,606,US
40902,Arjay,KY,606,US
40903,Artemus,KY,606,US
40906,Barbourville,KY,606,US
40913,Beverly,KY,606,US
40914,Big Creek,KY,606,US
40915,Bimble,KY,606,US
40921,Bryants Store,KY,606,US
40923,Cannon,KY,606,US
40927,Closplint,KY,606,US
40930,Dewitt,KY,606,US
40931,Eriline,KY,606,US
40932,Fall Rock,KY,606,US
40935,Flat Lick,KY,606,US
40939,Fourmile,KY,606,US
40940,Frakes,KY,606,US
40941,Garrard,KY,606,US
40943,Girdler,KY,606,US
40944,Goose Rock,KY,606,US
40946,Green Road,KY,606,US
40949,Heidrick,KY,606,US
40951,Hima,KY,606,US
40953,Hinkle,KY,606,US
40955,Ingram,KY,606,US
40958,Kettle Island,KY,606,US
40962,Manchester,KY,606,US
40964,Mary Alice,KY,606,US
40965,Middlesboro,KY,"4,23,606",US
40972,Oneida,KY,606,US
40977,Pineville,KY,606,US
40979,Roark,KY,606,US
40981,Saul,KY,606,US
40982,Scalf,KY,606,US
40983,Sextons Creek,KY,606,US
40988,Stoney Fork,KY,606,US
40995,Trosper,KY,606,US
40997,Walker,KY,606,US
40999,Woollum,KY,606,US
41001,Alexandria,KY,859,US
41002,Augusta,KY,606,US
41003,Berry,KY,859,US
41004,Brooksville,KY,606,US
41005,Burlington,KY,"6,06,859",US
41006,Butler,KY,859,US
41007,California,KY,"8,59,606",US
41008,Carrollton,KY,502,US
41010,Corinth,KY,"5,02,859",US
41011,Covington,KY,859,US
41012,Covington,KY,859,US
41014,Covington,KY,859,US
41015,Latonia,KY,859,US
41016,Covington,KY,"8,59,502",US
41017,Ft Mitchell,KY,859,US
41018,Erlanger,KY,859,US
41019,Covington,KY,859,US
41022,Florence,KY,859,US
41030,Crittenden,KY,859,US
41031,Cynthiana,KY,859,US
41033,De Mossville,KY,859,US
41034,Dover,KY,606,US
41035,Dry Ridge,KY,859,US
41037,Elizaville,KY,606,US
41039,Ewing,KY,606,US
41040,Falmouth,KY,"8,59,606",US
41041,Flemingsburg,KY,"6,06,859",US
41042,Florence,KY,859,US
41043,Foster,KY,606,US
41044,Germantown,KY,606,US
41045,Ghent,KY,"6,06,502",US
41046,Glencoe,KY,859,US
41048,Hebron,KY,859,US
41049,Hillsboro,KY,606,US
41051,Independence,KY,859,US
41052,Jonesville,KY,859,US
41053,Kenton,KY,859,US
41054,Mason,KY,859,US
41055,Mayslick,KY,606,US
41056,Maysville,KY,"6,06,859",US
41059,Melbourne,KY,859,US
41061,Milford,KY,606,US
41062,Minerva,KY,606,US
41063,Morning View,KY,859,US
41064,Mount Olivet,KY,606,US
41065,Muses Mills,KY,606,US
41071,Newport,KY,859,US
41072,Newport,KY,859,US
41073,Bellevue,KY,859,US
41074,Dayton,KY,859,US
41075,Fort Thomas,KY,859,US
41076,Newport,KY,859,US
41080,Petersburg,KY,859,US
41081,Plummers Landing,KY,606,US
41083,Sanders,KY,"5,02,859",US
41085,Silver Grove,KY,859,US
41086,Sparta,KY,"5,02,859",US
41091,Union,KY,859,US
41092,Verona,KY,859,US
41093,Wallingford,KY,606,US
41094,Walton,KY,859,US
41095,Warsaw,KY,859,US
41096,Washington,KY,606,US
41097,Williamstown,KY,859,US
41098,Worthville,KY,502,US
41099,Newport,KY,859,US
41101,Ashland,KY,606,US
41102,Ashland,KY,606,US
41105,Ashland,KY,606,US
41114,Ashland,KY,606,US
41121,Argillite,KY,606,US
41124,Blaine,KY,606,US
41128,Carter,KY,606,US
41129,Catlettsburg,KY,"6,06,859",US
41132,Denton,KY,606,US
41135,Emerson,KY,606,US
41139,Flatwoods,KY,606,US
41141,Garrison,KY,606,US
41142,Grahn,KY,606,US
41143,Grayson,KY,"6,06,859",US
41144,Greenup,KY,606,US
41146,Hitchins,KY,606,US
41149,Isonville,KY,606,US
41159,Martha,KY,606,US
41160,Mazie,KY,606,US
41164,Olive Hill,KY,"8,59,606",US
41166,Quincy,KY,606,US
41168,Rush,KY,606,US
41169,Russell,KY,606,US
41171,Sandy Hook,KY,606,US
41173,Soldier,KY,606,US
41174,South Portsmouth,KY,606,US
41175,South Shore,KY,606,US
41179,Vanceburg,KY,606,US
41180,Webbville,KY,606,US
41181,Willard,KY,606,US
41183,Worthington,KY,606,US
41189,Tollesboro,KY,606,US
41201,Adams,KY,606,US
41203,Beauty,KY,606,US
41204,Boons Camp,KY,606,US
41214,Debord,KY,606,US
41216,East Point,KY,606,US
41219,Flatgap,KY,606,US
41222,Hagerhill,KY,606,US
41224,Inez,KY,606,US
41226,Keaton,KY,606,US
41230,Louisa,KY,"3,04,606",US
41231,Lovely,KY,606,US
41232,Lowmansville,KY,606,US
41234,Meally,KY,606,US
41238,Oil Springs,KY,606,US
41240,Paintsville,KY,606,US
41250,Pilgrim,KY,606,US
41254,River,KY,606,US
41255,Sitka,KY,606,US
41256,Staffordsville,KY,606,US
41257,Stambaugh,KY,606,US
41260,Thelma,KY,606,US
41262,Tomahawk,KY,606,US
41263,Tutor Key,KY,606,US
41264,Ulysses,KY,606,US
41265,Van Lear,KY,606,US
41267,Warfield,KY,606,US
41268,West Van Lear,KY,606,US
41271,Williamsport,KY,606,US
41274,Wittensville,KY,606,US
41301,Campton,KY,606,US
41307,Athol,KY,606,US
41310,Bays,KY,606,US
41311,Beattyville,KY,606,US
41313,Bethany,KY,606,US
41314,Booneville,KY,606,US
41317,Clayhole,KY,606,US
41332,Hazel Green,KY,606,US
41333,Heidelberg,KY,606,US
41338,Island City,KY,606,US
41339,Jackson,KY,606,US
41347,Lone,KY,606,US
41348,Lost Creek,KY,606,US
41351,Mistletoe,KY,606,US
41352,Mize,KY,606,US
41360,Pine Ridge,KY,606,US
41362,Primrose,KY,606,US
41364,Ricetown,KY,606,US
41365,Rogers,KY,606,US
41366,Rousseau,KY,606,US
41367,Rowdy,KY,606,US
41368,Saint Helens,KY,606,US
41385,Vancleve,KY,606,US
41386,Vincent,KY,606,US
41390,Whick,KY,606,US
41397,Zoe,KY,606,US
41408,Cannel City,KY,606,US
41413,Crockett,KY,606,US
41421,Elkfork,KY,606,US
41425,Ezel,KY,606,US
41426,Falcon,KY,606,US
41433,Gapville,KY,606,US
41451,Malone,KY,606,US
41459,Ophir,KY,606,US
41464,Royalton,KY,606,US
41465,Salyersville,KY,606,US
41472,West Liberty,KY,606,US
41477,Wrigley,KY,606,US
41501,Pikeville,KY,606,US
41502,Pikeville,KY,606,US
41503,South Williamson,KY,"5,02,606",US
41512,Ashcamp,KY,606,US
41513,Belcher,KY,606,US
41514,Belfry,KY,606,US
41517,Burdine,KY,606,US
41519,Canada,KY,606,US
41520,Dorton,KY,606,US
41522,Elkhorn City,KY,606,US
41524,Fedscreek,KY,606,US
41526,Fords Branch,KY,606,US
41527,Forest Hills,KY,606,US
41528,Freeburn,KY,606,US
41531,Hardy,KY,606,US
41534,Hellier,KY,606,US
41535,Huddy,KY,606,US
41537,Jenkins,KY,606,US
41538,Jonancy,KY,606,US
41539,Kimper,KY,606,US
41540,Lick Creek,KY,606,US
41542,Lookout,KY,606,US
41543,Mc Andrews,KY,606,US
41544,Mc Carr,KY,606,US
41547,Majestic,KY,606,US
41548,Mouthcard,KY,606,US
41549,Myra,KY,606,US
41553,Phelps,KY,606,US
41554,Phyllis,KY,606,US
41555,Pinsonfork,KY,606,US
41557,Raccoon,KY,606,US
41558,Ransom,KY,606,US
41559,Regina,KY,606,US
41560,Robinson Creek,KY,606,US
41561,Rockhouse,KY,606,US
41562,Shelbiana,KY,606,US
41563,Shelby Gap,KY,606,US
41564,Sidney,KY,606,US
41566,Steele,KY,606,US
41567,Stone,KY,606,US
41568,Stopover,KY,606,US
41571,Varney,KY,606,US
41572,Virgie,KY,606,US
41601,Allen,KY,606,US
41602,Auxier,KY,606,US
41603,Banner,KY,606,US
41604,Beaver,KY,606,US
41605,Betsy Layne,KY,606,US
41606,Bevinsville,KY,606,US
41607,Blue River,KY,606,US
41612,Bypro,KY,606,US
41615,Dana,KY,606,US
41616,David,KY,606,US
41619,Drift,KY,606,US
41621,Dwale,KY,606,US
41622,Eastern,KY,606,US
41630,Garrett,KY,606,US
41631,Grethel,KY,606,US
41632,Gunlock,KY,606,US
41635,Harold,KY,606,US
41636,Hi Hat,KY,606,US
41640,Hueysville,KY,606,US
41642,Ivel,KY,606,US
41643,Lackey,KY,606,US
41645,Langley,KY,606,US
41647,Mc Dowell,KY,606,US
41649,Martin,KY,606,US
41650,Melvin,KY,606,US
41651,Minnie,KY,606,US
41653,Prestonsburg,KY,606,US
41655,Printer,KY,606,US
41659,Stanville,KY,606,US
41660,Teaberry,KY,606,US
41663,Tram,KY,606,US
41666,Wayland,KY,606,US
41667,Weeksbury,KY,606,US
41669,Wheelwright,KY,606,US
41701,Hazard,KY,606,US
41702,Hazard,KY,606,US
41712,Ary,KY,606,US
41713,Avawam,KY,606,US
41714,Bear Branch,KY,606,US
41719,Bonnyman,KY,606,US
41721,Buckhorn,KY,606,US
41722,Bulan,KY,606,US
41723,Busy,KY,606,US
41725,Carrie,KY,606,US
41727,Chavies,KY,606,US
41729,Combs,KY,606,US
41731,Cornettsville,KY,606,US
41735,Delphia,KY,606,US
41736,Dice,KY,606,US
41739,Dwarf,KY,606,US
41740,Emmalena,KY,606,US
41743,Fisty,KY,606,US
41745,Gays Creek,KY,606,US
41746,Happy,KY,606,US
41747,Hardburly,KY,606,US
41749,Hyden,KY,606,US
41751,Jeff,KY,606,US
41754,Krypton,KY,606,US
41759,Sassafras,KY,606,US
41760,Scuddy,KY,606,US
41762,Sizerock,KY,606,US
41763,Slemp,KY,606,US
41764,Smilax,KY,606,US
41766,Thousandsticks,KY,606,US
41772,Vest,KY,606,US
41773,Vicco,KY,606,US
41774,Viper,KY,606,US
41775,Wendover,KY,606,US
41776,Wooton,KY,606,US
41777,Yeaddiss,KY,606,US
41778,Yerkes,KY,606,US
41804,Blackey,KY,606,US
41810,Cromona,KY,606,US
41812,Deane,KY,606,US
41815,Ermine,KY,606,US
41817,Garner,KY,606,US
41819,Gordon,KY,606,US
41821,Hallie,KY,606,US
41822,Hindman,KY,606,US
41824,Isom,KY,606,US
41825,Jackhorn,KY,606,US
41826,Jeremiah,KY,606,US
41828,Kite,KY,606,US
41831,Leburn,KY,606,US
41832,Letcher,KY,606,US
41833,Linefork,KY,606,US
41834,Littcarr,KY,606,US
41835,Mc Roberts,KY,606,US
41836,Mallie,KY,606,US
41837,Mayking,KY,606,US
41838,Millstone,KY,606,US
41839,Mousie,KY,606,US
41840,Neon,KY,606,US
41843,Pine Top,KY,606,US
41844,Pippa Passes,KY,606,US
41845,Premium,KY,606,US
41847,Redfox,KY,606,US
41848,Roxana,KY,606,US
41849,Seco,KY,606,US
41855,Thornton,KY,606,US
41858,Whitesburg,KY,606,US
41859,Dema,KY,606,US
41861,Raven,KY,606,US
41862,Topmost,KY,606,US
42001,Paducah,KY,270,US
42002,Paducah,KY,270,US
42003,Paducah,KY,270,US
42020,Almo,KY,270,US
42021,Arlington,KY,270,US
42022,Bandana,KY,270,US
42023,Bardwell,KY,270,US
42024,Barlow,KY,270,US
42025,Benton,KY,270,US
42027,Boaz,KY,270,US
42028,Burna,KY,270,US
42029,Calvert City,KY,270,US
42031,Clinton,KY,270,US
42032,Columbus,KY,270,US
42033,Crayne,KY,270,US
42035,Cunningham,KY,270,US
42036,Dexter,KY,270,US
42037,Dycusburg,KY,270,US
42038,Eddyville,KY,270,US
42039,Fancy Farm,KY,270,US
42040,Farmington,KY,270,US
42041,Fulton,KY,270,US
42044,Gilbertsville,KY,270,US
42045,Grand Rivers,KY,270,US
42047,Hampton,KY,270,US
42048,Hardin,KY,270,US
42049,Hazel,KY,270,US
42050,Hickman,KY,270,US
42051,Hickory,KY,270,US
42053,Kevil,KY,270,US
42054,Kirksey,KY,270,US
42055,Kuttawa,KY,270,US
42056,La Center,KY,270,US
42058,Ledbetter,KY,270,US
42060,Lovelaceville,KY,270,US
42061,Lowes,KY,270,US
42063,Lynnville,KY,270,US
42064,Marion,KY,270,US
42066,Mayfield,KY,270,US
42069,Melber,KY,270,US
42070,Milburn,KY,270,US
42071,Murray,KY,270,US
42076,New Concord,KY,270,US
42078,Salem,KY,270,US
42079,Sedalia,KY,270,US
42081,Smithland,KY,270,US
42082,Symsonia,KY,270,US
42083,Tiline,KY,270,US
42084,Tolu,KY,270,US
42085,Water Valley,KY,270,US
42086,West Paducah,KY,270,US
42087,Wickliffe,KY,270,US
42088,Wingo,KY,270,US
42101,Bowling Green,KY,"2,70,502",US
42102,Bowling Green,KY,270,US
42103,Bowling Green,KY,270,US
42104,Bowling Green,KY,270,US
42120,Adolphus,KY,270,US
42122,Alvaton,KY,270,US
42123,Austin,KY,270,US
42124,Beaumont,KY,270,US
42127,Cave City,KY,270,US
42128,Drake,KY,270,US
42129,Edmonton,KY,270,US
42130,Eighty Eight,KY,270,US
42131,Etoile,KY,270,US
42133,Fountain Run,KY,270,US
42134,Franklin,KY,270,US
42135,Franklin,KY,270,US
42140,Gamaliel,KY,270,US
42141,Glasgow,KY,270,US
42142,Glasgow,KY,270,US
42151,Hestand,KY,270,US
42152,Hiseville,KY,"5,02,270",US
42153,Holland,KY,270,US
42154,Knob Lick,KY,270,US
42156,Lucas,KY,270,US
42157,Mount Hermon,KY,270,US
42159,Oakland,KY,270,US
42160,Park City,KY,270,US
42163,Rocky Hill,KY,270,US
42164,Scottsville,KY,270,US
42166,Summer Shade,KY,270,US
42167,Tompkinsville,KY,270,US
42170,Woodburn,KY,270,US
42171,Smiths Grove,KY,270,US
42201,Aberdeen,KY,270,US
42202,Adairville,KY,270,US
42204,Allensville,KY,270,US
42206,Auburn,KY,270,US
42207,Bee Spring,KY,270,US
42210,Brownsville,KY,270,US
42211,Cadiz,KY,270,US
42214,Center,KY,270,US
42215,Cerulean,KY,270,US
42216,Clifty,KY,270,US
42217,Crofton,KY,270,US
42219,Dunbar,KY,270,US
42220,Elkton,KY,270,US
42221,Fairview,KY,270,US
42223,Fort Campbell,KY,270,US
42232,Gracey,KY,270,US
42234,Guthrie,KY,"2,70,931",US
42236,Herndon,KY,270,US
42240,Hopkinsville,KY,270,US
42241,Hopkinsville,KY,270,US
42252,Jetson,KY,270,US
42254,La Fayette,KY,270,US
42256,Lewisburg,KY,270,US
42259,Mammoth Cave,KY,270,US
42261,Morgantown,KY,270,US
42262,Oak Grove,KY,270,US
42265,Olmstead,KY,270,US
42266,Pembroke,KY,270,US
42273,Rochester,KY,270,US
42274,Rockfield,KY,270,US
42275,Roundhill,KY,270,US
42276,Russellville,KY,270,US
42280,Sharon Grove,KY,270,US
42283,South Union,KY,270,US
42285,Sweeden,KY,270,US
42286,Trenton,KY,270,US
42287,Welchs Creek,KY,270,US
42288,Woodbury,KY,270,US
42301,Owensboro,KY,270,US
42302,Owensboro,KY,270,US
42303,Owensboro,KY,270,US
42304,Owensboro,KY,270,US
42320,Beaver Dam,KY,270,US
42321,Beech Creek,KY,270,US
42322,Beech Grove,KY,270,US
42323,Beechmont,KY,270,US
42324,Belton,KY,270,US
42325,Bremen,KY,270,US
42326,Browder,KY,270,US
42327,Calhoun,KY,270,US
42328,Centertown,KY,270,US
42330,Central City,KY,270,US
42332,Cleaton,KY,270,US
42333,Cromwell,KY,270,US
42334,Curdsville,KY,270,US
42337,Drakesboro,KY,270,US
42338,Dundee,KY,270,US
42339,Dunmor,KY,270,US
42343,Fordsville,KY,270,US
42344,Graham,KY,270,US
42345,Greenville,KY,270,US
42347,Hartford,KY,270,US
42348,Hawesville,KY,270,US
42349,Horse Branch,KY,270,US
42350,Island,KY,270,US
42351,Lewisport,KY,270,US
42352,Livermore,KY,270,US
42354,Mc Henry,KY,270,US
42355,Maceo,KY,270,US
42356,Maple Mount,KY,270,US
42361,Olaton,KY,270,US
42364,Pellville,KY,270,US
42366,Philpot,KY,270,US
42367,Powderly,KY,270,US
42368,Reynolds Station,KY,270,US
42369,Rockport,KY,270,US
42370,Rosine,KY,270,US
42371,Rumsey,KY,270,US
42372,Sacramento,KY,270,US
42374,South Carrollton,KY,270,US
42375,Stanley,KY,270,US
42376,Utica,KY,270,US
42377,West Louisville,KY,270,US
42378,Whitesville,KY,270,US
42402,Baskett,KY,270,US
42403,Blackford,KY,270,US
42404,Clay,KY,270,US
42406,Corydon,KY,270,US
42408,Dawson Springs,KY,270,US
42409,Dixon,KY,270,US
42410,Earlington,KY,270,US
42411,Fredonia,KY,270,US
42413,Hanson,KY,270,US
42419,Henderson,KY,270,US
42420,Henderson,KY,"2,70,812",US
42431,Madisonville,KY,270,US
42436,Manitou,KY,270,US
42437,Morganfield,KY,270,US
42440,Mortons Gap,KY,270,US
42441,Nebo,KY,270,US
42442,Nortonville,KY,270,US
42444,Poole,KY,270,US
42445,Princeton,KY,270,US
42450,Providence,KY,270,US
42451,Reed,KY,270,US
42452,Robards,KY,270,US
42453,Saint Charles,KY,270,US
42455,Sebree,KY,270,US
42456,Slaughters,KY,270,US
42457,Smith Mills,KY,270,US
42458,Spottsville,KY,270,US
42459,Sturgis,KY,270,US
42460,Sullivan,KY,270,US
42461,Uniontown,KY,270,US
42462,Waverly,KY,270,US
42463,Wheatcroft,KY,270,US
42464,White Plains,KY,270,US
42501,Somerset,KY,606,US
42502,Somerset,KY,606,US
42503,Somerset,KY,606,US
42516,Bethelridge,KY,606,US
42518,Bronston,KY,606,US
42519,Burnside,KY,606,US
42528,Dunnville,KY,606,US
42533,Ferguson,KY,606,US
42539,Liberty,KY,606,US
42541,Middleburg,KY,606,US
42544,Nancy,KY,"6,06,270",US
42553,Science Hill,KY,606,US
42558,Tateville,KY,606,US
42564,West Somerset,KY,606,US
42565,Windsor,KY,"2,70,606",US
42566,Yosemite,KY,606,US
42567,Eubank,KY,606,US
42602,Albany,KY,606,US
42603,Alpha,KY,606,US
42629,Jamestown,KY,270,US
42631,Marshes Siding,KY,606,US
42633,Monticello,KY,606,US
42634,Parkers Lake,KY,606,US
42635,Pine Knot,KY,606,US
42638,Revelo,KY,606,US
42642,Russell Springs,KY,270,US
42647,Stearns,KY,606,US
42649,Strunk,KY,606,US
42653,Whitley City,KY,606,US
42701,Elizabethtown,KY,270,US
42702,Elizabethtown,KY,270,US
42712,Big Clifty,KY,270,US
42713,Bonnieville,KY,270,US
42715,Breeding,KY,270,US
42716,Buffalo,KY,270,US
42717,Burkesville,KY,270,US
42718,Campbellsville,KY,270,US
42719,Campbellsville,KY,270,US
42720,Cane Valley,KY,270,US
42721,Caneyville,KY,270,US
42722,Canmer,KY,270,US
42724,Cecilia,KY,270,US
42726,Clarkson,KY,270,US
42728,Columbia,KY,270,US
42729,Cub Run,KY,270,US
42731,Dubre,KY,270,US
42732,Eastview,KY,270,US
42733,Elk Horn,KY,270,US
42740,Glendale,KY,270,US
42741,Glens Fork,KY,270,US
42742,Gradyville,KY,270,US
42743,Greensburg,KY,270,US
42746,Hardyville,KY,270,US
42748,Hodgenville,KY,270,US
42749,Horse Cave,KY,270,US
42753,Knifley,KY,270,US
42754,Leitchfield,KY,"2,70,502",US
42755,Leitchfield,KY,270,US
42757,Magnolia,KY,270,US
42758,Mannsville,KY,270,US
42759,Marrowbone,KY,270,US
42762,Millwood,KY,270,US
42764,Mount Sherman,KY,270,US
42765,Munfordville,KY,270,US
42776,Sonora,KY,270,US
42782,Summersville,KY,270,US
42784,Upton,KY,270,US
42788,White Mills,KY,270,US
43001,Alexandria,OH,"6,14,740",US
43002,Amlin,OH,614,US
43003,Ashley,OH,740,US
43004,Blacklick,OH,614,US
43005,Bladensburg,OH,740,US
43006,Brinkhaven,OH,740,US
43007,Broadway,OH,937,US
43008,Buckeye Lake,OH,740,US
43009,Cable,OH,937,US
43010,Catawba,OH,937,US
43011,Centerburg,OH,"7,40,419",US
43013,Croton,OH,740,US
43014,Danville,OH,740,US
43015,Delaware,OH,"6,14,740",US
43016,Dublin,OH,614,US
43017,Dublin,OH,"6,14,937",US
43018,Etna,OH,,US
43019,Fredericktown,OH,"74,04,19,567",US
43021,Galena,OH,"6,14,740",US
43022,Gambier,OH,740,US
43023,Granville,OH,740,US
43025,Hebron,OH,740,US
43026,Hilliard,OH,614,US
43027,Homer,OH,,US
43028,Howard,OH,740,US
43029,Irwin,OH,"7,40,937",US
43030,Jacksontown,OH,,US
43031,Johnstown,OH,740,US
43032,Kilbourne,OH,740,US
43033,Kirkersville,OH,,US
43035,Lewis Center,OH,"7,40,614",US
43036,Magnetic Springs,OH,937,US
43037,Martinsburg,OH,740,US
43040,Marysville,OH,"61,49,37,740",US
43041,Marysville,OH,937,US
43044,Mechanicsburg,OH,"9,37,740",US
43045,Milford Center,OH,937,US
43046,Millersport,OH,740,US
43047,Mingo,OH,937,US
43048,Mount Liberty,OH,740,US
43050,Mount Vernon,OH,"7,40,419",US
43054,New Albany,OH,614,US
43055,Newark,OH,"6,14,740",US
43056,Heath,OH,"7,40,614",US
43058,Newark,OH,740,US
43060,North Lewisburg,OH,937,US
43061,Ostrander,OH,740,US
43062,Pataskala,OH,"7,40,614",US
43064,Plain City,OH,"6,14,740",US
43065,Powell,OH,"7,40,614",US
43066,Radnor,OH,740,US
43067,Raymond,OH,937,US
43068,Reynoldsburg,OH,"6,14,740",US
43069,Reynoldsburg,OH,614,US
43070,Rosewood,OH,937,US
43071,Saint Louisville,OH,740,US
43072,Saint Paris,OH,937,US
43073,Summit Station,OH,614,US
43074,Sunbury,OH,"74,06,14,937",US
43076,Thornville,OH,740,US
43077,Unionville Center,OH,,US
43078,Urbana,OH,937,US
43080,Utica,OH,740,US
43081,Westerville,OH,614,US
43082,Westerville,OH,"6,14,740",US
43083,Westville,OH,937,US
43084,Woodstock,OH,937,US
43085,Columbus,OH,614,US
43086,Westerville,OH,614,US
43093,Newark,OH,740,US
43098,Hebron,OH,740,US
43101,Adelphi,OH,740,US
43102,Amanda,OH,740,US
43103,Ashville,OH,740,US
43105,Baltimore,OH,740,US
43106,Bloomingburg,OH,740,US
43107,Bremen,OH,740,US
43109,Brice,OH,614,US
43110,Canal Winchester,OH,614,US
43111,Carbon Hill,OH,740,US
43112,Carroll,OH,"7,40,614",US
43113,Circleville,OH,"6,14,740",US
43115,Clarksburg,OH,740,US
43116,Commercial Point,OH,614,US
43117,Derby,OH,,US
43119,Galloway,OH,614,US
43123,Grove City,OH,614,US
43125,Groveport,OH,614,US
43126,Harrisburg,OH,614,US
43127,Haydenville,OH,740,US
43128,Jeffersonville,OH,740,US
43130,Lancaster,OH,"6,14,740",US
43135,Laurelville,OH,740,US
43136,Lithopolis,OH,614,US
43137,Lockbourne,OH,"6,14,740",US
43138,Logan,OH,740,US
43140,London,OH,"93,77,40,614",US
43142,Milledgeville,OH,740,US
43143,Mount Sterling,OH,740,US
43144,Murray City,OH,740,US
43145,New Holland,OH,740,US
43146,Orient,OH,"6,14,740",US
43147,Pickerington,OH,"6,14,740",US
43148,Pleasantville,OH,740,US
43149,Rockbridge,OH,740,US
43150,Rushville,OH,740,US
43151,Sedalia,OH,740,US
43152,South Bloomingville,OH,740,US
43153,South Solon,OH,"9,37,740",US
43154,Stoutsville,OH,740,US
43155,Sugar Grove,OH,740,US
43156,Tarlton,OH,,US
43157,Thurston,OH,740,US
43158,Union Furnace,OH,740,US
43160,Washington Court House,OH,740,US
43162,West Jefferson,OH,614,US
43163,West Rushville,OH,,US
43164,Williamsport,OH,740,US
43194,Lockbourne,OH,614,US
43195,Groveport,OH,614,US
43196,Groveport,OH,614,US
43198,Groveport,OH,614,US
43199,Groveport,OH,614,US
43201,Columbus,OH,614,US
43202,Columbus,OH,614,US
43203,Columbus,OH,614,US
43204,Columbus,OH,614,US
43205,Columbus,OH,614,US
43206,Columbus,OH,"4,19,614",US
43207,Columbus,OH,614,US
43209,Columbus,OH,614,US
43210,Columbus,OH,614,US
43211,Columbus,OH,614,US
43212,Columbus,OH,614,US
43213,Columbus,OH,614,US
43214,Columbus,OH,614,US
43215,Columbus,OH,"6,14,513",US
43216,Columbus,OH,614,US
43217,Columbus,OH,614,US
43218,Columbus,OH,614,US
43219,Columbus,OH,614,US
43220,Columbus,OH,614,US
43221,Columbus,OH,614,US
43222,Columbus,OH,614,US
43223,Columbus,OH,614,US
43224,Columbus,OH,614,US
43226,Columbus,OH,614,US
43227,Columbus,OH,614,US
43228,Columbus,OH,614,US
43229,Columbus,OH,"6,14,740",US
43230,Columbus,OH,614,US
43231,Columbus,OH,614,US
43232,Columbus,OH,614,US
43234,Columbus,OH,614,US
43235,Columbus,OH,614,US
43236,Columbus,OH,614,US
43240,Columbus,OH,"6,14,740",US
43251,Columbus,OH,614,US
43260,Columbus,OH,614,US
43265,Columbus,OH,614,US
43266,Columbus,OH,614,US
43268,Columbus,OH,614,US
43270,Columbus,OH,614,US
43271,Columbus,OH,614,US
43272,Columbus,OH,614,US
43279,Columbus,OH,614,US
43287,Columbus,OH,614,US
43291,Columbus,OH,614,US
43299,Columbus,OH,614,US
43301,Marion,OH,740,US
43302,Marion,OH,"61,47,40,419",US
43306,Marion,OH,740,US
43307,Marion,OH,740,US
43310,Belle Center,OH,937,US
43311,Bellefontaine,OH,937,US
43314,Caledonia,OH,"4,19,740",US
43315,Cardington,OH,"4,19,740",US
43316,Carey,OH,419,US
43317,Chesterville,OH,419,US
43318,De Graff,OH,937,US
43319,East Liberty,OH,937,US
43320,Edison,OH,419,US
43321,Fulton,OH,"4,19,567",US
43322,Green Camp,OH,740,US
43323,Harpster,OH,740,US
43324,Huntsville,OH,937,US
43325,Iberia,OH,419,US
43326,Kenton,OH,"41,99,37,567",US
43330,Kirby,OH,419,US
43331,Lakeview,OH,"9,37,419",US
43332,La Rue,OH,740,US
43333,Lewistown,OH,937,US
43334,Marengo,OH,"41,97,40,567",US
43335,Martel,OH,419,US
43336,Middleburg,OH,937,US
43337,Morral,OH,740,US
43338,Mount Gilead,OH,"4,19,567",US
43340,Mount Victory,OH,937,US
43341,New Bloomington,OH,740,US
43342,Prospect,OH,740,US
43343,Quincy,OH,937,US
43344,Richwood,OH,"7,40,937",US
43345,Ridgeway,OH,937,US
43346,Roundhead,OH,937,US
43347,Rushsylvania,OH,937,US
43348,Russells Point,OH,937,US
43349,Shauck,OH,419,US
43350,Sparta,OH,419,US
43351,Upper Sandusky,OH,"41,97,40,567",US
43356,Waldo,OH,740,US
43357,West Liberty,OH,937,US
43358,West Mansfield,OH,937,US
43359,Wharton,OH,419,US
43360,Zanesfield,OH,937,US
43402,Bowling Green,OH,"4,19,567",US
43403,Bowling Green,OH,419,US
43406,Bradner,OH,"4,19,567",US
43407,Burgoon,OH,419,US
43408,Clay Center,OH,419,US
43410,Clyde,OH,"4,19,567",US
43412,Curtice,OH,419,US
43413,Cygnet,OH,"4,19,567",US
43414,Dunbridge,OH,419,US
43416,Elmore,OH,419,US
43420,Fremont,OH,"4,19,567",US
43430,Genoa,OH,419,US
43431,Gibsonburg,OH,"4,19,567",US
43432,Graytown,OH,419,US
43433,Gypsum,OH,419,US
43434,Harbor View,OH,419,US
43435,Helena,OH,"4,19,567",US
43436,Isle Saint George,OH,419,US
43437,Jerry City,OH,419,US
43438,Kelleys Island,OH,419,US
43439,Lacarne,OH,419,US
43440,Lakeside Marblehead,OH,"4,19,567",US
43441,Lemoyne,OH,419,US
43442,Lindsey,OH,"4,19,567",US
43443,Luckey,OH,419,US
43445,Martin,OH,419,US
43446,Middle Bass,OH,419,US
43447,Millbury,OH,419,US
43449,Oak Harbor,OH,"4,19,567",US
43450,Pemberville,OH,"4,19,567",US
43451,Portage,OH,419,US
43452,Port Clinton,OH,"4,19,567",US
43456,Put In Bay,OH,419,US
43457,Risingsun,OH,"4,19,567",US
43458,Rocky Ridge,OH,419,US
43460,Rossford,OH,419,US
43462,Rudolph,OH,419,US
43463,Stony Ridge,OH,419,US
43464,Vickery,OH,419,US
43465,Walbridge,OH,419,US
43466,Wayne,OH,419,US
43467,West Millgrove,OH,419,US
43468,Williston,OH,419,US
43469,Woodville,OH,"4,19,567",US
43501,Alvordton,OH,419,US
43502,Archbold,OH,"4,19,567",US
43504,Berkey,OH,419,US
43505,Blakeslee,OH,419,US
43506,Bryan,OH,"4,19,567",US
43510,Colton,OH,419,US
43511,Custar,OH,419,US
43512,Defiance,OH,"4,19,567",US
43515,Delta,OH,"4,19,567",US
43516,Deshler,OH,419,US
43517,Edgerton,OH,419,US
43518,Edon,OH,419,US
43519,Evansport,OH,419,US
43520,Farmer,OH,419,US
43521,Fayette,OH,"4,19,567",US
43522,Grand Rapids,OH,"4,19,567",US
43523,Grelton,OH,419,US
43524,Hamler,OH,419,US
43525,Haskins,OH,419,US
43526,Hicksville,OH,"4,19,567",US
43527,Holgate,OH,419,US
43528,Holland,OH,"4,19,567",US
43529,Hoytville,OH,419,US
43530,Jewell,OH,419,US
43531,Kunkle,OH,419,US
43532,Liberty Center,OH,"4,19,567",US
43533,Lyons,OH,419,US
43534,Mc Clure,OH,419,US
43535,Malinta,OH,419,US
43536,Mark Center,OH,419,US
43537,Maumee,OH,419,US
43540,Metamora,OH,419,US
43541,Milton Center,OH,419,US
43542,Monclova,OH,419,US
43543,Montpelier,OH,419,US
43545,Napoleon,OH,"4,19,567",US
43547,Neapolis,OH,419,US
43548,New Bavaria,OH,419,US
43549,Ney,OH,"4,19,567",US
43550,Okolona,OH,419,US
43551,Perrysburg,OH,"4,19,567",US
43552,Perrysburg,OH,419,US
43553,Pettisville,OH,419,US
43554,Pioneer,OH,419,US
43555,Ridgeville Corners,OH,419,US
43556,Sherwood,OH,419,US
43557,Stryker,OH,"4,19,567",US
43558,Swanton,OH,419,US
43560,Sylvania,OH,"4,19,567",US
43565,Tontogany,OH,419,US
43566,Waterville,OH,"4,19,567",US
43567,Wauseon,OH,"4,19,567",US
43569,Weston,OH,"4,19,567",US
43570,West Unity,OH,419,US
43571,Whitehouse,OH,419,US
43601,Toledo,OH,"4,19,567",US
43603,Toledo,OH,419,US
43604,Toledo,OH,419,US
43605,Toledo,OH,419,US
43606,Toledo,OH,419,US
43607,Toledo,OH,419,US
43608,Toledo,OH,419,US
43609,Toledo,OH,419,US
43610,Toledo,OH,419,US
43611,Toledo,OH,419,US
43612,Toledo,OH,419,US
43613,Toledo,OH,419,US
43614,Toledo,OH,419,US
43615,Toledo,OH,419,US
43616,Oregon,OH,419,US
43617,Toledo,OH,419,US
43618,Oregon,OH,419,US
43619,Northwood,OH,419,US
43620,Toledo,OH,419,US
43623,Toledo,OH,419,US
43635,Toledo,OH,419,US
43652,Toledo,OH,419,US
43654,Toledo,OH,419,US
43656,Toledo,OH,419,US
43657,Toledo,OH,419,US
43659,Toledo,OH,419,US
43660,Toledo,OH,419,US
43661,Toledo,OH,419,US
43666,Toledo,OH,419,US
43667,Toledo,OH,419,US
43681,Toledo,OH,419,US
43682,Toledo,OH,419,US
43697,Toledo,OH,419,US
43699,Toledo,OH,419,US
43701,Zanesville,OH,740,US
43702,Zanesville,OH,740,US
43711,Ava,OH,740,US
43713,Barnesville,OH,740,US
43716,Beallsville,OH,740,US
43717,Belle Valley,OH,740,US
43718,Belmont,OH,740,US
43719,Bethesda,OH,740,US
43720,Blue Rock,OH,740,US
43721,Brownsville,OH,740,US
43722,Buffalo,OH,740,US
43723,Byesville,OH,740,US
43724,Caldwell,OH,740,US
43725,Cambridge,OH,740,US
43727,Chandlersville,OH,740,US
43728,Chesterhill,OH,740,US
43730,Corning,OH,740,US
43731,Crooksville,OH,740,US
43732,Cumberland,OH,740,US
43733,Derwent,OH,740,US
43734,Duncan Falls,OH,740,US
43735,East Fultonham,OH,740,US
43736,Fairview,OH,740,US
43738,Fultonham,OH,740,US
43739,Glenford,OH,740,US
43740,Gratiot,OH,740,US
43746,Hopewell,OH,740,US
43747,Jerusalem,OH,740,US
43748,Junction City,OH,740,US
43749,Kimbolton,OH,740,US
43750,Kipling,OH,740,US
43752,Laings,OH,740,US
43754,Lewisville,OH,740,US
43755,Lore City,OH,740,US
43756,Mcconnelsville,OH,740,US
43757,Malaga,OH,740,US
43758,Malta,OH,740,US
43759,Morristown,OH,740,US
43760,Mount Perry,OH,740,US
43761,Moxahala,OH,740,US
43762,New Concord,OH,740,US
43764,New Lexington,OH,740,US
43766,New Straitsville,OH,740,US
43767,Norwich,OH,740,US
43768,Old Washington,OH,740,US
43771,Philo,OH,740,US
43772,Pleasant City,OH,740,US
43773,Quaker City,OH,740,US
43777,Roseville,OH,740,US
43778,Salesville,OH,740,US
43779,Sarahsville,OH,740,US
43780,Senecaville,OH,740,US
43782,Shawnee,OH,740,US
43783,Somerset,OH,740,US
43786,Stafford,OH,740,US
43787,Stockport,OH,740,US
43788,Summerfield,OH,740,US
43789,Sycamore Valley,OH,740,US
43791,White Cottage,OH,740,US
43793,Woodsfield,OH,740,US
43802,Adamsville,OH,740,US
43803,Bakersville,OH,740,US
43804,Baltic,OH,330,US
43805,Blissfield,OH,740,US
43811,Conesville,OH,740,US
43812,Coshocton,OH,740,US
43821,Dresden,OH,740,US
43822,Frazeysburg,OH,740,US
43824,Fresno,OH,"7,40,330",US
43828,Keene,OH,740,US
43830,Nashport,OH,740,US
43832,Newcomerstown,OH,"7,40,330",US
43836,Plainfield,OH,740,US
43837,Port Washington,OH,740,US
43840,Stone Creek,OH,330,US
43842,Trinway,OH,740,US
43843,Walhonding,OH,740,US
43844,Warsaw,OH,740,US
43845,West Lafayette,OH,740,US
43901,Adena,OH,740,US
43902,Alledonia,OH,740,US
43903,Amsterdam,OH,"7,40,330",US
43905,Barton,OH,740,US
43906,Bellaire,OH,740,US
43907,Cadiz,OH,740,US
43908,Bergholz,OH,740,US
43909,Blaine,OH,740,US
43910,Bloomingdale,OH,740,US
43912,Bridgeport,OH,740,US
43913,Brilliant,OH,740,US
43914,Cameron,OH,740,US
43915,Clarington,OH,740,US
43916,Colerain,OH,740,US
43917,Dillonvale,OH,740,US
43920,East Liverpool,OH,"3,30,234",US
43925,East Springfield,OH,740,US
43926,Empire,OH,740,US
43927,Fairpoint,OH,740,US
43928,Glencoe,OH,740,US
43930,Hammondsville,OH,740,US
43931,Hannibal,OH,740,US
43932,Irondale,OH,"7,40,330",US
43933,Jacobsburg,OH,740,US
43934,Lansing,OH,740,US
43935,Martins Ferry,OH,740,US
43937,Maynard,OH,740,US
43938,Mingo Junction,OH,740,US
43939,Mount Pleasant,OH,740,US
43940,Neffs,OH,740,US
43941,Piney Fork,OH,740,US
43942,Powhatan Point,OH,740,US
43943,Rayland,OH,740,US
43944,Richmond,OH,740,US
43945,Salineville,OH,"3,30,740",US
43946,Sardis,OH,740,US
43947,Shadyside,OH,740,US
43948,Smithfield,OH,740,US
43950,Saint Clairsville,OH,740,US
43951,Lafferty,OH,740,US
43952,Steubenville,OH,740,US
43953,Steubenville,OH,740,US
43961,Stratton,OH,740,US
43962,Summitville,OH,330,US
43963,Tiltonsville,OH,740,US
43964,Toronto,OH,740,US
43967,Warnock,OH,740,US
43968,Wellsville,OH,330,US
43970,Wolf Run,OH,,US
43971,Yorkville,OH,740,US
43972,Bannock,OH,740,US
43973,Freeport,OH,740,US
43974,Harrisville,OH,740,US
43976,Hopedale,OH,740,US
43977,Flushing,OH,740,US
43981,New Athens,OH,740,US
43983,Piedmont,OH,740,US
43984,New Rumley,OH,740,US
43985,Holloway,OH,740,US
43986,Jewett,OH,"7,40,330",US
43988,Scio,OH,"7,40,330",US
44001,Amherst,OH,440,US
44003,Andover,OH,440,US
44004,Ashtabula,OH,440,US
44005,Ashtabula,OH,440,US
44010,Austinburg,OH,440,US
44011,Avon,OH,440,US
44012,Avon Lake,OH,440,US
44017,Berea,OH,"4,40,216",US
44021,Burton,OH,440,US
44022,Chagrin Falls,OH,"2,16,440",US
44023,Chagrin Falls,OH,"4,40,216",US
44024,Chardon,OH,"3,30,440",US
44026,Chesterland,OH,440,US
44028,Columbia Station,OH,"4,40,330",US
44030,Conneaut,OH,440,US
44032,Dorset,OH,440,US
44033,East Claridon,OH,440,US
44035,Elyria,OH,"2,16,440",US
44036,Elyria,OH,440,US
44039,North Ridgeville,OH,440,US
44040,Gates Mills,OH,440,US
44041,Geneva,OH,440,US
44044,Grafton,OH,"21,64,40,330",US
44045,Grand River,OH,440,US
44046,Huntsburg,OH,440,US
44047,Jefferson,OH,440,US
44048,Kingsville,OH,440,US
44049,Kipton,OH,440,US
44050,Lagrange,OH,440,US
44052,Lorain,OH,440,US
44053,Lorain,OH,440,US
44054,Sheffield Lake,OH,440,US
44055,Lorain,OH,440,US
44056,Macedonia,OH,"3,30,216",US
44057,Madison,OH,440,US
44060,Mentor,OH,440,US
44061,Mentor,OH,440,US
44062,Middlefield,OH,440,US
44064,Montville,OH,440,US
44065,Newbury,OH,440,US
44067,Northfield,OH,"3,30,216",US
44068,North Kingsville,OH,440,US
44070,North Olmsted,OH,"2,16,440",US
44072,Novelty,OH,440,US
44073,Novelty,OH,440,US
44074,Oberlin,OH,"4,40,614",US
44076,Orwell,OH,"4,40,330",US
44077,Painesville,OH,440,US
44080,Parkman,OH,"3,30,440",US
44081,Perry,OH,440,US
44082,Pierpont,OH,440,US
44084,Rock Creek,OH,440,US
44085,Rome,OH,440,US
44086,Thompson,OH,440,US
44087,Twinsburg,OH,"33,04,40,216",US
44088,Unionville,OH,440,US
44089,Vermilion,OH,440,US
44090,Wellington,OH,"4,40,330",US
44092,Wickliffe,OH,"2,16,440",US
44093,Williamsfield,OH,440,US
44094,Willoughby,OH,"4,40,216",US
44095,Eastlake,OH,"4,40,216",US
44096,Willoughby,OH,440,US
44097,Eastlake,OH,440,US
44099,Windsor,OH,440,US
44101,Cleveland,OH,"4,40,216",US
44102,Cleveland,OH,216,US
44103,Cleveland,OH,"2,16,440",US
44104,Cleveland,OH,216,US
44105,Cleveland,OH,216,US
44106,Cleveland,OH,"2,16,440",US
44107,Lakewood,OH,216,US
44108,Cleveland,OH,216,US
44109,Cleveland,OH,216,US
44110,Cleveland,OH,216,US
44111,Cleveland,OH,216,US
44112,Cleveland,OH,216,US
44113,Cleveland,OH,"21,63,30,440",US
44114,Cleveland,OH,"21,63,30,440",US
44115,Cleveland,OH,"2,16,440",US
44116,Rocky River,OH,"2,16,440",US
44117,Euclid,OH,"3,30,216",US
44118,Cleveland,OH,216,US
44119,Cleveland,OH,216,US
44120,Cleveland,OH,216,US
44121,Cleveland,OH,"2,16,440",US
44122,Beachwood,OH,"21,63,30,440",US
44123,Euclid,OH,216,US
44124,Cleveland,OH,"21,64,40,330",US
44125,Cleveland,OH,"2,16,440",US
44126,Cleveland,OH,"4,40,216",US
44127,Cleveland,OH,216,US
44128,Cleveland,OH,"2,16,440",US
44129,Cleveland,OH,"33,04,40,216",US
44130,Cleveland,OH,"4,40,216",US
44131,Independence,OH,"2,16,440",US
44132,Euclid,OH,"2,16,440",US
44133,North Royalton,OH,"44,02,16,330",US
44134,Cleveland,OH,"2,16,440",US
44135,Cleveland,OH,216,US
44136,Strongsville,OH,"4,40,216",US
44137,Maple Heights,OH,216,US
44138,Olmsted Falls,OH,"4,40,216",US
44139,Solon,OH,"2,16,440",US
44140,Bay Village,OH,"44,02,16,330",US
44141,Brecksville,OH,"21,64,40,330",US
44142,Brookpark,OH,"2,16,440",US
44143,Cleveland,OH,"2,16,440",US
44144,Cleveland,OH,216,US
44145,Westlake,OH,"2,16,440",US
44146,Bedford,OH,"4,40,216",US
44147,Broadview Heights,OH,"4,40,216",US
44149,Strongsville,OH,440,US
44178,Cleveland,OH,216,US
44181,Cleveland,OH,216,US
44185,Cleveland,OH,216,US
44188,Cleveland,OH,216,US
44189,Cleveland,OH,216,US
44190,Cleveland,OH,216,US
44191,Cleveland,OH,216,US
44192,Cleveland,OH,216,US
44193,Cleveland,OH,216,US
44194,Cleveland,OH,216,US
44195,Cleveland,OH,216,US
44197,Cleveland,OH,216,US
44198,Cleveland,OH,216,US
44199,Cleveland,OH,216,US
44201,Atwater,OH,330,US
44202,Aurora,OH,"21,63,30,440",US
44203,Barberton,OH,330,US
44210,Bath,OH,330,US
44211,Brady Lake,OH,234,US
44212,Brunswick,OH,330,US
44214,Burbank,OH,"3,30,419",US
44215,Chippewa Lake,OH,330,US
44216,Clinton,OH,330,US
44217,Creston,OH,330,US
44221,Cuyahoga Falls,OH,330,US
44222,Cuyahoga Falls,OH,234,US
44223,Cuyahoga Falls,OH,330,US
44224,Stow,OH,330,US
44230,Doylestown,OH,330,US
44231,Garrettsville,OH,"3,30,440",US
44232,Green,OH,330,US
44233,Hinckley,OH,330,US
44234,Hiram,OH,330,US
44235,Homerville,OH,330,US
44236,Hudson,OH,"3,30,234",US
44237,Hudson,OH,234,US
44240,Kent,OH,330,US
44241,Streetsboro,OH,330,US
44242,Kent,OH,330,US
44243,Kent,OH,330,US
44250,Lakemore,OH,330,US
44251,Westfield Center,OH,330,US
44253,Litchfield,OH,330,US
44254,Lodi,OH,330,US
44255,Mantua,OH,"3,30,440",US
44256,Medina,OH,330,US
44258,Medina,OH,330,US
44260,Mogadore,OH,330,US
44262,Munroe Falls,OH,330,US
44264,Peninsula,OH,330,US
44265,Randolph,OH,234,US
44266,Ravenna,OH,330,US
44270,Rittman,OH,330,US
44272,Rootstown,OH,330,US
44273,Seville,OH,330,US
44274,Sharon Center,OH,330,US
44275,Spencer,OH,330,US
44276,Sterling,OH,330,US
44278,Tallmadge,OH,330,US
44280,Valley City,OH,"3,30,216",US
44281,Wadsworth,OH,"3,30,234",US
44282,Wadsworth,OH,234,US
44285,Wayland,OH,330,US
44286,Richfield,OH,"3,30,216",US
44287,West Salem,OH,"41,93,30,567",US
44288,Windham,OH,330,US
44301,Akron,OH,330,US
44302,Akron,OH,"3,30,234",US
44303,Akron,OH,330,US
44304,Akron,OH,"3,30,234",US
44305,Akron,OH,330,US
44306,Akron,OH,330,US
44307,Akron,OH,330,US
44308,Akron,OH,"3,30,234",US
44309,Akron,OH,330,US
44310,Akron,OH,330,US
44311,Akron,OH,330,US
44312,Akron,OH,330,US
44313,Akron,OH,"2,16,330",US
44314,Akron,OH,330,US
44315,Akron,OH,330,US
44316,Akron,OH,330,US
44317,Akron,OH,234,US
44319,Akron,OH,"3,30,234",US
44320,Akron,OH,330,US
44321,Akron,OH,330,US
44322,Akron,OH,234,US
44325,Akron,OH,330,US
44326,Akron,OH,330,US
44328,Akron,OH,330,US
44333,Akron,OH,"3,30,234",US
44334,Fairlawn,OH,234,US
44372,Akron,OH,234,US
44393,Akron,OH,234,US
44396,Akron,OH,234,US
44398,Akron,OH,234,US
44399,Akron,OH,234,US
44401,Berlin Center,OH,330,US
44402,Bristolville,OH,330,US
44403,Brookfield,OH,330,US
44404,Burghill,OH,330,US
44405,Campbell,OH,330,US
44406,Canfield,OH,330,US
44408,Columbiana,OH,330,US
44410,Cortland,OH,"3,30,234",US
44411,Deerfield,OH,330,US
44412,Diamond,OH,330,US
44413,East Palestine,OH,"3,30,724",US
44415,Elkton,OH,234,US
44416,Ellsworth,OH,234,US
44417,Farmdale,OH,330,US
44418,Fowler,OH,330,US
44420,Girard,OH,"3,30,234",US
44422,Greenford,OH,234,US
44423,Hanoverton,OH,330,US
44424,Hartford,OH,330,US
44425,Hubbard,OH,330,US
44427,Kensington,OH,330,US
44428,Kinsman,OH,330,US
44429,Lake Milton,OH,330,US
44430,Leavittsburg,OH,330,US
44431,Leetonia,OH,330,US
44432,Lisbon,OH,330,US
44436,Lowellville,OH,330,US
44437,Mc Donald,OH,330,US
44438,Masury,OH,330,US
44439,Mesopotamia,OH,440,US
44440,Mineral Ridge,OH,330,US
44441,Negley,OH,330,US
44442,New Middletown,OH,330,US
44443,New Springfield,OH,330,US
44444,Newton Falls,OH,330,US
44445,New Waterford,OH,330,US
44446,Niles,OH,330,US
44449,North Benton,OH,330,US
44450,North Bloomfield,OH,"3,30,440",US
44451,North Jackson,OH,330,US
44452,North Lima,OH,"3,30,234",US
44453,Orangeville,OH,330,US
44454,Petersburg,OH,330,US
44455,Rogers,OH,330,US
44460,Salem,OH,"3,30,234",US
44470,Southington,OH,330,US
44471,Struthers,OH,330,US
44473,Vienna,OH,330,US
44481,Warren,OH,330,US
44482,Warren,OH,330,US
44483,Warren,OH,330,US
44484,Warren,OH,330,US
44485,Warren,OH,330,US
44486,Warren,OH,234,US
44488,Warren,OH,234,US
44490,Washingtonville,OH,330,US
44491,West Farmington,OH,"3,30,440",US
44492,West Point,OH,234,US
44493,Winona,OH,330,US
44501,Youngstown,OH,330,US
44502,Youngstown,OH,330,US
44503,Youngstown,OH,"3,30,234",US
44504,Youngstown,OH,330,US
44505,Youngstown,OH,330,US
44506,Youngstown,OH,330,US
44507,Youngstown,OH,330,US
44509,Youngstown,OH,330,US
44510,Youngstown,OH,330,US
44511,Youngstown,OH,330,US
44512,Youngstown,OH,330,US
44513,Youngstown,OH,234,US
44514,Youngstown,OH,330,US
44515,Youngstown,OH,330,US
44555,Youngstown,OH,330,US
44601,Alliance,OH,330,US
44606,Apple Creek,OH,330,US
44607,Augusta,OH,330,US
44608,Beach City,OH,330,US
44609,Beloit,OH,330,US
44610,Berlin,OH,330,US
44611,Big Prairie,OH,"33,04,19,234",US
44612,Bolivar,OH,330,US
44613,Brewster,OH,330,US
44614,Canal Fulton,OH,"3,30,234",US
44615,Carrollton,OH,"3,30,740",US
44617,Charm,OH,330,US
44618,Dalton,OH,330,US
44619,Damascus,OH,330,US
44620,Dellroy,OH,330,US
44621,Dennison,OH,"7,40,330",US
44622,Dover,OH,330,US
44624,Dundee,OH,330,US
44625,East Rochester,OH,330,US
44626,East Sparta,OH,330,US
44627,Fredericksburg,OH,330,US
44628,Glenmont,OH,"3,30,234",US
44629,Gnadenhutten,OH,740,US
44630,Greentown,OH,234,US
44631,Harlem Springs,OH,330,US
44632,Hartville,OH,330,US
44633,Holmesville,OH,330,US
44634,Homeworth,OH,330,US
44636,Kidron,OH,330,US
44637,Killbuck,OH,"3,30,234",US
44638,Lakeville,OH,"4,19,330",US
44639,Leesville,OH,740,US
44640,Limaville,OH,234,US
44641,Louisville,OH,330,US
44643,Magnolia,OH,330,US
44644,Malvern,OH,330,US
44645,Marshallville,OH,330,US
44646,Massillon,OH,330,US
44647,Massillon,OH,"3,30,234",US
44648,Massillon,OH,234,US
44650,Maximo,OH,234,US
44651,Mechanicstown,OH,"3,30,740",US
44652,Middlebranch,OH,234,US
44653,Midvale,OH,330,US
44654,Millersburg,OH,330,US
44656,Mineral City,OH,330,US
44657,Minerva,OH,330,US
44659,Mount Eaton,OH,330,US
44660,Mount Hope,OH,234,US
44661,Nashville,OH,330,US
44662,Navarre,OH,330,US
44663,New Philadelphia,OH,"3,30,740",US
44665,North Georgetown,OH,330,US
44666,North Lawrence,OH,330,US
44667,Orrville,OH,330,US
44669,Paris,OH,330,US
44670,Robertsville,OH,330,US
44671,Sandyville,OH,,US
44672,Sebring,OH,330,US
44675,Sherrodsville,OH,"7,40,330",US
44676,Shreve,OH,330,US
44677,Smithville,OH,330,US
44678,Somerdale,OH,330,US
44679,Stillwater,OH,,US
44680,Strasburg,OH,330,US
44681,Sugarcreek,OH,330,US
44682,Tuscarawas,OH,,US
44683,Uhrichsville,OH,740,US
44685,Uniontown,OH,330,US
44687,Walnut Creek,OH,330,US
44688,Waynesburg,OH,330,US
44689,Wilmot,OH,330,US
44690,Winesburg,OH,330,US
44691,Wooster,OH,"33,04,19,234",US
44693,Deersville,OH,740,US
44695,Bowerston,OH,740,US
44697,Zoar,OH,330,US
44699,Tippecanoe,OH,"6,14,740",US
44701,Canton,OH,330,US
44702,Canton,OH,330,US
44703,Canton,OH,330,US
44704,Canton,OH,330,US
44705,Canton,OH,330,US
44706,Canton,OH,330,US
44707,Canton,OH,330,US
44708,Canton,OH,330,US
44709,Canton,OH,330,US
44710,Canton,OH,330,US
44711,Canton,OH,330,US
44714,Canton,OH,330,US
44718,Canton,OH,330,US
44720,North Canton,OH,"3,30,234",US
44721,Canton,OH,330,US
44730,East Canton,OH,330,US
44735,Canton,OH,234,US
44750,Canton,OH,234,US
44767,Canton,OH,234,US
44799,Canton,OH,234,US
44802,Alvada,OH,419,US
44804,Arcadia,OH,"4,19,567",US
44805,Ashland,OH,"4,19,567",US
44807,Attica,OH,"4,19,567",US
44809,Bascom,OH,419,US
44811,Bellevue,OH,"4,19,567",US
44813,Bellville,OH,"41,97,40,567",US
44814,Berlin Heights,OH,"41,94,40,567",US
44815,Bettsville,OH,419,US
44816,Birmingham,OH,440,US
44817,Bloomdale,OH,419,US
44818,Bloomville,OH,419,US
44820,Bucyrus,OH,"4,19,740",US
44822,Butler,OH,"4,19,740",US
44824,Castalia,OH,"4,19,567",US
44825,Chatfield,OH,419,US
44826,Collins,OH,419,US
44827,Crestline,OH,"4,19,567",US
44828,Flat Rock,OH,419,US
44830,Fostoria,OH,"4,19,567",US
44833,Galion,OH,"4,19,567",US
44836,Green Springs,OH,419,US
44837,Greenwich,OH,"4,19,567",US
44838,Hayesville,OH,419,US
44839,Huron,OH,"41,94,40,567",US
44840,Jeromesville,OH,419,US
44841,Kansas,OH,"4,19,567",US
44842,Loudonville,OH,"4,19,567",US
44843,Lucas,OH,"4,19,567",US
44844,Mc Cutchenville,OH,419,US
44845,Melmore,OH,419,US
44846,Milan,OH,"4,19,567",US
44847,Monroeville,OH,"4,19,567",US
44848,Nankin,OH,419,US
44849,Nevada,OH,"7,40,419",US
44850,New Haven,OH,419,US
44851,New London,OH,"41,94,40,567",US
44853,New Riegel,OH,"4,19,567",US
44854,New Washington,OH,"4,19,567",US
44855,North Fairfield,OH,419,US
44856,North Robinson,OH,419,US
44857,Norwalk,OH,"4,19,567",US
44859,Nova,OH,419,US
44860,Oceola,OH,419,US
44861,Old Fort,OH,419,US
44862,Ontario,OH,419,US
44864,Perrysville,OH,"4,19,567",US
44865,Plymouth,OH,419,US
44866,Polk,OH,419,US
44867,Republic,OH,419,US
44870,Sandusky,OH,"41,93,30,567",US
44871,Sandusky,OH,419,US
44874,Savannah,OH,419,US
44875,Shelby,OH,"4,19,567",US
44878,Shiloh,OH,"4,19,567",US
44880,Sullivan,OH,"4,19,330",US
44881,Sulphur Springs,OH,419,US
44882,Sycamore,OH,"4,19,740",US
44883,Tiffin,OH,"4,19,567",US
44887,Tiro,OH,419,US
44888,Willard,OH,419,US
44889,Wakeman,OH,"4,40,419",US
44890,Willard,OH,"4,19,567",US
44901,Mansfield,OH,419,US
44902,Mansfield,OH,"4,19,567",US
44903,Mansfield,OH,"4,19,567",US
44904,Mansfield,OH,419,US
44905,Mansfield,OH,419,US
44906,Mansfield,OH,419,US
44907,Mansfield,OH,"4,19,567",US
44999,Mansfield,OH,419,US
45001,Addyston,OH,513,US
45002,Cleves,OH,513,US
45003,College Corner,OH,"5,13,765",US
45004,Collinsville,OH,,US
45005,Franklin,OH,"5,13,937",US
45011,Hamilton,OH,513,US
45012,Hamilton,OH,513,US
45013,Hamilton,OH,513,US
45014,Fairfield,OH,513,US
45015,Hamilton,OH,513,US
45018,Fairfield,OH,513,US
45025,Hamilton,OH,513,US
45026,Hamilton,OH,513,US
45030,Harrison,OH,513,US
45032,Harveysburg,OH,513,US
45033,Hooven,OH,513,US
45034,Kings Mills,OH,513,US
45036,Lebanon,OH,"5,13,937",US
45039,Maineville,OH,513,US
45040,Mason,OH,513,US
45041,Miamitown,OH,513,US
45042,Middletown,OH,"5,13,937",US
45043,Middletown,OH,513,US
45044,Middletown,OH,"5,13,937",US
45050,Monroe,OH,513,US
45051,Mount Saint Joseph,OH,513,US
45052,North Bend,OH,"5,13,270",US
45053,Okeana,OH,513,US
45054,Oregonia,OH,"9,37,513",US
45055,Overpeck,OH,,US
45056,Oxford,OH,513,US
45061,Ross,OH,,US
45062,Seven Mile,OH,513,US
45063,Shandon,OH,,US
45064,Somerville,OH,"9,37,513",US
45065,South Lebanon,OH,513,US
45066,Springboro,OH,"5,13,937",US
45067,Trenton,OH,513,US
45068,Waynesville,OH,"5,13,937",US
45069,West Chester,OH,"5,13,614",US
45070,West Elkton,OH,937,US
45071,West Chester,OH,513,US
45101,Aberdeen,OH,937,US
45102,Amelia,OH,513,US
45103,Batavia,OH,513,US
45105,Bentonville,OH,937,US
45106,Bethel,OH,"5,13,937",US
45107,Blanchester,OH,"9,37,513",US
45110,Buford,OH,937,US
45111,Camp Dennison,OH,513,US
45112,Chilo,OH,513,US
45113,Clarksville,OH,937,US
45114,Cuba,OH,,US
45115,Decatur,OH,937,US
45118,Fayetteville,OH,513,US
45119,Feesburg,OH,937,US
45120,Felicity,OH,"9,37,513",US
45121,Georgetown,OH,"9,37,513",US
45122,Goshen,OH,513,US
45123,Greenfield,OH,937,US
45130,Hamersville,OH,"9,37,513",US
45131,Higginsport,OH,937,US
45132,Highland,OH,937,US
45133,Hillsboro,OH,"9,37,740",US
45135,Leesburg,OH,937,US
45138,Lees Creek,OH,,US
45140,Loveland,OH,513,US
45142,Lynchburg,OH,"9,37,513",US
45144,Manchester,OH,937,US
45145,Marathon,OH,513,US
45146,Martinsville,OH,937,US
45147,Miamiville,OH,513,US
45148,Midland,OH,"9,37,513",US
45150,Milford,OH,513,US
45152,Morrow,OH,"5,13,937",US
45153,Moscow,OH,513,US
45154,Mount Orab,OH,"9,37,513",US
45155,Mowrystown,OH,937,US
45156,Neville,OH,513,US
45157,New Richmond,OH,513,US
45158,Newtonsville,OH,513,US
45159,New Vienna,OH,937,US
45160,Owensville,OH,513,US
45162,Pleasant Plain,OH,513,US
45164,Port William,OH,937,US
45166,Reesville,OH,937,US
45167,Ripley,OH,937,US
45168,Russellville,OH,937,US
45169,Sabina,OH,"9,37,740",US
45171,Sardinia,OH,937,US
45172,Sinking Spring,OH,937,US
45174,Terrace Park,OH,513,US
45176,Williamsburg,OH,"5,13,937",US
45177,Wilmington,OH,937,US
45201,Cincinnati,OH,513,US
45202,Cincinnati,OH,513,US
45203,Cincinnati,OH,513,US
45204,Cincinnati,OH,513,US
45205,Cincinnati,OH,513,US
45206,Cincinnati,OH,513,US
45207,Cincinnati,OH,513,US
45208,Cincinnati,OH,513,US
45209,Cincinnati,OH,513,US
45211,Cincinnati,OH,513,US
45212,Cincinnati,OH,513,US
45213,Cincinnati,OH,513,US
45214,Cincinnati,OH,513,US
45215,Cincinnati,OH,513,US
45216,Cincinnati,OH,513,US
45217,Cincinnati,OH,513,US
45218,Cincinnati,OH,513,US
45219,Cincinnati,OH,"5,13,859",US
45220,Cincinnati,OH,513,US
45221,Cincinnati,OH,513,US
45222,Cincinnati,OH,513,US
45223,Cincinnati,OH,513,US
45224,Cincinnati,OH,513,US
45225,Cincinnati,OH,513,US
45226,Cincinnati,OH,513,US
45227,Cincinnati,OH,513,US
45228,Cincinnati,OH,513,US
45229,Cincinnati,OH,513,US
45230,Cincinnati,OH,513,US
45231,Cincinnati,OH,513,US
45232,Cincinnati,OH,513,US
45233,Cincinnati,OH,513,US
45234,Cincinnati,OH,513,US
45235,Cincinnati,OH,513,US
45236,Cincinnati,OH,513,US
45237,Cincinnati,OH,513,US
45238,Cincinnati,OH,513,US
45239,Cincinnati,OH,513,US
45240,Cincinnati,OH,513,US
45241,Cincinnati,OH,513,US
45242,Cincinnati,OH,513,US
45243,Cincinnati,OH,513,US
45244,Cincinnati,OH,513,US
45245,Cincinnati,OH,513,US
45246,Cincinnati,OH,513,US
45247,Cincinnati,OH,513,US
45248,Cincinnati,OH,513,US
45249,Cincinnati,OH,513,US
45250,Cincinnati,OH,513,US
45251,Cincinnati,OH,513,US
45252,Cincinnati,OH,513,US
45253,Cincinnati,OH,513,US
45254,Cincinnati,OH,513,US
45255,Cincinnati,OH,513,US
45258,Cincinnati,OH,513,US
45262,Cincinnati,OH,513,US
45263,Cincinnati,OH,513,US
45264,Cincinnati,OH,513,US
45267,Cincinnati,OH,513,US
45268,Cincinnati,OH,513,US
45269,Cincinnati,OH,513,US
45270,Cincinnati,OH,513,US
45271,Cincinnati,OH,513,US
45273,Cincinnati,OH,513,US
45274,Cincinnati,OH,513,US
45275,Cincinnati,OH,859,US
45277,Cincinnati,OH,513,US
45280,Cincinnati,OH,513,US
45296,Cincinnati,OH,513,US
45298,Cincinnati,OH,513,US
45299,Cincinnati,OH,513,US
45301,Alpha,OH,937,US
45302,Anna,OH,"9,37,419",US
45303,Ansonia,OH,937,US
45304,Arcanum,OH,937,US
45305,Bellbrook,OH,937,US
45306,Botkins,OH,"9,37,419",US
45307,Bowersville,OH,937,US
45308,Bradford,OH,937,US
45309,Brookville,OH,937,US
45310,Burkettsville,OH,"4,19,937",US
45311,Camden,OH,"5,13,937",US
45312,Casstown,OH,937,US
45314,Cedarville,OH,937,US
45315,Clayton,OH,937,US
45316,Clifton,OH,937,US
45317,Conover,OH,937,US
45318,Covington,OH,937,US
45319,Donnelsville,OH,937,US
45320,Eaton,OH,"9,37,513",US
45321,Eldorado,OH,937,US
45322,Englewood,OH,937,US
45323,Enon,OH,937,US
45324,Fairborn,OH,937,US
45325,Farmersville,OH,937,US
45326,Fletcher,OH,937,US
45327,Germantown,OH,937,US
45328,Gettysburg,OH,937,US
45330,Gratis,OH,937,US
45331,Greenville,OH,937,US
45332,Hollansburg,OH,937,US
45333,Houston,OH,937,US
45334,Jackson Center,OH,937,US
45335,Jamestown,OH,"9,37,740",US
45336,Kettlersville,OH,937,US
45337,Laura,OH,937,US
45338,Lewisburg,OH,937,US
45339,Ludlow Falls,OH,937,US
45340,Maplewood,OH,937,US
45341,Medway,OH,937,US
45342,Miamisburg,OH,"5,13,937",US
45343,Miamisburg,OH,937,US
45344,New Carlisle,OH,"5,13,937",US
45345,New Lebanon,OH,"9,37,513",US
45346,New Madison,OH,937,US
45347,New Paris,OH,937,US
45348,New Weston,OH,"9,37,419",US
45349,North Hampton,OH,937,US
45350,North Star,OH,419,US
45351,Osgood,OH,419,US
45352,Palestine,OH,,US
45353,Pemberton,OH,937,US
45354,Phillipsburg,OH,937,US
45356,Piqua,OH,937,US
45358,Pitsburg,OH,937,US
45359,Pleasant Hill,OH,937,US
45360,Port Jefferson,OH,937,US
45361,Potsdam,OH,937,US
45362,Rossburg,OH,"93,74,19,567",US
45363,Russia,OH,937,US
45365,Sidney,OH,937,US
45367,Sidney,OH,937,US
45368,South Charleston,OH,937,US
45369,South Vienna,OH,937,US
45370,Spring Valley,OH,937,US
45371,Tipp City,OH,937,US
45372,Tremont City,OH,937,US
45373,Troy,OH,937,US
45374,Troy,OH,937,US
45377,Vandalia,OH,937,US
45378,Verona,OH,937,US
45380,Versailles,OH,"9,37,419",US
45381,West Alexandria,OH,937,US
45382,West Manchester,OH,937,US
45383,West Milton,OH,937,US
45384,Wilberforce,OH,937,US
45385,Xenia,OH,937,US
45387,Yellow Springs,OH,937,US
45388,Yorkshire,OH,"4,19,567",US
45389,Christiansburg,OH,937,US
45390,Union City,OH,937,US
45400,Dayton,OH,937,US
45401,Dayton,OH,937,US
45402,Dayton,OH,937,US
45403,Dayton,OH,937,US
45404,Dayton,OH,937,US
45405,Dayton,OH,937,US
45406,Dayton,OH,937,US
45408,Dayton,OH,937,US
45409,Dayton,OH,937,US
45410,Dayton,OH,937,US
45412,Dayton,OH,937,US
45413,Dayton,OH,937,US
45414,Dayton,OH,937,US
45415,Dayton,OH,937,US
45416,Dayton,OH,937,US
45417,Dayton,OH,"5,13,937",US
45418,Dayton,OH,937,US
45419,Dayton,OH,"9,37,513",US
45420,Dayton,OH,"9,37,513",US
45422,Dayton,OH,937,US
45423,Dayton,OH,937,US
45424,Dayton,OH,"5,13,937",US
45426,Dayton,OH,937,US
45427,Dayton,OH,937,US
45428,Dayton,OH,937,US
45429,Dayton,OH,"9,37,513",US
45430,Dayton,OH,937,US
45431,Dayton,OH,937,US
45432,Dayton,OH,937,US
45433,Dayton,OH,937,US
45434,Dayton,OH,937,US
45435,Dayton,OH,937,US
45437,Dayton,OH,937,US
45439,Dayton,OH,"9,37,513",US
45440,Dayton,OH,937,US
45441,Dayton,OH,937,US
45448,Dayton,OH,937,US
45449,Dayton,OH,937,US
45454,Dayton,OH,937,US
45458,Dayton,OH,937,US
45459,Dayton,OH,"5,13,937",US
45463,Dayton,OH,937,US
45469,Dayton,OH,937,US
45470,Dayton,OH,937,US
45475,Dayton,OH,937,US
45479,Dayton,OH,937,US
45481,Dayton,OH,937,US
45482,Dayton,OH,937,US
45490,Dayton,OH,937,US
45501,Springfield,OH,937,US
45502,Springfield,OH,937,US
45503,Springfield,OH,937,US
45504,Springfield,OH,937,US
45505,Springfield,OH,937,US
45506,Springfield,OH,937,US
45601,Chillicothe,OH,740,US
45612,Bainbridge,OH,"7,40,937",US
45613,Beaver,OH,740,US
45614,Bidwell,OH,740,US
45616,Blue Creek,OH,"9,37,740",US
45617,Bourneville,OH,740,US
45618,Cherry Fork,OH,937,US
45619,Chesapeake,OH,740,US
45620,Cheshire,OH,740,US
45621,Coalton,OH,740,US
45622,Creola,OH,740,US
45623,Crown City,OH,740,US
45624,Cynthiana,OH,740,US
45628,Frankfort,OH,"7,40,937",US
45629,Franklin Furnace,OH,740,US
45630,Friendship,OH,740,US
45631,Gallipolis,OH,740,US
45633,Hallsville,OH,740,US
45634,Hamden,OH,740,US
45636,Haverhill,OH,740,US
45638,Ironton,OH,740,US
45640,Jackson,OH,740,US
45642,Jasper,OH,740,US
45643,Kerr,OH,740,US
45644,Kingston,OH,740,US
45645,Kitts Hill,OH,740,US
45646,Latham,OH,"9,37,740",US
45647,Londonderry,OH,740,US
45648,Lucasville,OH,740,US
45650,Lynx,OH,937,US
45651,Mc Arthur,OH,740,US
45652,Mc Dermott,OH,740,US
45653,Minford,OH,740,US
45654,New Plymouth,OH,740,US
45656,Oak Hill,OH,740,US
45657,Otway,OH,"7,40,937",US
45658,Patriot,OH,740,US
45659,Pedro,OH,740,US
45660,Peebles,OH,"9,37,740",US
45661,Piketon,OH,"7,40,937",US
45662,Portsmouth,OH,740,US
45663,West Portsmouth,OH,740,US
45669,Proctorville,OH,740,US
45671,Rarden,OH,740,US
45672,Ray,OH,740,US
45673,Richmond Dale,OH,740,US
45674,Rio Grande,OH,740,US
45675,Rock Camp,OH,740,US
45677,Scioto Furnace,OH,740,US
45678,Scottown,OH,740,US
45679,Seaman,OH,937,US
45680,South Point,OH,740,US
45681,South Salem,OH,"7,40,937",US
45682,South Webster,OH,740,US
45683,Stockdale,OH,740,US
45684,Stout,OH,"7,40,937",US
45685,Thurman,OH,740,US
45686,Vinton,OH,740,US
45687,Wakefield,OH,740,US
45688,Waterloo,OH,740,US
45690,Waverly,OH,740,US
45692,Wellston,OH,740,US
45693,West Union,OH,937,US
45694,Wheelersburg,OH,740,US
45695,Wilkesville,OH,740,US
45696,Willow Wood,OH,"6,14,740",US
45697,Winchester,OH,937,US
45698,Zaleski,OH,740,US
45699,Lucasville,OH,740,US
45701,Athens,OH,"6,14,740",US
45710,Albany,OH,740,US
45711,Amesville,OH,740,US
45712,Barlow,OH,740,US
45713,Bartlett,OH,740,US
45714,Belpre,OH,"3,04,740",US
45715,Beverly,OH,740,US
45716,Buchtel,OH,740,US
45717,Carbondale,OH,740,US
45719,Chauncey,OH,740,US
45720,Chester,OH,740,US
45721,Coal Run,OH,740,US
45723,Coolville,OH,740,US
45724,Cutler,OH,740,US
45727,Dexter City,OH,740,US
45729,Fleming,OH,740,US
45732,Glouster,OH,740,US
45734,Graysville,OH,740,US
45735,Guysville,OH,740,US
45739,Hockingport,OH,740,US
45740,Jacksonville,OH,740,US
45741,Langsville,OH,740,US
45742,Little Hocking,OH,740,US
45743,Long Bottom,OH,740,US
45744,Lowell,OH,740,US
45745,Lower Salem,OH,740,US
45746,Macksburg,OH,740,US
45750,Marietta,OH,740,US
45760,Middleport,OH,740,US
45761,Millfield,OH,740,US
45764,Nelsonville,OH,740,US
45766,New Marshfield,OH,740,US
45767,New Matamoras,OH,740,US
45768,Newport,OH,740,US
45769,Pomeroy,OH,740,US
45770,Portland,OH,740,US
45771,Racine,OH,740,US
45772,Reedsville,OH,740,US
45773,Reno,OH,740,US
45775,Rutland,OH,740,US
45776,Shade,OH,740,US
45777,Sharpsburg,OH,740,US
45778,Stewart,OH,740,US
45779,Syracuse,OH,740,US
45780,The Plains,OH,740,US
45782,Trimble,OH,740,US
45783,Tuppers Plains,OH,740,US
45784,Vincent,OH,740,US
45786,Waterford,OH,740,US
45787,Watertown,OH,740,US
45788,Whipple,OH,740,US
45789,Wingett Run,OH,740,US
45801,Lima,OH,"41,99,37,567",US
45802,Lima,OH,419,US
45804,Lima,OH,"4,19,567",US
45805,Lima,OH,"4,19,567",US
45806,Lima,OH,419,US
45807,Lima,OH,419,US
45808,Beaverdam,OH,419,US
45809,Gomer,OH,419,US
45810,Ada,OH,"4,19,567",US
45812,Alger,OH,419,US
45813,Antwerp,OH,419,US
45814,Arlington,OH,419,US
45815,Belmore,OH,419,US
45816,Benton Ridge,OH,419,US
45817,Bluffton,OH,"4,19,567",US
45819,Buckland,OH,"41,99,37,567",US
45820,Cairo,OH,419,US
45821,Cecil,OH,419,US
45822,Celina,OH,"4,19,567",US
45826,Chickasaw,OH,419,US
45827,Cloverdale,OH,419,US
45828,Coldwater,OH,419,US
45830,Columbus Grove,OH,419,US
45831,Continental,OH,419,US
45832,Convoy,OH,419,US
45833,Delphos,OH,"4,19,567",US
45835,Dola,OH,419,US
45836,Dunkirk,OH,419,US
45837,Dupont,OH,419,US
45838,Elgin,OH,419,US
45839,Findlay,OH,419,US
45840,Findlay,OH,"4,19,567",US
45841,Jenera,OH,419,US
45843,Forest,OH,419,US
45844,Fort Jennings,OH,419,US
45845,Fort Loramie,OH,"9,37,419",US
45846,Fort Recovery,OH,"41,99,37,567",US
45848,Glandorf,OH,419,US
45849,Grover Hill,OH,419,US
45850,Harrod,OH,419,US
45851,Haviland,OH,419,US
45853,Kalida,OH,419,US
45854,Lafayette,OH,419,US
45855,Latty,OH,419,US
45856,Leipsic,OH,419,US
45858,Mc Comb,OH,419,US
45859,Mc Guffey,OH,419,US
45860,Maria Stein,OH,419,US
45861,Melrose,OH,419,US
45862,Mendon,OH,419,US
45863,Middle Point,OH,419,US
45864,Miller City,OH,419,US
45865,Minster,OH,"4,19,937",US
45866,Montezuma,OH,419,US
45867,Mount Blanchard,OH,419,US
45868,Mount Cory,OH,419,US
45869,New Bremen,OH,419,US
45870,New Hampshire,OH,419,US
45871,New Knoxville,OH,419,US
45872,North Baltimore,OH,419,US
45873,Oakwood,OH,419,US
45874,Ohio City,OH,419,US
45875,Ottawa,OH,419,US
45876,Ottoville,OH,419,US
45877,Pandora,OH,419,US
45879,Paulding,OH,419,US
45880,Payne,OH,419,US
45881,Rawson,OH,419,US
45882,Rockford,OH,"4,19,567",US
45883,Saint Henry,OH,419,US
45884,Saint Johns,OH,419,US
45885,Saint Marys,OH,"4,19,567",US
45886,Scott,OH,"4,19,567",US
45887,Spencerville,OH,419,US
45888,Uniopolis,OH,419,US
45889,Van Buren,OH,"4,19,567",US
45890,Vanlue,OH,419,US
45891,Van Wert,OH,419,US
45893,Vaughnsville,OH,419,US
45894,Venedocia,OH,419,US
45895,Wapakoneta,OH,"4,19,937",US
45896,Waynesfield,OH,"4,19,937",US
45897,Williamstown,OH,419,US
45898,Willshire,OH,419,US
45899,Wren,OH,419,US
45999,Cincinnati,OH,513,US
46001,Alexandria,IN,765,US
46011,Anderson,IN,765,US
46012,Anderson,IN,765,US
46013,Anderson,IN,765,US
46014,Anderson,IN,765,US
46015,Anderson,IN,765,US
46016,Anderson,IN,765,US
46017,Anderson,IN,765,US
46018,Anderson,IN,765,US
46030,Arcadia,IN,"3,17,765",US
46031,Atlanta,IN,"7,65,317",US
46032,Carmel,IN,317,US
46033,Carmel,IN,317,US
46034,Cicero,IN,317,US
46035,Colfax,IN,765,US
46036,Elwood,IN,"7,65,317",US
46037,Fishers,IN,317,US
46038,Fishers,IN,317,US
46039,Forest,IN,765,US
46040,Fortville,IN,"3,17,765",US
46041,Frankfort,IN,765,US
46044,Frankton,IN,765,US
46045,Goldsmith,IN,765,US
46047,Hobbs,IN,765,US
46048,Ingalls,IN,317,US
46049,Kempton,IN,765,US
46050,Kirklin,IN,765,US
46051,Lapel,IN,765,US
46052,Lebanon,IN,"3,17,765",US
46055,Mc Cordsville,IN,"3,17,765",US
46056,Markleville,IN,765,US
46057,Michigantown,IN,765,US
46058,Mulberry,IN,765,US
46060,Noblesville,IN,"3,17,765",US
46061,Noblesville,IN,317,US
46062,Noblesville,IN,317,US
46063,Orestes,IN,765,US
46064,Pendleton,IN,"7,65,317",US
46065,Rossville,IN,765,US
46067,Sedalia,IN,765,US
46068,Sharpsville,IN,765,US
46069,Sheridan,IN,"3,17,765",US
46070,Summitville,IN,765,US
46071,Thorntown,IN,765,US
46072,Tipton,IN,"7,65,317",US
46074,Westfield,IN,317,US
46075,Whitestown,IN,317,US
46076,Windfall,IN,765,US
46077,Zionsville,IN,317,US
46082,Carmel,IN,317,US
46085,Fishers,IN,317,US
46102,Advance,IN,765,US
46103,Amo,IN,317,US
46104,Arlington,IN,765,US
46105,Bainbridge,IN,765,US
46106,Bargersville,IN,317,US
46107,Beech Grove,IN,317,US
46110,Boggstown,IN,317,US
46111,Brooklyn,IN,,US
46112,Brownsburg,IN,317,US
46113,Camby,IN,317,US
46115,Carthage,IN,"7,65,317",US
46117,Charlottesville,IN,"3,17,765",US
46118,Clayton,IN,317,US
46120,Cloverdale,IN,765,US
46121,Coatesville,IN,"7,65,317",US
46122,Danville,IN,317,US
46123,Avon,IN,317,US
46124,Edinburgh,IN,"8,12,317",US
46125,Eminence,IN,765,US
46126,Fairland,IN,317,US
46127,Falmouth,IN,765,US
46128,Fillmore,IN,765,US
46129,Finly,IN,,US
46130,Fountaintown,IN,317,US
46131,Franklin,IN,"3,17,765",US
46133,Glenwood,IN,765,US
46135,Greencastle,IN,765,US
46140,Greenfield,IN,"3,17,765",US
46142,Greenwood,IN,317,US
46143,Greenwood,IN,317,US
46144,Gwynneville,IN,765,US
46146,Homer,IN,765,US
46147,Jamestown,IN,"7,65,317",US
46148,Knightstown,IN,"7,65,317",US
46149,Lizton,IN,"3,17,765",US
46150,Manilla,IN,765,US
46151,Martinsville,IN,"76,53,17,812",US
46154,Maxwell,IN,317,US
46155,Mays,IN,765,US
46156,Milroy,IN,765,US
46157,Monrovia,IN,317,US
46158,Mooresville,IN,317,US
46160,Morgantown,IN,"8,12,317",US
46161,Morristown,IN,765,US
46162,Needham,IN,317,US
46163,New Palestine,IN,317,US
46164,Nineveh,IN,"3,17,812",US
46165,North Salem,IN,765,US
46166,Paragon,IN,"7,65,812",US
46167,Pittsboro,IN,317,US
46168,Plainfield,IN,317,US
46170,Putnamville,IN,765,US
46171,Reelsville,IN,"7,65,812",US
46172,Roachdale,IN,"7,65,317",US
46173,Rushville,IN,"7,65,812",US
