zip,primary_city,state,area_codes,country
46175,Russellville,IN,765,US
46176,Shelbyville,IN,"31,77,65,812",US
46180,Stilesville,IN,317,US
46181,Trafalgar,IN,"3,17,812",US
46182,Waldron,IN,765,US
46183,West Newton,IN,317,US
46184,Whiteland,IN,317,US
46186,Wilkinson,IN,"7,65,317",US
46201,Indianapolis,IN,"3,17,765",US
46202,Indianapolis,IN,"3,17,765",US
46203,Indianapolis,IN,317,US
46204,Indianapolis,IN,317,US
46205,Indianapolis,IN,317,US
46206,Indianapolis,IN,317,US
46207,Indianapolis,IN,317,US
46208,Indianapolis,IN,317,US
46209,Indianapolis,IN,317,US
46211,Indianapolis,IN,317,US
46214,Indianapolis,IN,317,US
46216,Indianapolis,IN,317,US
46217,Indianapolis,IN,317,US
46218,Indianapolis,IN,317,US
46219,Indianapolis,IN,"3,17,765",US
46220,Indianapolis,IN,"31,77,65,812",US
46221,Indianapolis,IN,317,US
46222,Indianapolis,IN,"3,17,312",US
46223,Indianapolis,IN,317,US
46224,Indianapolis,IN,317,US
46225,Indianapolis,IN,"3,17,765",US
46226,Indianapolis,IN,317,US
46227,Indianapolis,IN,317,US
46228,Indianapolis,IN,317,US
46229,Indianapolis,IN,317,US
46230,Indianapolis,IN,317,US
46231,Indianapolis,IN,317,US
46234,Indianapolis,IN,317,US
46235,Indianapolis,IN,317,US
46236,Indianapolis,IN,"7,65,317",US
46237,Indianapolis,IN,317,US
46239,Indianapolis,IN,317,US
46240,Indianapolis,IN,317,US
46241,Indianapolis,IN,317,US
46242,Indianapolis,IN,317,US
46244,Indianapolis,IN,317,US
46247,Indianapolis,IN,317,US
46249,Indianapolis,IN,317,US
46250,Indianapolis,IN,317,US
46251,Indianapolis,IN,317,US
46253,Indianapolis,IN,317,US
46254,Indianapolis,IN,317,US
46255,Indianapolis,IN,317,US
46256,Indianapolis,IN,317,US
46259,Indianapolis,IN,317,US
46260,Indianapolis,IN,"3,17,765",US
46262,Indianapolis,IN,317,US
46266,Indianapolis,IN,317,US
46268,Indianapolis,IN,317,US
46274,Indianapolis,IN,317,US
46275,Indianapolis,IN,317,US
46277,Indianapolis,IN,317,US
46278,Indianapolis,IN,317,US
46280,Indianapolis,IN,317,US
46282,Indianapolis,IN,317,US
46283,Indianapolis,IN,317,US
46285,Indianapolis,IN,317,US
46290,Indianapolis,IN,317,US
46291,Indianapolis,IN,317,US
46295,Indianapolis,IN,317,US
46296,Indianapolis,IN,317,US
46298,Indianapolis,IN,317,US
46301,Beverly Shores,IN,219,US
46302,Boone Grove,IN,219,US
46303,Cedar Lake,IN,219,US
46304,Chesterton,IN,219,US
46307,Crown Point,IN,219,US
46308,Crown Point,IN,219,US
46310,Demotte,IN,219,US
46311,Dyer,IN,219,US
46312,East Chicago,IN,219,US
46319,Griffith,IN,219,US
46320,Hammond,IN,219,US
46321,Munster,IN,219,US
46322,Highland,IN,219,US
46323,Hammond,IN,219,US
46324,Hammond,IN,219,US
46325,Hammond,IN,219,US
46327,Hammond,IN,219,US
46340,Hanna,IN,219,US
46341,Hebron,IN,219,US
46342,Hobart,IN,219,US
46345,Kingsbury,IN,219,US
46346,Kingsford Heights,IN,219,US
46347,Kouts,IN,219,US
46348,La Crosse,IN,"2,19,574",US
46349,Lake Village,IN,219,US
46350,La Porte,IN,219,US
46352,La Porte,IN,219,US
46355,Leroy,IN,219,US
46356,Lowell,IN,219,US
46360,Michigan City,IN,219,US
46361,Michigan City,IN,219,US
46365,Mill Creek,IN,"2,19,574",US
46366,North Judson,IN,"2,19,574",US
46368,Portage,IN,219,US
46371,Rolling Prairie,IN,219,US
46372,Roselawn,IN,219,US
46373,Saint John,IN,219,US
46374,San Pierre,IN,"2,19,574",US
46375,Schererville,IN,219,US
46376,Schneider,IN,219,US
46377,Shelby,IN,219,US
46379,Sumava Resorts,IN,219,US
46380,Tefft,IN,219,US
46381,Thayer,IN,219,US
46382,Union Mills,IN,219,US
46383,Valparaiso,IN,219,US
46384,Valparaiso,IN,219,US
46385,Valparaiso,IN,219,US
46390,Wanatah,IN,219,US
46391,Westville,IN,219,US
46392,Wheatfield,IN,219,US
46393,Wheeler,IN,219,US
46394,Whiting,IN,219,US
46401,Gary,IN,219,US
46402,Gary,IN,219,US
46403,Gary,IN,219,US
46404,Gary,IN,219,US
46405,Lake Station,IN,219,US
46406,Gary,IN,219,US
46407,Gary,IN,219,US
46408,Gary,IN,219,US
46409,Gary,IN,219,US
46410,Merrillville,IN,219,US
46411,Merrillville,IN,219,US
46501,Argos,IN,574,US
46502,Atwood,IN,,US
46504,Bourbon,IN,574,US
46506,Bremen,IN,574,US
46507,Bristol,IN,574,US
46508,Burket,IN,574,US
46510,Claypool,IN,"2,60,574",US
46511,Culver,IN,574,US
46513,Donaldson,IN,574,US
46514,Elkhart,IN,574,US
46515,Elkhart,IN,574,US
46516,Elkhart,IN,574,US
46517,Elkhart,IN,574,US
46524,Etna Green,IN,574,US
46526,Goshen,IN,574,US
46527,Goshen,IN,574,US
46528,Goshen,IN,574,US
46530,Granger,IN,574,US
46531,Grovertown,IN,,US
46532,Hamlet,IN,574,US
46534,Knox,IN,"2,19,574",US
46536,Lakeville,IN,574,US
46537,Lapaz,IN,574,US
46538,Leesburg,IN,574,US
46539,Mentone,IN,574,US
46540,Middlebury,IN,574,US
46542,Milford,IN,574,US
46543,Millersburg,IN,574,US
46544,Mishawaka,IN,574,US
46545,Mishawaka,IN,574,US
46546,Mishawaka,IN,574,US
46550,Nappanee,IN,574,US
46552,New Carlisle,IN,"2,19,574",US
46553,New Paris,IN,574,US
46554,North Liberty,IN,574,US
46555,North Webster,IN,"2,60,574",US
46556,Notre Dame,IN,574,US
46561,Osceola,IN,574,US
46562,Pierceton,IN,"5,74,260",US
46563,Plymouth,IN,574,US
46565,Shipshewana,IN,260,US
46567,Syracuse,IN,574,US
46570,Tippecanoe,IN,574,US
46571,Topeka,IN,260,US
46572,Tyner,IN,574,US
46573,Wakarusa,IN,574,US
46574,Walkerton,IN,574,US
46580,Warsaw,IN,574,US
46581,Warsaw,IN,574,US
46582,Warsaw,IN,574,US
46590,Winona Lake,IN,,US
46595,Wyatt,IN,574,US
46601,South Bend,IN,574,US
46604,South Bend,IN,574,US
46613,South Bend,IN,574,US
46614,South Bend,IN,574,US
46615,South Bend,IN,574,US
46616,South Bend,IN,574,US
46617,South Bend,IN,574,US
46619,South Bend,IN,574,US
46620,South Bend,IN,574,US
46624,South Bend,IN,574,US
46626,South Bend,IN,574,US
46628,South Bend,IN,574,US
46634,South Bend,IN,574,US
46635,South Bend,IN,574,US
46637,South Bend,IN,574,US
46660,South Bend,IN,574,US
46680,South Bend,IN,574,US
46699,South Bend,IN,574,US
46701,Albion,IN,260,US
46702,Andrews,IN,260,US
46703,Angola,IN,260,US
46704,Arcola,IN,260,US
46705,Ashley,IN,260,US
46706,Auburn,IN,260,US
46710,Avilla,IN,260,US
46711,Berne,IN,260,US
46713,Bippus,IN,260,US
46714,Bluffton,IN,260,US
46721,Butler,IN,260,US
46723,Churubusco,IN,260,US
46725,Columbia City,IN,260,US
46730,Corunna,IN,260,US
46731,Craigville,IN,260,US
46732,Cromwell,IN,260,US
46733,Decatur,IN,260,US
46737,Fremont,IN,260,US
46738,Garrett,IN,260,US
46740,Geneva,IN,"2,60,765",US
46741,Grabill,IN,260,US
46742,Hamilton,IN,260,US
46743,Harlan,IN,260,US
46745,Hoagland,IN,260,US
46746,Howe,IN,260,US
46747,Hudson,IN,260,US
46748,Huntertown,IN,260,US
46750,Huntington,IN,260,US
46755,Kendallville,IN,260,US
46759,Keystone,IN,765,US
46760,Kimmell,IN,260,US
46761,Lagrange,IN,260,US
46763,Laotto,IN,260,US
46764,Larwill,IN,260,US
46765,Leo,IN,260,US
46766,Liberty Center,IN,260,US
46767,Ligonier,IN,260,US
46769,Linn Grove,IN,260,US
46770,Markle,IN,260,US
46771,Mongo,IN,260,US
46772,Monroe,IN,260,US
46773,Monroeville,IN,260,US
46774,New Haven,IN,260,US
46776,Orland,IN,260,US
46777,Ossian,IN,260,US
46778,Petroleum,IN,260,US
46779,Pleasant Lake,IN,260,US
46780,Pleasant Mills,IN,260,US
46781,Poneto,IN,"7,65,260",US
46782,Preble,IN,260,US
46783,Roanoke,IN,260,US
46784,Rome City,IN,260,US
46785,Saint Joe,IN,260,US
46786,South Milford,IN,260,US
46787,South Whitley,IN,260,US
46788,Spencerville,IN,260,US
46789,Stroh,IN,260,US
46791,Uniondale,IN,260,US
46792,Warren,IN,"7,65,260",US
46793,Waterloo,IN,260,US
46794,Wawaka,IN,260,US
46795,Wolcottville,IN,260,US
46796,Wolflake,IN,260,US
46797,Woodburn,IN,260,US
46798,Yoder,IN,260,US
46799,Zanesville,IN,260,US
46801,Fort Wayne,IN,260,US
46802,Fort Wayne,IN,260,US
46803,Fort Wayne,IN,260,US
46804,Fort Wayne,IN,260,US
46805,Fort Wayne,IN,260,US
46806,Fort Wayne,IN,260,US
46807,Fort Wayne,IN,260,US
46808,Fort Wayne,IN,260,US
46809,Fort Wayne,IN,260,US
46814,Fort Wayne,IN,260,US
46815,Fort Wayne,IN,260,US
46816,Fort Wayne,IN,260,US
46818,Fort Wayne,IN,260,US
46819,Fort Wayne,IN,260,US
46825,Fort Wayne,IN,260,US
46835,Fort Wayne,IN,260,US
46845,Fort Wayne,IN,260,US
46850,Fort Wayne,IN,260,US
46851,Fort Wayne,IN,260,US
46852,Fort Wayne,IN,260,US
46853,Fort Wayne,IN,260,US
46854,Fort Wayne,IN,260,US
46855,Fort Wayne,IN,260,US
46856,Fort Wayne,IN,260,US
46857,Fort Wayne,IN,260,US
46858,Fort Wayne,IN,260,US
46859,Fort Wayne,IN,260,US
46860,Fort Wayne,IN,260,US
46861,Fort Wayne,IN,260,US
46862,Fort Wayne,IN,260,US
46863,Fort Wayne,IN,260,US
46864,Fort Wayne,IN,260,US
46865,Fort Wayne,IN,260,US
46866,Fort Wayne,IN,260,US
46867,Fort Wayne,IN,260,US
46868,Fort Wayne,IN,260,US
46869,Fort Wayne,IN,260,US
46885,Fort Wayne,IN,260,US
46895,Fort Wayne,IN,260,US
46896,Fort Wayne,IN,260,US
46897,Fort Wayne,IN,260,US
46898,Fort Wayne,IN,260,US
46899,Fort Wayne,IN,260,US
46901,Kokomo,IN,765,US
46902,Kokomo,IN,765,US
46903,Kokomo,IN,765,US
46904,Kokomo,IN,765,US
46910,Akron,IN,574,US
46911,Amboy,IN,765,US
46912,Athens,IN,,US
46913,Bringhurst,IN,765,US
46914,Bunker Hill,IN,765,US
46915,Burlington,IN,765,US
46916,Burrows,IN,,US
46917,Camden,IN,574,US
46919,Converse,IN,765,US
46920,Cutler,IN,765,US
46921,Deedsville,IN,,US
46922,Delong,IN,,US
46923,Delphi,IN,765,US
46926,Denver,IN,765,US
46928,Fairmount,IN,765,US
46929,Flora,IN,"7,65,574",US
46930,Fowlerton,IN,765,US
46931,Fulton,IN,,US
46932,Galveston,IN,574,US
46933,Gas City,IN,765,US
46935,Grass Creek,IN,,US
46936,Greentown,IN,765,US
46937,Hemlock,IN,765,US
46938,Jonesboro,IN,765,US
46939,Kewanna,IN,574,US
46940,La Fontaine,IN,765,US
46941,Lagro,IN,"7,65,260",US
46942,Lake Cicott,IN,,US
46943,Laketon,IN,,US
46945,Leiters Ford,IN,,US
46946,Liberty Mills,IN,,US
46947,Logansport,IN,574,US
46950,Lucerne,IN,"7,65,574",US
46951,Macy,IN,"7,65,574",US
46952,Marion,IN,765,US
46953,Marion,IN,765,US
46957,Matthews,IN,765,US
46958,Mexico,IN,765,US
46959,Miami,IN,,US
46960,Monterey,IN,574,US
46961,New Waverly,IN,,US
46962,North Manchester,IN,260,US
46965,Oakford,IN,765,US
46967,Onward,IN,,US
46968,Ora,IN,,US
46970,Peru,IN,765,US
46971,Grissom Arb,IN,765,US
46974,Roann,IN,765,US
46975,Rochester,IN,574,US
46977,Rockfield,IN,,US
46978,Royal Center,IN,574,US
46979,Russiaville,IN,765,US
46980,Servia,IN,,US
46982,Silver Lake,IN,260,US
46984,Somerset,IN,765,US
46985,Star City,IN,574,US
46986,Swayzee,IN,765,US
46987,Sweetser,IN,765,US
46988,Twelve Mile,IN,574,US
46989,Upland,IN,765,US
46990,Urbana,IN,260,US
46991,Van Buren,IN,765,US
46992,Wabash,IN,"7,65,260",US
46994,Walton,IN,574,US
46995,West Middleton,IN,765,US
46996,Winamac,IN,"2,19,574",US
46998,Young America,IN,,US
47001,Aurora,IN,812,US
47003,West College Corner,IN,765,US
47006,Batesville,IN,812,US
47010,Bath,IN,765,US
47011,Bennington,IN,812,US
47012,Brookville,IN,"7,65,812",US
47016,Cedar Grove,IN,765,US
47017,Cross Plains,IN,812,US
47018,Dillsboro,IN,812,US
47019,East Enterprise,IN,812,US
47020,Florence,IN,812,US
47021,Friendship,IN,812,US
47022,Guilford,IN,812,US
47023,Holton,IN,812,US
47024,Laurel,IN,"7,65,812",US
47025,Lawrenceburg,IN,812,US
47030,Metamora,IN,"7,65,812",US
47031,Milan,IN,812,US
47032,Moores Hill,IN,812,US
47033,Morris,IN,812,US
47034,Napoleon,IN,812,US
47035,New Trenton,IN,812,US
47036,Oldenburg,IN,812,US
47037,Osgood,IN,812,US
47038,Patriot,IN,812,US
47039,Pierceville,IN,812,US
47040,Rising Sun,IN,812,US
47041,Sunman,IN,812,US
47042,Versailles,IN,812,US
47043,Vevay,IN,"8,12,317",US
47060,West Harrison,IN,812,US
47102,Austin,IN,812,US
47104,Bethlehem,IN,812,US
47106,Borden,IN,812,US
47107,Bradford,IN,812,US
47108,Campbellsburg,IN,812,US
47110,Central,IN,812,US
47111,Charlestown,IN,812,US
47112,Corydon,IN,812,US
47114,Crandall,IN,812,US
47115,Depauw,IN,812,US
47116,Eckerty,IN,812,US
47117,Elizabeth,IN,812,US
47118,English,IN,812,US
47119,Floyds Knobs,IN,812,US
47120,Fredericksburg,IN,812,US
47122,Georgetown,IN,812,US
47123,Grantsburg,IN,812,US
47124,Greenville,IN,812,US
47125,Hardinsburg,IN,812,US
47126,Henryville,IN,812,US
47129,Clarksville,IN,812,US
47130,Jeffersonville,IN,812,US
47131,Jeffersonville,IN,812,US
47132,Jeffersonville,IN,812,US
47133,Jeffersonville,IN,812,US
47134,Jeffersonville,IN,812,US
47135,Laconia,IN,812,US
47136,Lanesville,IN,812,US
47137,Leavenworth,IN,812,US
47138,Lexington,IN,812,US
47139,Little York,IN,812,US
47140,Marengo,IN,812,US
47141,Marysville,IN,812,US
47142,Mauckport,IN,812,US
47143,Memphis,IN,812,US
47144,Jeffersonville,IN,812,US
47145,Milltown,IN,812,US
47146,Mount Saint Francis,IN,812,US
47147,Nabb,IN,812,US
47150,New Albany,IN,812,US
47151,New Albany,IN,812,US
47160,New Middletown,IN,812,US
47161,New Salisbury,IN,812,US
47162,New Washington,IN,812,US
47163,Otisco,IN,812,US
47164,Palmyra,IN,812,US
47165,Pekin,IN,812,US
47166,Ramsey,IN,812,US
47167,Salem,IN,812,US
47170,Scottsburg,IN,812,US
47172,Sellersburg,IN,812,US
47174,Sulphur,IN,812,US
47175,Taswell,IN,812,US
47177,Underwood,IN,812,US
47190,Jeffersonville,IN,812,US
47199,Jeffersonville,IN,812,US
47201,Columbus,IN,"8,12,317",US
47202,Columbus,IN,812,US
47203,Columbus,IN,812,US
47220,Brownstown,IN,812,US
47223,Butlerville,IN,812,US
47224,Canaan,IN,812,US
47225,Clarksburg,IN,812,US
47226,Clifford,IN,812,US
47227,Commiskey,IN,812,US
47228,Cortland,IN,812,US
47229,Crothersville,IN,812,US
47230,Deputy,IN,812,US
47231,Dupont,IN,812,US
47232,Elizabethtown,IN,812,US
47234,Flat Rock,IN,"8,12,765",US
47235,Freetown,IN,812,US
47236,Grammer,IN,812,US
47240,Greensburg,IN,"8,12,765",US
47243,Hanover,IN,812,US
47244,Hartsville,IN,812,US
47245,Hayden,IN,812,US
47246,Hope,IN,812,US
47247,Jonesville,IN,812,US
47249,Kurtz,IN,812,US
47250,Madison,IN,812,US
47260,Medora,IN,812,US
47261,Millhousen,IN,,US
47263,New Point,IN,,US
47264,Norman,IN,812,US
47265,North Vernon,IN,812,US
47270,Paris Crossing,IN,812,US
47272,Saint Paul,IN,765,US
47273,Scipio,IN,812,US
47274,Seymour,IN,812,US
47280,Taylorsville,IN,812,US
47281,Vallonia,IN,812,US
47282,Vernon,IN,812,US
47283,Westport,IN,812,US
47302,Muncie,IN,765,US
47303,Muncie,IN,765,US
47304,Muncie,IN,"7,65,317",US
47305,Muncie,IN,765,US
47306,Muncie,IN,765,US
47307,Muncie,IN,765,US
47308,Muncie,IN,765,US
47320,Albany,IN,765,US
47322,Bentonville,IN,765,US
47324,Boston,IN,765,US
47325,Brownsville,IN,765,US
47326,Bryant,IN,260,US
47327,Cambridge City,IN,765,US
47330,Centerville,IN,765,US
47331,Connersville,IN,765,US
47334,Daleville,IN,765,US
47335,Dublin,IN,765,US
47336,Dunkirk,IN,765,US
47337,Dunreith,IN,765,US
47338,Eaton,IN,765,US
47339,Economy,IN,765,US
47340,Farmland,IN,765,US
47341,Fountain City,IN,765,US
47342,Gaston,IN,765,US
47344,Greensboro,IN,765,US
47345,Greens Fork,IN,765,US
47346,Hagerstown,IN,765,US
47348,Hartford City,IN,765,US
47351,Kennard,IN,765,US
47352,Lewisville,IN,765,US
47353,Liberty,IN,765,US
47354,Losantville,IN,765,US
47355,Lynn,IN,765,US
47356,Middletown,IN,765,US
47357,Milton,IN,765,US
47358,Modoc,IN,765,US
47359,Montpelier,IN,765,US
47360,Mooreland,IN,765,US
47361,Mount Summit,IN,765,US
47362,New Castle,IN,765,US
47366,New Lisbon,IN,765,US
47367,Oakville,IN,765,US
47368,Parker City,IN,765,US
47369,Pennville,IN,260,US
47370,Pershing,IN,765,US
47371,Portland,IN,"7,65,260",US
47373,Redkey,IN,765,US
47374,Richmond,IN,"7,65,317",US
47375,Richmond,IN,765,US
47380,Ridgeville,IN,765,US
47381,Salamonia,IN,765,US
47382,Saratoga,IN,765,US
47383,Selma,IN,765,US
47384,Shirley,IN,765,US
47385,Spiceland,IN,765,US
47386,Springport,IN,765,US
47387,Straughn,IN,765,US
47388,Sulphur Springs,IN,765,US
47390,Union City,IN,765,US
47392,Webster,IN,765,US
47393,Williamsburg,IN,765,US
47394,Winchester,IN,765,US
47396,Yorktown,IN,765,US
47401,Bloomington,IN,812,US
47402,Bloomington,IN,812,US
47403,Bloomington,IN,812,US
47404,Bloomington,IN,812,US
47405,Bloomington,IN,812,US
47406,Bloomington,IN,812,US
47407,Bloomington,IN,812,US
47408,Bloomington,IN,"8,12,317",US
47420,Avoca,IN,812,US
47421,Bedford,IN,812,US
47424,Bloomfield,IN,812,US
47426,Clear Creek,IN,812,US
47427,Coal City,IN,812,US
47429,Ellettsville,IN,812,US
47430,Fort Ritner,IN,812,US
47431,Freedom,IN,812,US
47432,French Lick,IN,812,US
47433,Gosport,IN,"8,12,765",US
47434,Harrodsburg,IN,812,US
47435,Helmsburg,IN,812,US
47436,Heltonville,IN,812,US
47437,Huron,IN,812,US
47438,Jasonville,IN,812,US
47439,Koleen,IN,812,US
47441,Linton,IN,812,US
47443,Lyons,IN,812,US
47445,Midland,IN,812,US
47446,Mitchell,IN,812,US
47448,Nashville,IN,812,US
47449,Newberry,IN,812,US
47451,Oolitic,IN,812,US
47452,Orleans,IN,812,US
47453,Owensburg,IN,812,US
47454,Paoli,IN,812,US
47455,Patricksburg,IN,812,US
47456,Quincy,IN,"7,65,812",US
47457,Scotland,IN,812,US
47458,Smithville,IN,812,US
47459,Solsberry,IN,812,US
47460,Spencer,IN,"8,12,765",US
47462,Springville,IN,812,US
47463,Stanford,IN,812,US
47464,Stinesville,IN,812,US
47465,Switz City,IN,812,US
47467,Tunnelton,IN,812,US
47468,Unionville,IN,812,US
47469,West Baden Springs,IN,812,US
47470,Williams,IN,812,US
47471,Worthington,IN,812,US
47490,Bloomington,IN,812,US
47501,Washington,IN,812,US
47512,Bicknell,IN,812,US
47513,Birdseye,IN,812,US
47514,Branchville,IN,812,US
47515,Bristow,IN,812,US
47516,Bruceville,IN,812,US
47519,Cannelburg,IN,812,US
47520,Cannelton,IN,812,US
47521,Celestine,IN,812,US
47522,Crane,IN,812,US
47523,Dale,IN,812,US
47524,Decker,IN,812,US
47525,Derby,IN,812,US
47527,Dubois,IN,812,US
47528,Edwardsport,IN,812,US
47529,Elnora,IN,812,US
47531,Evanston,IN,812,US
47532,Ferdinand,IN,812,US
47535,Freelandville,IN,812,US
47536,Fulda,IN,812,US
47537,Gentryville,IN,812,US
47541,Holland,IN,812,US
47542,Huntingburg,IN,812,US
47545,Ireland,IN,812,US
47546,Jasper,IN,812,US
47547,Jasper,IN,812,US
47549,Jasper,IN,812,US
47550,Lamar,IN,812,US
47551,Leopold,IN,812,US
47552,Lincoln City,IN,812,US
47553,Loogootee,IN,812,US
47556,Mariah Hill,IN,812,US
47557,Monroe City,IN,812,US
47558,Montgomery,IN,812,US
47561,Oaktown,IN,812,US
47562,Odon,IN,812,US
47564,Otwell,IN,812,US
47567,Petersburg,IN,812,US
47568,Plainville,IN,812,US
47573,Ragsdale,IN,812,US
47574,Rome,IN,812,US
47575,Saint Anthony,IN,812,US
47576,Saint Croix,IN,812,US
47577,Saint Meinrad,IN,812,US
47578,Sandborn,IN,812,US
47579,Santa Claus,IN,812,US
47580,Schnellville,IN,812,US
47581,Shoals,IN,812,US
47584,Spurgeon,IN,812,US
47585,Stendal,IN,812,US
47586,Tell City,IN,812,US
47588,Troy,IN,812,US
47590,Velpen,IN,812,US
47591,Vincennes,IN,812,US
47596,Westphalia,IN,812,US
47597,Wheatland,IN,812,US
47598,Winslow,IN,812,US
47601,Boonville,IN,812,US
47610,Chandler,IN,812,US
47611,Chrisney,IN,812,US
47612,Cynthiana,IN,812,US
47613,Elberfeld,IN,812,US
47614,Folsomville,IN,812,US
47615,Grandview,IN,812,US
47616,Griffin,IN,812,US
47617,Hatfield,IN,812,US
47618,Inglefield,IN,812,US
47619,Lynnville,IN,812,US
47620,Mount Vernon,IN,812,US
47629,Newburgh,IN,812,US
47630,Newburgh,IN,812,US
47631,New Harmony,IN,812,US
47633,Poseyville,IN,812,US
47634,Richland,IN,812,US
47635,Rockport,IN,812,US
47637,Tennyson,IN,812,US
47638,Wadesville,IN,812,US
47639,Haubstadt,IN,812,US
47640,Hazleton,IN,812,US
47647,Buckskin,IN,812,US
47648,Fort Branch,IN,812,US
47649,Francisco,IN,812,US
47654,Mackey,IN,812,US
47660,Oakland City,IN,812,US
47665,Owensville,IN,812,US
47666,Patoka,IN,812,US
47670,Princeton,IN,812,US
47683,Somerville,IN,812,US
47701,Evansville,IN,812,US
47702,Evansville,IN,812,US
47703,Evansville,IN,812,US
47704,Evansville,IN,812,US
47705,Evansville,IN,812,US
47706,Evansville,IN,812,US
47708,Evansville,IN,812,US
47710,Evansville,IN,812,US
47711,Evansville,IN,812,US
47712,Evansville,IN,812,US
47713,Evansville,IN,812,US
47714,Evansville,IN,812,US
47715,Evansville,IN,812,US
47716,Evansville,IN,812,US
47719,Evansville,IN,812,US
47720,Evansville,IN,812,US
47721,Evansville,IN,812,US
47722,Evansville,IN,812,US
47724,Evansville,IN,812,US
47725,Evansville,IN,812,US
47727,Evansville,IN,812,US
47728,Evansville,IN,812,US
47730,Evansville,IN,812,US
47731,Evansville,IN,812,US
47732,Evansville,IN,812,US
47733,Evansville,IN,812,US
47734,Evansville,IN,812,US
47735,Evansville,IN,812,US
47736,Evansville,IN,812,US
47737,Evansville,IN,812,US
47739,Evansville,IN,812,US
47740,Evansville,IN,812,US
47741,Evansville,IN,812,US
47744,Evansville,IN,812,US
47747,Evansville,IN,812,US
47750,Evansville,IN,812,US
47801,Terre Haute,IN,812,US
47802,Terre Haute,IN,"8,12,765",US
47803,Terre Haute,IN,"8,12,765",US
47804,Terre Haute,IN,812,US
47805,Terre Haute,IN,812,US
47807,Terre Haute,IN,"8,12,765",US
47808,Terre Haute,IN,812,US
47809,Terre Haute,IN,812,US
47811,Terre Haute,IN,812,US
47812,Terre Haute,IN,812,US
47830,Bellmore,IN,765,US
47831,Blanford,IN,765,US
47832,Bloomingdale,IN,765,US
47833,Bowling Green,IN,812,US
47834,Brazil,IN,"8,12,765",US
47836,Bridgeton,IN,765,US
47837,Carbon,IN,"7,65,812",US
47838,Carlisle,IN,812,US
47840,Centerpoint,IN,"8,12,765",US
47841,Clay City,IN,812,US
47842,Clinton,IN,765,US
47845,Coalmont,IN,812,US
47846,Cory,IN,812,US
47847,Dana,IN,765,US
47848,Dugger,IN,812,US
47849,Fairbanks,IN,812,US
47850,Farmersburg,IN,812,US
47851,Fontanet,IN,,US
47852,Graysville,IN,812,US
47853,Harmony,IN,812,US
47854,Hillsdale,IN,765,US
47855,Hymera,IN,812,US
47856,Judson,IN,,US
47857,Knightsville,IN,812,US
47858,Lewis,IN,812,US
47859,Marshall,IN,765,US
47860,Mecca,IN,765,US
47861,Merom,IN,812,US
47862,Montezuma,IN,765,US
47863,New Goshen,IN,812,US
47864,Sullivan,IN,812,US
47865,Paxton,IN,812,US
47866,Pimento,IN,812,US
47868,Poland,IN,"8,12,765",US
47869,Prairie Creek,IN,812,US
47870,Prairieton,IN,,US
47871,Riley,IN,812,US
47872,Rockville,IN,765,US
47874,Rosedale,IN,"7,65,812",US
47875,Saint Bernice,IN,765,US
47876,Saint Mary Of The Woods,IN,812,US
47878,Seelyville,IN,,US
47879,Shelburn,IN,812,US
47880,Shepardsville,IN,,US
47881,Staunton,IN,812,US
47882,Sullivan,IN,812,US
47884,Universal,IN,765,US
47885,West Terre Haute,IN,"8,12,765",US
47901,Lafayette,IN,765,US
47902,Lafayette,IN,765,US
47903,Lafayette,IN,765,US
47904,Lafayette,IN,765,US
47905,Lafayette,IN,765,US
47906,West Lafayette,IN,765,US
47907,West Lafayette,IN,765,US
47909,Lafayette,IN,765,US
47916,Alamo,IN,765,US
47917,Ambia,IN,765,US
47918,Attica,IN,765,US
47920,Battle Ground,IN,765,US
47921,Boswell,IN,765,US
47922,Brook,IN,219,US
47923,Brookston,IN,765,US
47924,Buck Creek,IN,765,US
47925,Buffalo,IN,,US
47926,Burnettsville,IN,574,US
47928,Cayuga,IN,765,US
47929,Chalmers,IN,"2,19,574",US
47930,Clarks Hill,IN,765,US
47932,Covington,IN,765,US
47933,Crawfordsville,IN,765,US
47934,Crawfordsville,IN,765,US
47935,Crawfordsville,IN,765,US
47936,Crawfordsville,IN,765,US
47937,Crawfordsville,IN,765,US
47938,Crawfordsville,IN,765,US
47939,Crawfordsville,IN,765,US
47940,Darlington,IN,765,US
47941,Dayton,IN,765,US
47942,Earl Park,IN,219,US
47943,Fair Oaks,IN,219,US
47944,Fowler,IN,"7,65,219",US
47946,Francesville,IN,219,US
47948,Goodland,IN,219,US
47949,Hillsboro,IN,765,US
47950,Idaville,IN,574,US
47951,Kentland,IN,219,US
47952,Kingman,IN,765,US
47954,Ladoga,IN,765,US
47955,Linden,IN,765,US
47957,Medaryville,IN,219,US
47958,Mellott,IN,765,US
47959,Monon,IN,"2,19,574",US
47960,Monticello,IN,"2,19,574",US
47962,Montmorenci,IN,765,US
47963,Morocco,IN,219,US
47964,Mount Ayr,IN,219,US
47965,New Market,IN,765,US
47966,Newport,IN,765,US
47967,New Richmond,IN,765,US
47968,New Ross,IN,765,US
47969,Newtown,IN,765,US
47970,Otterbein,IN,765,US
47971,Oxford,IN,765,US
47974,Perrysville,IN,765,US
47975,Pine Village,IN,765,US
47977,Remington,IN,219,US
47978,Rensselaer,IN,219,US
47980,Reynolds,IN,219,US
47981,Romney,IN,765,US
47982,State Line,IN,765,US
47983,Stockwell,IN,765,US
47984,Talbot,IN,765,US
47986,Templeton,IN,765,US
47987,Veedersburg,IN,765,US
47988,Wallace,IN,765,US
47989,Waveland,IN,765,US
47990,Waynetown,IN,765,US
47991,West Lebanon,IN,765,US
47992,Westpoint,IN,765,US
47993,Williamsport,IN,765,US
47994,Wingate,IN,765,US
47995,Wolcott,IN,219,US
47996,West Lafayette,IN,765,US
47997,Yeoman,IN,,US
48001,Algonac,MI,"5,86,810",US
48002,Allenton,MI,"8,10,586",US
48003,Almont,MI,810,US
48004,Anchorville,MI,,US
48005,Armada,MI,586,US
48006,Avoca,MI,810,US
48007,Troy,MI,"2,48,313",US
48009,Birmingham,MI,248,US
48012,Birmingham,MI,248,US
48014,Capac,MI,810,US
48015,Center Line,MI,"8,10,586",US
48017,Clawson,MI,"5,86,248",US
48021,Eastpointe,MI,"5,86,313",US
48022,Emmett,MI,810,US
48023,Fair Haven,MI,"5,86,810",US
48025,Franklin,MI,248,US
48026,Fraser,MI,"5,86,248",US
48027,Goodells,MI,810,US
48028,Harsens Island,MI,810,US
48030,Hazel Park,MI,"2,48,313",US
48032,Jeddo,MI,810,US
48033,Southfield,MI,248,US
48034,Southfield,MI,"2,48,81,07,34,58,63,13,000",US
48035,Clinton Township,MI,"5,86,810",US
48036,Clinton Township,MI,586,US
48037,Southfield,MI,"2,48,313",US
48038,Clinton Township,MI,"58,68,10,248",US
48039,Marine City,MI,810,US
48040,Marysville,MI,810,US
48041,Memphis,MI,810,US
48042,Macomb,MI,"5,86,810",US
48043,Mount Clemens,MI,586,US
48044,Macomb,MI,"24,85,86,810",US
48045,Harrison Township,MI,"5,86,810",US
48046,Mount Clemens,MI,586,US
48047,New Baltimore,MI,586,US
48048,New Haven,MI,586,US
48049,North Street,MI,810,US
48050,New Haven,MI,586,US
48051,New Baltimore,MI,586,US
48054,East China,MI,810,US
48059,Fort Gratiot,MI,810,US
48060,Port Huron,MI,810,US
48061,Port Huron,MI,810,US
48062,Richmond,MI,"5,86,810",US
48063,Columbus,MI,"5,86,810",US
48064,Casco,MI,"5,86,810",US
48065,Romeo,MI,"5,86,810",US
48066,Roseville,MI,"58,68,10,248",US
48067,Royal Oak,MI,"24,85,86,313",US
48068,Royal Oak,MI,248,US
48069,Pleasant Ridge,MI,248,US
48070,Huntington Woods,MI,248,US
48071,Madison Heights,MI,"24,85,86,313",US
48072,Berkley,MI,"24,85,86,734",US
48073,Royal Oak,MI,"2,48,313",US
48074,Smiths Creek,MI,810,US
48075,Southfield,MI,"24,83,13,73,45,86,810",US
48076,Southfield,MI,"24,85,86,31,37,34,810",US
48079,Saint Clair,MI,810,US
48080,Saint Clair Shores,MI,"3,13,81,05,86,248",US
48081,Saint Clair Shores,MI,"5,86,810",US
48082,Saint Clair Shores,MI,"5,86,810",US
48083,Troy,MI,"24,85,86,313",US
48084,Troy,MI,"2,48,810",US
48085,Troy,MI,"2,48,586",US
48086,Southfield,MI,248,US
48088,Warren,MI,586,US
48089,Warren,MI,"81,02,48,586",US
48090,Warren,MI,586,US
48091,Warren,MI,"58,62,48,734",US
48092,Warren,MI,"5,86,810",US
48093,Warren,MI,586,US
48094,Washington,MI,"31,35,86,248",US
48095,Washington,MI,586,US
48096,Ray,MI,586,US
48097,Yale,MI,810,US
48098,Troy,MI,248,US
48099,Troy,MI,248,US
48101,Allen Park,MI,"3,13,734",US
48103,Ann Arbor,MI,"3,13,73,48,10,586",US
48104,Ann Arbor,MI,"7,34,31,35,17,586",US
48105,Ann Arbor,MI,"73,43,13,586",US
48106,Ann Arbor,MI,734,US
48107,Ann Arbor,MI,734,US
48108,Ann Arbor,MI,"7,34,586",US
48109,Ann Arbor,MI,734,US
48110,Azalia,MI,734,US
48111,Belleville,MI,"7,34,586",US
48112,Belleville,MI,313,US
48113,Ann Arbor,MI,734,US
48114,Brighton,MI,"81,05,86,248",US
48115,Bridgewater,MI,,US
48116,Brighton,MI,"8,10,31,35,86,51,72,48,000",US
48117,Carleton,MI,734,US
48118,Chelsea,MI,734,US
48120,Dearborn,MI,313,US
48121,Dearborn,MI,313,US
48122,Melvindale,MI,313,US
48123,Dearborn,MI,313,US
48124,Dearborn,MI,"3,13,248",US
48125,Dearborn Heights,MI,313,US
48126,Dearborn,MI,"3,13,734",US
48127,Dearborn Heights,MI,"31,37,34,586",US
48128,Dearborn,MI,313,US
48130,Dexter,MI,734,US
48131,Dundee,MI,"7,34,517",US
48133,Erie,MI,734,US
48134,Flat Rock,MI,734,US
48135,Garden City,MI,"7,34,248",US
48136,Garden City,MI,734,US
48137,Gregory,MI,"7,34,517",US
48138,Grosse Ile,MI,"8,10,734",US
48139,Hamburg,MI,810,US
48140,Ida,MI,734,US
48141,Inkster,MI,"3,13,734",US
48143,Lakeland,MI,"8,10,734",US
48144,Lambertville,MI,734,US
48145,La Salle,MI,734,US
48146,Lincoln Park,MI,313,US
48150,Livonia,MI,"24,83,13,734",US
48151,Livonia,MI,"3,13,734",US
48152,Livonia,MI,"73,42,48,313",US
48153,Livonia,MI,"3,13,248",US
48154,Livonia,MI,"7,34,313",US
48157,Luna Pier,MI,734,US
48158,Manchester,MI,"7,34,517",US
48159,Maybee,MI,"7,34,313",US
48160,Milan,MI,"3,13,734",US
48161,Monroe,MI,734,US
48162,Monroe,MI,734,US
48164,New Boston,MI,734,US
48165,New Hudson,MI,248,US
48166,Newport,MI,"3,13,734",US
48167,Northville,MI,"2,48,734",US
48168,Northville,MI,248,US
48169,Pinckney,MI,"73,45,86,810",US
48170,Plymouth,MI,"24,83,13,734",US
48173,Rockwood,MI,734,US
48174,Romulus,MI,"31,37,34,248",US
48175,Salem,MI,,US
48176,Saline,MI,"3,13,734",US
48177,Samaria,MI,734,US
48178,South Lyon,MI,"24,85,86,734",US
48179,South Rockwood,MI,"7,34,586",US
48180,Taylor,MI,"3,13,734",US
48182,Temperance,MI,734,US
48183,Trenton,MI,"7,34,313",US
48184,Wayne,MI,"7,34,313",US
48185,Westland,MI,"31,37,34,586",US
48186,Westland,MI,"73,43,13,248",US
48187,Canton,MI,734,US
48188,Canton,MI,"31,35,86,734",US
48189,Whitmore Lake,MI,"3,13,73,48,10,586",US
48190,Whittaker,MI,734,US
48191,Willis,MI,734,US
48192,Wyandotte,MI,734,US
48193,Riverview,MI,,US
48195,Southgate,MI,734,US
48197,Ypsilanti,MI,"7,34,24,88,10,586",US
48198,Ypsilanti,MI,734,US
48201,Detroit,MI,"3,13,24,85,86,734",US
48202,Detroit,MI,"3,13,586",US
48203,Highland Park,MI,313,US
48204,Detroit,MI,313,US
48205,Detroit,MI,313,US
48206,Detroit,MI,"5,86,31,37,34,810",US
48207,Detroit,MI,313,US
48208,Detroit,MI,313,US
48209,Detroit,MI,313,US
48210,Detroit,MI,313,US
48211,Detroit,MI,"3,13,58,67,34,810",US
48212,Hamtramck,MI,313,US
48213,Detroit,MI,313,US
48214,Detroit,MI,"3,13,810",US
48215,Detroit,MI,313,US
48216,Detroit,MI,"31,32,48,586",US
48217,Detroit,MI,313,US
48218,River Rouge,MI,"3,13,734",US
48219,Detroit,MI,"3,13,73,42,48,586",US
48220,Ferndale,MI,"24,83,13,58,68,10,734",US
48221,Detroit,MI,313,US
48222,Detroit,MI,313,US
48223,Detroit,MI,313,US
48224,Detroit,MI,"3,13,586",US
48225,Harper Woods,MI,"3,13,586",US
48226,Detroit,MI,"3,13,58,67,34,248",US
48227,Detroit,MI,"24,83,13,734",US
48228,Detroit,MI,313,US
48229,Ecorse,MI,313,US
48230,Grosse Pointe,MI,"3,13,586",US
48231,Detroit,MI,313,US
48232,Detroit,MI,313,US
48233,Detroit,MI,"3,13,24,85,86,734",US
48234,Detroit,MI,313,US
48235,Detroit,MI,"31,32,48,51,75,86,734",US
48236,Grosse Pointe,MI,"24,83,13,586",US
48237,Oak Park,MI,"2,48,58,63,13,734",US
48238,Detroit,MI,313,US
48239,Redford,MI,313,US
48240,Redford,MI,"3,13,73,42,48,586",US
48242,Detroit,MI,"31,37,34,248",US
48243,Detroit,MI,"7,34,31,32,48,586",US
48244,Detroit,MI,313,US
48255,Detroit,MI,313,US
48260,Detroit,MI,313,US
48264,Detroit,MI,313,US
48265,Detroit,MI,313,US
48266,Detroit,MI,313,US
48267,Detroit,MI,313,US
48268,Detroit,MI,313,US
48269,Detroit,MI,313,US
48272,Detroit,MI,313,US
48275,Detroit,MI,313,US
48277,Detroit,MI,313,US
48278,Detroit,MI,313,US
48279,Detroit,MI,313,US
48288,Detroit,MI,313,US
48301,Bloomfield Hills,MI,248,US
48302,Bloomfield Hills,MI,"3,13,248",US
48303,Bloomfield Hills,MI,248,US
48304,Bloomfield Hills,MI,"2,48,313",US
48306,Rochester,MI,248,US
48307,Rochester,MI,"2,48,586",US
48308,Rochester,MI,248,US
48309,Rochester,MI,"2,48,810",US
48310,Sterling Heights,MI,586,US
48311,Sterling Heights,MI,586,US
48312,Sterling Heights,MI,"8,10,586",US
48313,Sterling Heights,MI,"5,86,810",US
48314,Sterling Heights,MI,"5,86,810",US
48315,Utica,MI,586,US
48316,Utica,MI,"2,48,586",US
48317,Utica,MI,"24,85,86,810",US
48318,Utica,MI,586,US
48320,Keego Harbor,MI,"7,34,248",US
48321,Auburn Hills,MI,248,US
48322,West Bloomfield,MI,"2,48,734",US
48323,West Bloomfield,MI,248,US
48324,West Bloomfield,MI,248,US
48325,West Bloomfield,MI,248,US
48326,Auburn Hills,MI,"24,85,86,313",US
48327,Waterford,MI,248,US
48328,Waterford,MI,"2,48,734",US
48329,Waterford,MI,248,US
48330,Drayton Plains,MI,248,US
48331,Farmington,MI,"24,83,13,734",US
48332,Farmington,MI,248,US
48333,Farmington,MI,248,US
48334,Farmington,MI,"2,48,31,38,10,734",US
48335,Farmington,MI,248,US
48336,Farmington,MI,"24,83,13,734",US
48340,Pontiac,MI,"24,85,86,810",US
48341,Pontiac,MI,"24,85,86,810",US
48342,Pontiac,MI,248,US
48343,Pontiac,MI,248,US
48346,Clarkston,MI,"2,48,947",US
48347,Clarkston,MI,248,US
48348,Clarkston,MI,"2,48,947",US
48350,Davisburg,MI,"2,48,586",US
48353,Hartland,MI,"8,10,248",US
48356,Highland,MI,248,US
48357,Highland,MI,248,US
48359,Lake Orion,MI,248,US
48360,Lake Orion,MI,248,US
48361,Lake Orion,MI,248,US
48362,Lake Orion,MI,248,US
48363,Oakland,MI,"2,48,586",US
48366,Lakeville,MI,248,US
48367,Leonard,MI,"2,48,586",US
48370,Oxford,MI,248,US
48371,Oxford,MI,248,US
48374,Novi,MI,"2,48,586",US
48375,Novi,MI,"2,48,313",US
48376,Novi,MI,248,US
48377,Novi,MI,248,US
48380,Milford,MI,"2,48,810",US
48381,Milford,MI,"2,48,947",US
48382,Commerce Township,MI,248,US
48383,White Lake,MI,248,US
48386,White Lake,MI,248,US
48387,Union Lake,MI,248,US
48390,Walled Lake,MI,"2,48,586",US
48391,Walled Lake,MI,248,US
48393,Wixom,MI,248,US
48397,Warren,MI,586,US
48401,Applegate,MI,810,US
48410,Argyle,MI,,US
48411,Atlas,MI,810,US
48412,Attica,MI,"8,10,248",US
48413,Bad Axe,MI,989,US
48414,Bancroft,MI,"9,89,517",US
48415,Birch Run,MI,989,US
48416,Brown City,MI,"8,10,989",US
48417,Burt,MI,989,US
48418,Byron,MI,"81,09,89,517",US
48419,Carsonville,MI,810,US
48420,Clio,MI,"8,10,989",US
48421,Columbiaville,MI,810,US
48422,Croswell,MI,810,US
48423,Davison,MI,810,US
48426,Decker,MI,"8,10,989",US
48427,Deckerville,MI,810,US
48428,Dryden,MI,810,US
48429,Durand,MI,"98,95,17,810",US
48430,Fenton,MI,"81,05,17,248",US
48432,Filion,MI,989,US
48433,Flushing,MI,"8,10,586",US
48434,Forestville,MI,989,US
48435,Fostoria,MI,"9,89,810",US
48436,Gaines,MI,"9,89,810",US
48437,Genesee,MI,810,US
48438,Goodrich,MI,"8,10,248",US
48439,Grand Blanc,MI,810,US
48440,Hadley,MI,810,US
48441,Harbor Beach,MI,989,US
48442,Holly,MI,"2,48,58,69,89,810",US
48444,Imlay City,MI,810,US
48445,Kinde,MI,989,US
48446,Lapeer,MI,"81,02,48,313",US
48449,Lennon,MI,"8,10,989",US
48450,Lexington,MI,810,US
48451,Linden,MI,810,US
48453,Marlette,MI,"9,89,810",US
48454,Melvin,MI,810,US
48455,Metamora,MI,"8,10,248",US
48456,Minden City,MI,989,US
48457,Montrose,MI,"8,10,989",US
48458,Mount Morris,MI,810,US
48460,New Lothrop,MI,"8,10,989",US
48461,North Branch,MI,810,US
48462,Ortonville,MI,"58,62,48,947",US
48463,Otisville,MI,"8,10,989",US
48464,Otter Lake,MI,"9,89,810",US
48465,Palms,MI,"9,89,810",US
48466,Peck,MI,810,US
48467,Port Austin,MI,989,US
48468,Port Hope,MI,989,US
48469,Port Sanilac,MI,810,US
48470,Ruth,MI,989,US
48471,Sandusky,MI,810,US
48472,Snover,MI,"8,10,989",US
48473,Swartz Creek,MI,"8,10,989",US
48475,Ubly,MI,989,US
48476,Vernon,MI,989,US
48480,Grand Blanc,MI,810,US
48501,Flint,MI,"5,86,810",US
48502,Flint,MI,810,US
48503,Flint,MI,"3,13,810",US
48504,Flint,MI,"2,48,810",US
48505,Flint,MI,810,US
48506,Flint,MI,810,US
48507,Flint,MI,"5,86,810",US
48509,Burton,MI,810,US
48519,Burton,MI,810,US
48529,Burton,MI,810,US
48531,Flint,MI,810,US
48532,Flint,MI,810,US
48550,Flint,MI,810,US
48551,Flint,MI,810,US
48552,Flint,MI,810,US
48553,Flint,MI,810,US
48554,Flint,MI,810,US
48555,Flint,MI,810,US
48556,Flint,MI,810,US
48557,Flint,MI,810,US
48559,Flint,MI,810,US
48601,Saginaw,MI,989,US
48602,Saginaw,MI,989,US
48603,Saginaw,MI,989,US
48604,Saginaw,MI,989,US
48605,Saginaw,MI,989,US
48606,Saginaw,MI,989,US
48607,Saginaw,MI,989,US
48608,Saginaw,MI,989,US
48609,Saginaw,MI,989,US
48610,Alger,MI,989,US
48611,Auburn,MI,989,US
48612,Beaverton,MI,989,US
48613,Bentley,MI,989,US
48614,Brant,MI,989,US
48615,Breckenridge,MI,989,US
48616,Chesaning,MI,989,US
48617,Clare,MI,989,US
48618,Coleman,MI,989,US
48619,Comins,MI,989,US
48620,Edenville,MI,989,US
48621,Fairview,MI,989,US
48622,Farwell,MI,989,US
48623,Freeland,MI,989,US
48624,Gladwin,MI,989,US
48625,Harrison,MI,"9,89,231",US
48626,Hemlock,MI,989,US
48627,Higgins Lake,MI,989,US
48628,Hope,MI,989,US
48629,Houghton Lake,MI,989,US
48630,Houghton Lake Heights,MI,989,US
48631,Kawkawlin,MI,989,US
48632,Lake,MI,989,US
48633,Lake George,MI,989,US
48634,Linwood,MI,989,US
48635,Lupton,MI,989,US
48636,Luzerne,MI,989,US
48637,Merrill,MI,989,US
48638,Saginaw,MI,989,US
48640,Midland,MI,989,US
48641,Midland,MI,989,US
48642,Midland,MI,989,US
48647,Mio,MI,989,US
48649,Oakley,MI,989,US
48650,Pinconning,MI,989,US
48651,Prudenville,MI,989,US
48652,Rhodes,MI,989,US
48653,Roscommon,MI,"9,89,231",US
48654,Rose City,MI,989,US
48655,Saint Charles,MI,989,US
48656,Saint Helen,MI,989,US
48657,Sanford,MI,989,US
48658,Standish,MI,989,US
48659,Sterling,MI,989,US
48661,West Branch,MI,989,US
48662,Wheeler,MI,989,US
48663,Saginaw,MI,989,US
48667,Midland,MI,989,US
48670,Midland,MI,989,US
48674,Midland,MI,989,US
48686,Midland,MI,989,US
48701,Akron,MI,989,US
48703,Au Gres,MI,"2,48,989",US
48705,Barton City,MI,989,US
48706,Bay City,MI,989,US
48707,Bay City,MI,989,US
48708,Bay City,MI,989,US
48710,University Center,MI,989,US
48720,Bay Port,MI,989,US
48721,Black River,MI,989,US
48722,Bridgeport,MI,989,US
48723,Caro,MI,989,US
48724,Carrollton,MI,989,US
48725,Caseville,MI,989,US
48726,Cass City,MI,989,US
48727,Clifford,MI,989,US
48728,Curran,MI,989,US
48729,Deford,MI,989,US
48730,East Tawas,MI,989,US
48731,Elkton,MI,989,US
48732,Essexville,MI,989,US
48733,Fairgrove,MI,989,US
48734,Frankenmuth,MI,989,US
48735,Gagetown,MI,989,US
48736,Gilford,MI,989,US
48737,Glennie,MI,989,US
48738,Greenbush,MI,989,US
48739,Hale,MI,989,US
48740,Harrisville,MI,989,US
48741,Kingston,MI,989,US
48742,Lincoln,MI,989,US
48743,Long Lake,MI,989,US
48744,Mayville,MI,989,US
48745,Mikado,MI,989,US
48746,Millington,MI,989,US
48747,Munger,MI,989,US
48748,National City,MI,989,US
48749,Omer,MI,989,US
48750,Oscoda,MI,989,US
48754,Owendale,MI,989,US
48755,Pigeon,MI,989,US
48756,Prescott,MI,989,US
48757,Reese,MI,989,US
48758,Richville,MI,989,US
48759,Sebewaing,MI,989,US
48760,Silverwood,MI,989,US
48761,South Branch,MI,989,US
48762,Spruce,MI,989,US
48763,Tawas City,MI,989,US
48764,Tawas City,MI,989,US
48765,Turner,MI,989,US
48766,Twining,MI,989,US
48767,Unionville,MI,989,US
48768,Vassar,MI,989,US
48769,Vassar,MI,989,US
48770,Whittemore,MI,989,US
48787,Frankenmuth,MI,989,US
48801,Alma,MI,989,US
48802,Alma,MI,989,US
48804,Mount Pleasant,MI,989,US
48805,Okemos,MI,517,US
48806,Ashley,MI,989,US
48807,Bannister,MI,989,US
48808,Bath,MI,517,US
48809,Belding,MI,616,US
48811,Carson City,MI,989,US
48812,Cedar Lake,MI,989,US
48813,Charlotte,MI,517,US
48815,Clarksville,MI,616,US
48816,Cohoctah,MI,,US
48817,Corunna,MI,"9,89,810",US
48818,Crystal,MI,989,US
48819,Dansville,MI,517,US
48820,Dewitt,MI,517,US
48821,Dimondale,MI,517,US
48822,Eagle,MI,"5,17,989",US
48823,East Lansing,MI,517,US
48824,East Lansing,MI,517,US
48825,East Lansing,MI,517,US
48826,East Lansing,MI,517,US
48827,Eaton Rapids,MI,517,US
48829,Edmore,MI,989,US
48830,Elm Hall,MI,"6,16,989",US
48831,Elsie,MI,989,US
48832,Elwell,MI,989,US
48833,Eureka,MI,,US
48834,Fenwick,MI,"9,89,616",US
48835,Fowler,MI,989,US
48836,Fowlerville,MI,"5,17,989",US
48837,Grand Ledge,MI,517,US
48838,Greenville,MI,"6,16,989",US
48840,Haslett,MI,517,US
48841,Henderson,MI,989,US
48842,Holt,MI,517,US
48843,Howell,MI,"5,17,58,69,89,24,87,34,000",US
48844,Howell,MI,517,US
48845,Hubbardston,MI,989,US
48846,Ionia,MI,"6,16,989",US
48847,Ithaca,MI,989,US
48848,Laingsburg,MI,517,US
48849,Lake Odessa,MI,"6,16,517",US
48850,Lakeview,MI,989,US
48851,Lyons,MI,"9,89,517",US
48852,Mcbrides,MI,989,US
48853,Maple Rapids,MI,989,US
48854,Mason,MI,517,US
48855,Howell,MI,517,US
48856,Middleton,MI,989,US
48857,Morrice,MI,"5,17,989",US
48858,Mount Pleasant,MI,989,US
48859,Mount Pleasant,MI,989,US
48860,Muir,MI,989,US
48861,Mulliken,MI,517,US
48862,North Star,MI,989,US
48863,Howell,MI,,US
48864,Okemos,MI,"5,17,734",US
48865,Orleans,MI,"6,16,989",US
48866,Ovid,MI,989,US
48867,Owosso,MI,"5,17,989",US
48870,Palo,MI,989,US
48871,Perrinton,MI,989,US
48872,Perry,MI,517,US
48873,Pewamo,MI,989,US
48874,Pompeii,MI,989,US
48875,Portland,MI,"51,79,89,616",US
48876,Potterville,MI,517,US
48877,Riverdale,MI,989,US
48878,Rosebush,MI,989,US
48879,Saint Johns,MI,"9,89,517",US
48880,Saint Louis,MI,989,US
48881,Saranac,MI,616,US
48882,Shaftsburg,MI,517,US
48883,Shepherd,MI,989,US
48884,Sheridan,MI,989,US
48885,Sidney,MI,989,US
48886,Six Lakes,MI,989,US
48887,Smyrna,MI,,US
48888,Stanton,MI,989,US
48889,Sumner,MI,989,US
48890,Sunfield,MI,517,US
48891,Vestaburg,MI,989,US
48892,Webberville,MI,517,US
48893,Weidman,MI,989,US
48894,Westphalia,MI,989,US
48895,Williamston,MI,517,US
48896,Winn,MI,989,US
48897,Woodland,MI,269,US
48901,Lansing,MI,517,US
48906,Lansing,MI,"5,17,989",US
48908,Lansing,MI,517,US
48909,Lansing,MI,517,US
48910,Lansing,MI,517,US
48911,Lansing,MI,517,US
48912,Lansing,MI,517,US
48913,Lansing,MI,517,US
48915,Lansing,MI,517,US
48916,Lansing,MI,517,US
48917,Lansing,MI,517,US
48918,Lansing,MI,517,US
48919,Lansing,MI,517,US
48921,Lansing,MI,517,US
48922,Lansing,MI,517,US
48924,Lansing,MI,517,US
48929,Lansing,MI,517,US
48930,Lansing,MI,517,US
48933,Lansing,MI,"5,17,989",US
48937,Lansing,MI,517,US
48950,Lansing,MI,517,US
48951,Lansing,MI,517,US
48956,Lansing,MI,517,US
48980,Lansing,MI,517,US
49001,Kalamazoo,MI,269,US
49002,Portage,MI,269,US
49003,Kalamazoo,MI,269,US
49004,Kalamazoo,MI,269,US
49005,Kalamazoo,MI,269,US
49006,Kalamazoo,MI,269,US
49007,Kalamazoo,MI,269,US
49008,Kalamazoo,MI,269,US
49009,Kalamazoo,MI,269,US
49010,Allegan,MI,269,US
49011,Athens,MI,"5,17,269",US
49012,Augusta,MI,269,US
49013,Bangor,MI,269,US
49014,Battle Creek,MI,269,US
49015,Battle Creek,MI,269,US
49016,Battle Creek,MI,269,US
49017,Battle Creek,MI,"6,16,269",US
49018,Battle Creek,MI,269,US
49019,Kalamazoo,MI,269,US
49020,Bedford,MI,,US
49021,Bellevue,MI,269,US
49022,Benton Harbor,MI,269,US
49023,Benton Harbor,MI,269,US
49024,Portage,MI,269,US
49026,Bloomingdale,MI,269,US
49027,Breedsville,MI,269,US
49028,Bronson,MI,517,US
49029,Burlington,MI,517,US
49030,Burr Oak,MI,269,US
49031,Cassopolis,MI,269,US
49032,Centreville,MI,269,US
49033,Ceresco,MI,269,US
49034,Climax,MI,269,US
49035,Cloverdale,MI,,US
49036,Coldwater,MI,517,US
49037,Battle Creek,MI,269,US
49038,Coloma,MI,269,US
49039,Hagar Shores,MI,269,US
49040,Colon,MI,269,US
49041,Comstock,MI,269,US
49042,Constantine,MI,269,US
49043,Covert,MI,269,US
49045,Decatur,MI,269,US
49046,Delton,MI,269,US
49047,Dowagiac,MI,269,US
49048,Kalamazoo,MI,"5,17,269",US
49050,Dowling,MI,,US
49051,East Leroy,MI,,US
49052,Fulton,MI,269,US
49053,Galesburg,MI,269,US
49055,Gobles,MI,269,US
49056,Grand Junction,MI,"6,16,269",US
49057,Hartford,MI,269,US
49058,Hastings,MI,"6,16,269",US
49060,Hickory Corners,MI,269,US
49061,Jones,MI,269,US
49062,Kendall,MI,269,US
49063,Lacota,MI,269,US
49064,Lawrence,MI,269,US
49065,Lawton,MI,269,US
49066,Leonidas,MI,269,US
49067,Marcellus,MI,269,US
49068,Marshall,MI,"5,17,269",US
49069,Marshall,MI,269,US
49070,Martin,MI,269,US
49071,Mattawan,MI,269,US
49072,Mendon,MI,269,US
49073,Nashville,MI,"5,17,269",US
49074,Nazareth,MI,269,US
49075,Nottawa,MI,269,US
49076,Olivet,MI,"5,17,269",US
49077,Oshtemo,MI,269,US
49078,Otsego,MI,269,US
49079,Paw Paw,MI,269,US
49080,Plainwell,MI,269,US
49081,Portage,MI,269,US
49082,Quincy,MI,517,US
49083,Richland,MI,269,US
49084,Riverside,MI,269,US
49085,Saint Joseph,MI,269,US
49087,Schoolcraft,MI,269,US
49088,Scotts,MI,269,US
49089,Sherwood,MI,"5,17,616",US
49090,South Haven,MI,269,US
49091,Sturgis,MI,269,US
49092,Tekonsha,MI,517,US
49093,Three Rivers,MI,269,US
49094,Union City,MI,517,US
49095,Vandalia,MI,269,US
49096,Vermontville,MI,517,US
49097,Vicksburg,MI,269,US
49098,Watervliet,MI,269,US
49099,White Pigeon,MI,269,US
49101,Baroda,MI,269,US
49102,Berrien Center,MI,269,US
49103,Berrien Springs,MI,269,US
49104,Berrien Springs,MI,269,US
49106,Bridgman,MI,269,US
49107,Buchanan,MI,269,US
49111,Eau Claire,MI,269,US
49112,Edwardsburg,MI,269,US
49113,Galien,MI,269,US
49115,Harbert,MI,269,US
49116,Lakeside,MI,269,US
49117,New Buffalo,MI,269,US
49119,New Troy,MI,269,US
49120,Niles,MI,269,US
49121,Niles,MI,269,US
49125,Sawyer,MI,269,US
49126,Sodus,MI,269,US
49127,Stevensville,MI,269,US
49128,Three Oaks,MI,269,US
49129,Union Pier,MI,269,US
49130,Union,MI,269,US
49201,Jackson,MI,517,US
49202,Jackson,MI,517,US
49203,Jackson,MI,517,US
49204,Jackson,MI,517,US
49220,Addison,MI,517,US
49221,Adrian,MI,517,US
49224,Albion,MI,517,US
49227,Allen,MI,517,US
49228,Blissfield,MI,517,US
49229,Britton,MI,517,US
49230,Brooklyn,MI,517,US
49232,Camden,MI,517,US
49233,Cement City,MI,517,US
49234,Clarklake,MI,517,US
49235,Clayton,MI,517,US
49236,Clinton,MI,"98,95,17,734",US
49237,Concord,MI,517,US
49238,Deerfield,MI,517,US
49239,Frontier,MI,517,US
49240,Grass Lake,MI,"5,17,734",US
49241,Hanover,MI,517,US
49242,Hillsdale,MI,517,US
49245,Homer,MI,517,US
49246,Horton,MI,517,US
49247,Hudson,MI,517,US
49248,Jasper,MI,517,US
49249,Jerome,MI,517,US
49250,Jonesville,MI,517,US
49251,Leslie,MI,517,US
49252,Litchfield,MI,517,US
49253,Manitou Beach,MI,517,US
49254,Michigan Center,MI,517,US
49255,Montgomery,MI,517,US
49256,Morenci,MI,517,US
49257,Moscow,MI,517,US
49258,Mosherville,MI,517,US
49259,Munith,MI,517,US
49261,Napoleon,MI,517,US
49262,North Adams,MI,517,US
49263,Norvell,MI,517,US
49264,Onondaga,MI,517,US
49265,Onsted,MI,517,US
49266,Osseo,MI,517,US
49267,Ottawa Lake,MI,"7,34,517",US
49268,Palmyra,MI,517,US
49269,Parma,MI,517,US
49270,Petersburg,MI,"7,34,517",US
49271,Pittsford,MI,517,US
49272,Pleasant Lake,MI,517,US
49274,Reading,MI,517,US
49276,Riga,MI,517,US
49277,Rives Junction,MI,517,US
49279,Sand Creek,MI,517,US
49281,Somerset,MI,517,US
49282,Somerset Center,MI,517,US
49283,Spring Arbor,MI,517,US
49284,Springport,MI,517,US
49285,Stockbridge,MI,"5,17,734",US
49286,Tecumseh,MI,517,US
49287,Tipton,MI,517,US
49288,Waldron,MI,517,US
49289,Weston,MI,517,US
49301,Ada,MI,616,US
49302,Alto,MI,"6,16,269",US
49303,Bailey,MI,"2,31,616",US
49304,Baldwin,MI,231,US
49305,Barryton,MI,"9,89,231",US
49306,Belmont,MI,616,US
49307,Big Rapids,MI,231,US
49309,Bitely,MI,231,US
49310,Blanchard,MI,989,US
49311,Bradley,MI,,US
49312,Brohman,MI,231,US
49314,Burnips,MI,616,US
49315,Byron Center,MI,616,US
49316,Caledonia,MI,"6,16,269",US
49317,Cannonsburg,MI,616,US
49318,Casnovia,MI,616,US
49319,Cedar Springs,MI,616,US
49320,Chippewa Lake,MI,231,US
49321,Comstock Park,MI,616,US
49322,Coral,MI,"2,31,989",US
49323,Dorr,MI,616,US
49325,Freeport,MI,616,US
49326,Gowen,MI,616,US
49327,Grant,MI,"2,31,616",US
49328,Hopkins,MI,"6,16,269",US
49329,Howard City,MI,"2,31,616",US
49330,Kent City,MI,"6,16,231",US
49331,Lowell,MI,616,US
49332,Mecosta,MI,"2,31,989",US
49333,Middleville,MI,616,US
49335,Moline,MI,616,US
49336,Morley,MI,"2,31,989",US
49337,Newaygo,MI,231,US
49338,Paris,MI,231,US
49339,Pierson,MI,"6,16,231",US
49340,Remus,MI,"9,89,231",US
49341,Rockford,MI,"6,16,248",US
49342,Rodney,MI,231,US
49343,Sand Lake,MI,616,US
49344,Shelbyville,MI,,US
49345,Sparta,MI,616,US
49346,Stanwood,MI,231,US
49347,Trufant,MI,616,US
49348,Wayland,MI,"6,16,269",US
49349,White Cloud,MI,231,US
49351,Rockford,MI,616,US
49355,Ada,MI,616,US
49356,Ada,MI,616,US
49357,Ada,MI,616,US
49401,Allendale,MI,616,US
49402,Branch,MI,231,US
49403,Conklin,MI,"6,16,231",US
49404,Coopersville,MI,616,US
49405,Custer,MI,231,US
49406,Douglas,MI,,US
49408,Fennville,MI,269,US
49409,Ferrysburg,MI,616,US
49410,Fountain,MI,231,US
49411,Free Soil,MI,231,US
49412,Fremont,MI,231,US
49413,Fremont,MI,231,US
49415,Fruitport,MI,231,US
49416,Glenn,MI,,US
49417,Grand Haven,MI,616,US
49418,Grandville,MI,616,US
49419,Hamilton,MI,"6,16,269",US
49420,Hart,MI,231,US
49421,Hesperia,MI,231,US
49422,Holland,MI,616,US
49423,Holland,MI,616,US
49424,Holland,MI,616,US
49425,Holton,MI,231,US
49426,Hudsonville,MI,616,US
49427,Jamestown,MI,616,US
49428,Jenison,MI,616,US
49429,Jenison,MI,616,US
49430,Lamont,MI,616,US
49431,Ludington,MI,231,US
49434,Macatawa,MI,616,US
49435,Marne,MI,616,US
49436,Mears,MI,231,US
49437,Montague,MI,231,US
49440,Muskegon,MI,231,US
49441,Muskegon,MI,231,US
49442,Muskegon,MI,"2,31,616",US
49443,Muskegon,MI,231,US
49444,Muskegon,MI,231,US
49445,Muskegon,MI,"2,31,616",US
49446,New Era,MI,231,US
49448,Nunica,MI,"6,16,231",US
49449,Pentwater,MI,231,US
49450,Pullman,MI,269,US
49451,Ravenna,MI,"2,31,616",US
49452,Rothbury,MI,231,US
49453,Saugatuck,MI,269,US
49454,Scottville,MI,231,US
49455,Shelby,MI,231,US
49456,Spring Lake,MI,"2,31,616",US
49457,Twin Lake,MI,231,US
49458,Walhalla,MI,231,US
49459,Walkerville,MI,231,US
49460,West Olive,MI,616,US
49461,Whitehall,MI,231,US
49463,Sylvan Beach,MI,231,US
49464,Zeeland,MI,616,US
49468,Grandville,MI,616,US
49501,Grand Rapids,MI,616,US
49502,Grand Rapids,MI,616,US
49503,Grand Rapids,MI,616,US
49504,Grand Rapids,MI,616,US
49505,Grand Rapids,MI,616,US
49506,Grand Rapids,MI,"3,13,616",US
49507,Grand Rapids,MI,616,US
49508,Grand Rapids,MI,616,US
49509,Wyoming,MI,"2,31,616",US
49510,Grand Rapids,MI,616,US
49512,Grand Rapids,MI,616,US
49514,Grand Rapids,MI,616,US
49515,Grand Rapids,MI,616,US
49516,Grand Rapids,MI,616,US
49518,Grand Rapids,MI,616,US
49519,Wyoming,MI,616,US
49523,Grand Rapids,MI,616,US
49525,Grand Rapids,MI,616,US
49528,Grand Rapids,MI,616,US
49530,Grand Rapids,MI,616,US
49534,Grand Rapids,MI,616,US
49544,Grand Rapids,MI,616,US
49546,Grand Rapids,MI,616,US
49548,Grand Rapids,MI,616,US
49550,Grand Rapids,MI,616,US
49555,Grand Rapids,MI,616,US
49560,Grand Rapids,MI,616,US
49588,Grand Rapids,MI,616,US
49599,Grand Rapids,MI,616,US
49601,Cadillac,MI,231,US
49610,Acme,MI,231,US
49611,Alba,MI,231,US
49612,Alden,MI,231,US
49613,Arcadia,MI,231,US
49614,Bear Lake,MI,231,US
49615,Bellaire,MI,231,US
49616,Benzonia,MI,231,US
49617,Beulah,MI,231,US
49618,Boon,MI,231,US
49619,Brethren,MI,"2,31,616",US
49620,Buckley,MI,231,US
49621,Cedar,MI,231,US
49622,Central Lake,MI,231,US
49623,Chase,MI,231,US
49625,Copemish,MI,231,US
49626,Eastlake,MI,231,US
49627,Eastport,MI,231,US
49628,Elberta,MI,231,US
49629,Elk Rapids,MI,231,US
49630,Empire,MI,231,US
49631,Evart,MI,"2,31,989",US
49632,Falmouth,MI,231,US
49633,Fife Lake,MI,"2,31,989",US
49634,Filer City,MI,231,US
49635,Frankfort,MI,231,US
49636,Glen Arbor,MI,231,US
49637,Grawn,MI,231,US
49638,Harrietta,MI,231,US
49639,Hersey,MI,231,US
49640,Honor,MI,231,US
49642,Idlewild,MI,231,US
49643,Interlochen,MI,231,US
49644,Irons,MI,231,US
49645,Kaleva,MI,231,US
49646,Kalkaska,MI,231,US
49648,Kewadin,MI,231,US
49649,Kingsley,MI,231,US
49650,Lake Ann,MI,231,US
49651,Lake City,MI,"6,16,231",US
49653,Lake Leelanau,MI,231,US
49654,Leland,MI,231,US
49655,Leroy,MI,231,US
49656,Luther,MI,231,US
49657,Mc Bain,MI,"6,16,231",US
49659,Mancelona,MI,231,US
49660,Manistee,MI,231,US
49663,Manton,MI,231,US
49664,Maple City,MI,231,US
49665,Marion,MI,231,US
49666,Mayfield,MI,231,US
49667,Merritt,MI,231,US
49668,Mesick,MI,231,US
49670,Northport,MI,231,US
49673,Old Mission,MI,231,US
49674,Omena,MI,231,US
49675,Onekama,MI,231,US
49676,Rapid City,MI,231,US
49677,Reed City,MI,231,US
49679,Sears,MI,"2,31,989",US
49680,South Boardman,MI,231,US
49682,Suttons Bay,MI,231,US
49683,Thompsonville,MI,231,US
49684,Traverse City,MI,"2,31,810",US
49685,Traverse City,MI,231,US
49686,Traverse City,MI,"2,31,616",US
49688,Tustin,MI,231,US
49689,Wellston,MI,231,US
49690,Williamsburg,MI,231,US
49696,Traverse City,MI,231,US
49701,Mackinaw City,MI,"2,31,906",US
49705,Afton,MI,231,US
49706,Alanson,MI,231,US
49707,Alpena,MI,989,US
49709,Atlanta,MI,989,US
49710,Barbeau,MI,906,US
49711,Bay Shore,MI,231,US
49712,Boyne City,MI,231,US
49713,Boyne Falls,MI,231,US
49715,Brimley,MI,906,US
49716,Brutus,MI,231,US
49717,Burt Lake,MI,231,US
49718,Carp Lake,MI,"2,31,906",US
49719,Cedarville,MI,906,US
49720,Charlevoix,MI,231,US
49721,Cheboygan,MI,"6,16,231",US
49722,Conway,MI,231,US
49723,Cross Village,MI,231,US
49724,Dafter,MI,906,US
49725,De Tour Village,MI,906,US
49726,Drummond Island,MI,906,US
49727,East Jordan,MI,231,US
49728,Eckerman,MI,906,US
49729,Ellsworth,MI,231,US
49730,Elmira,MI,231,US
49733,Frederic,MI,989,US
49734,Gaylord,MI,989,US
49735,Gaylord,MI,"9,89,231",US
49736,Goetzville,MI,906,US
49737,Good Hart,MI,231,US
49738,Grayling,MI,989,US
49739,Grayling,MI,989,US
49740,Harbor Springs,MI,"2,31,616",US
49743,Hawks,MI,989,US
49744,Herron,MI,989,US
49745,Hessel,MI,906,US
49746,Hillman,MI,989,US
49747,Hubbard Lake,MI,989,US
49748,Hulbert,MI,906,US
49749,Indian River,MI,231,US
49751,Johannesburg,MI,989,US
49752,Kinross,MI,906,US
49753,Lachine,MI,989,US
49755,Levering,MI,231,US
49756,Lewiston,MI,989,US
49757,Mackinac Island,MI,906,US
49759,Millersburg,MI,989,US
49760,Moran,MI,906,US
49761,Mullett Lake,MI,,US
49762,Naubinway,MI,906,US
49764,Oden,MI,231,US
49765,Onaway,MI,989,US
49766,Ossineke,MI,989,US
49768,Paradise,MI,906,US
49769,Pellston,MI,231,US
49770,Petoskey,MI,231,US
49774,Pickford,MI,906,US
49775,Pointe Aux Pins,MI,231,US
49776,Posen,MI,989,US
49777,Presque Isle,MI,989,US
49779,Rogers City,MI,989,US
49780,Rudyard,MI,906,US
49781,Saint Ignace,MI,906,US
49782,Beaver Island,MI,"2,31,906",US
49783,Sault Sainte Marie,MI,906,US
49784,Kincheloe,MI,906,US
49785,Kincheloe,MI,906,US
49786,Kincheloe,MI,906,US
49788,Kincheloe,MI,906,US
49790,Eckerman,MI,906,US
49791,Topinabee,MI,231,US
49792,Tower,MI,989,US
49793,Trout Lake,MI,906,US
49795,Vanderbilt,MI,"9,89,231",US
49796,Walloon Lake,MI,231,US
49797,Waters,MI,,US
49799,Wolverine,MI,231,US
49801,Iron Mountain,MI,906,US
49802,Kingsford,MI,906,US
49805,Allouez,MI,906,US
49806,Au Train,MI,906,US
49807,Bark River,MI,906,US
49808,Big Bay,MI,906,US
49812,Carney,MI,906,US
49814,Champion,MI,906,US
49815,Channing,MI,906,US
49816,Chatham,MI,906,US
49817,Cooks,MI,906,US
49818,Cornell,MI,906,US
49819,Arnold,MI,906,US
49820,Curtis,MI,906,US
49821,Daggett,MI,906,US
49822,Deerton,MI,906,US
49825,Eben Junction,MI,906,US
49826,Rumely,MI,906,US
49827,Engadine,MI,906,US
49829,Escanaba,MI,906,US
49831,Felch,MI,906,US
49833,Little Lake,MI,906,US
49834,Foster City,MI,906,US
49835,Garden,MI,906,US
49836,Germfask,MI,906,US
49837,Gladstone,MI,906,US
49838,Gould City,MI,906,US
49839,Grand Marais,MI,906,US
49840,Gulliver,MI,906,US
49841,Gwinn,MI,906,US
49845,Harris,MI,906,US
49847,Hermansville,MI,906,US
49848,Ingalls,MI,906,US
49849,Ishpeming,MI,906,US
49852,Loretto,MI,906,US
49853,Mc Millan,MI,906,US
49854,Manistique,MI,906,US
49855,Marquette,MI,906,US
49858,Menominee,MI,906,US
49861,Michigamme,MI,906,US
49862,Munising,MI,906,US
49863,Nadeau,MI,906,US
49864,Nahma,MI,906,US
49865,National Mine,MI,906,US
49866,Negaunee,MI,906,US
49868,Newberry,MI,906,US
49870,Norway,MI,906,US
49871,Palmer,MI,906,US
49872,Perkins,MI,906,US
49873,Perronville,MI,906,US
49874,Powers,MI,906,US
49876,Quinnesec,MI,906,US
49877,Ralph,MI,906,US
49878,Rapid River,MI,906,US
49879,Republic,MI,906,US
49880,Rock,MI,906,US
49881,Sagola,MI,906,US
49883,Seney,MI,906,US
49884,Shingleton,MI,906,US
49885,Skandia,MI,906,US
49886,Spalding,MI,906,US
49887,Stephenson,MI,906,US
49891,Trenary,MI,906,US
49892,Vulcan,MI,906,US
49893,Wallace,MI,906,US
49894,Wells,MI,906,US
49895,Wetmore,MI,906,US
49896,Wilson,MI,906,US
49901,Ahmeek,MI,906,US
49902,Alpha,MI,906,US
49903,Amasa,MI,906,US
49905,Atlantic Mine,MI,906,US
49908,Baraga,MI,906,US
49910,Bergland,MI,906,US
49911,Bessemer,MI,906,US
49912,Bruce Crossing,MI,906,US
49913,Calumet,MI,906,US
49915,Caspian,MI,906,US
49916,Chassell,MI,906,US
49917,Copper City,MI,906,US
49918,Copper Harbor,MI,906,US
49919,Covington,MI,906,US
49920,Crystal Falls,MI,906,US
49921,Dodgeville,MI,906,US
49922,Dollar Bay,MI,906,US
49925,Ewen,MI,906,US
49927,Gaastra,MI,906,US
49929,Greenland,MI,906,US
49930,Hancock,MI,906,US
49931,Houghton,MI,906,US
49934,Hubbell,MI,906,US
49935,Iron River,MI,906,US
49938,Ironwood,MI,906,US
49942,Kearsarge,MI,906,US
49945,Lake Linden,MI,906,US
49946,Lanse,MI,"9,06,231",US
49947,Marenisco,MI,906,US
49948,Mass City,MI,906,US
49950,Mohawk,MI,906,US
49952,Nisula,MI,906,US
49953,Ontonagon,MI,906,US
49955,Painesdale,MI,906,US
49958,Pelkie,MI,906,US
49959,Ramsay,MI,906,US
49960,Rockland,MI,906,US
49961,Sidnaw,MI,906,US
49962,Skanee,MI,906,US
49963,South Range,MI,906,US
49964,Stambaugh,MI,906,US
49965,Toivola,MI,906,US
49967,Trout Creek,MI,906,US
49968,Wakefield,MI,906,US
49969,Watersmeet,MI,906,US
49970,Watton,MI,906,US
49971,White Pine,MI,906,US
50001,Ackworth,IA,"6,41,515",US
50002,Adair,IA,641,US
50003,Adel,IA,515,US
50005,Albion,IA,641,US
50006,Alden,IA,"5,15,641",US
50007,Alleman,IA,515,US
50008,Allerton,IA,641,US
50009,Altoona,IA,515,US
50010,Ames,IA,"5,15,641",US
50011,Ames,IA,515,US
50012,Ames,IA,515,US
50013,Ames,IA,515,US
50014,Ames,IA,515,US
50020,Anita,IA,"7,12,641",US
50021,Ankeny,IA,515,US
50022,Atlantic,IA,712,US
50023,Ankeny,IA,515,US
50025,Audubon,IA,712,US
50026,Bagley,IA,641,US
50027,Barnes City,IA,641,US
50028,Baxter,IA,641,US
50029,Bayard,IA,"7,12,641",US
50031,Beaver,IA,515,US
50032,Berwick,IA,515,US
50033,Bevington,IA,,US
50034,Blairsburg,IA,515,US
50035,Bondurant,IA,"5,15,641",US
50036,Boone,IA,515,US
50037,Boone,IA,515,US
50038,Booneville,IA,515,US
50039,Bouton,IA,515,US
50040,Boxholm,IA,515,US
50041,Bradford,IA,,US
50042,Brayton,IA,712,US
50043,Buckeye,IA,515,US
50044,Bussey,IA,641,US
50046,Cambridge,IA,515,US
50047,Carlisle,IA,"5,15,641",US
50048,Casey,IA,641,US
50049,Chariton,IA,641,US
50050,Churdan,IA,"5,15,712",US
50051,Clemons,IA,641,US
50052,Clio,IA,641,US
50054,Colfax,IA,"5,15,641",US
50055,Collins,IA,641,US
50056,Colo,IA,641,US
50057,Columbia,IA,641,US
50058,Coon Rapids,IA,"7,12,641",US
50059,Cooper,IA,,US
50060,Corydon,IA,641,US
50061,Cumming,IA,515,US
50062,Melcher-dallas,IA,641,US
50063,Dallas Center,IA,515,US
50064,Dana,IA,515,US
50065,Davis City,IA,"6,41,660",US
50066,Dawson,IA,515,US
50067,Decatur,IA,641,US
50068,Derby,IA,641,US
50069,De Soto,IA,515,US
50070,Dexter,IA,515,US
50071,Dows,IA,515,US
50072,Earlham,IA,515,US
50073,Elkhart,IA,515,US
50074,Ellston,IA,641,US
50075,Ellsworth,IA,515,US
50076,Exira,IA,712,US
50078,Ferguson,IA,641,US
50099,Boone,IA,515,US
50101,Galt,IA,515,US
50102,Garden City,IA,515,US
50103,Garden Grove,IA,641,US
50104,Gibson,IA,641,US
50105,Gilbert,IA,515,US
50106,Gilman,IA,641,US
50107,Grand Junction,IA,515,US
50108,Grand River,IA,641,US
50109,Granger,IA,515,US
50110,Gray,IA,712,US
50111,Grimes,IA,515,US
50112,Grinnell,IA,641,US
50115,Guthrie Center,IA,"6,41,712",US
50116,Hamilton,IA,641,US
50117,Hamlin,IA,712,US
50118,Hartford,IA,515,US
50119,Harvey,IA,641,US
50120,Haverhill,IA,641,US
50122,Hubbard,IA,"6,41,515",US
50123,Humeston,IA,641,US
50124,Huxley,IA,515,US
50125,Indianola,IA,"5,15,641",US
50126,Iowa Falls,IA,"6,41,515",US
50127,Ira,IA,641,US
50128,Jamaica,IA,"6,41,515",US
50129,Jefferson,IA,"51,56,41,712",US
50130,Jewell,IA,515,US
50131,Johnston,IA,"5,15,641",US
50132,Kamrar,IA,515,US
50133,Kellerton,IA,641,US
50134,Kelley,IA,515,US
50135,Kellogg,IA,641,US
50136,Keswick,IA,"3,19,641",US
50137,Killduff,IA,641,US
50138,Knoxville,IA,"6,41,515",US
50139,Lacona,IA,641,US
50140,Lamoni,IA,"6,41,660",US
50141,Laurel,IA,641,US
50142,Le Grand,IA,641,US
50143,Leighton,IA,641,US
50144,Leon,IA,641,US
50145,Liberty Center,IA,641,US
50146,Linden,IA,"6,41,515",US
50147,Lineville,IA,"6,41,660",US
50148,Liscomb,IA,641,US
50149,Lorimor,IA,641,US
50150,Lovilia,IA,641,US
50151,Lucas,IA,641,US
50152,Luther,IA,515,US
50153,Lynnville,IA,641,US
50154,Mc Callsburg,IA,515,US
50155,Macksburg,IA,641,US
50156,Madrid,IA,515,US
50157,Malcom,IA,641,US
50158,Marshalltown,IA,"6,41,319",US
50160,Martensdale,IA,641,US
50161,Maxwell,IA,"5,15,641",US
50162,Melbourne,IA,641,US
50163,Melcher-dallas,IA,641,US
50164,Menlo,IA,641,US
50165,Millerton,IA,641,US
50166,Milo,IA,641,US
50167,Minburn,IA,515,US
50168,Mingo,IA,641,US
50169,Mitchellville,IA,515,US
50170,Monroe,IA,641,US
50171,Montezuma,IA,641,US
50173,Montour,IA,641,US
50174,Murray,IA,641,US
50201,Nevada,IA,"5,15,641",US
50206,New Providence,IA,641,US
50207,New Sharon,IA,641,US
50208,Newton,IA,"6,41,515",US
50210,New Virginia,IA,641,US
50211,Norwalk,IA,"5,15,641",US
50212,Ogden,IA,515,US
50213,Osceola,IA,641,US
50214,Otley,IA,641,US
50216,Panora,IA,641,US
50217,Paton,IA,515,US
50218,Patterson,IA,515,US
50219,Pella,IA,641,US
50220,Perry,IA,515,US
50222,Peru,IA,"6,41,515",US
50223,Pilot Mound,IA,515,US
50225,Pleasantville,IA,515,US
50226,Polk City,IA,515,US
50227,Popejoy,IA,515,US
50228,Prairie City,IA,"5,15,641",US
50229,Prole,IA,"6,41,515",US
50230,Radcliffe,IA,515,US
50231,Randall,IA,515,US
50232,Reasnor,IA,641,US
50233,Redfield,IA,"5,15,641",US
50234,Rhodes,IA,641,US
50235,Rippey,IA,515,US
50236,Roland,IA,515,US
50237,Runnells,IA,515,US
50238,Russell,IA,641,US
50239,Saint Anthony,IA,641,US
50240,Saint Charles,IA,"6,41,515",US
50241,Saint Marys,IA,641,US
50242,Searsboro,IA,641,US
50243,Sheldahl,IA,515,US
50244,Slater,IA,515,US
50246,Stanhope,IA,515,US
50247,State Center,IA,641,US
50248,Story City,IA,515,US
50249,Stratford,IA,515,US
50250,Stuart,IA,"5,15,641",US
50251,Sully,IA,641,US
50252,Swan,IA,515,US
50254,Thayer,IA,641,US
50255,Thornburg,IA,641,US
50256,Tracy,IA,641,US
50257,Truro,IA,641,US
50258,Union,IA,641,US
50259,Gifford,IA,641,US
50261,Van Meter,IA,515,US
50262,Van Wert,IA,641,US
50263,Waukee,IA,515,US
50264,Weldon,IA,641,US
50265,West Des Moines,IA,515,US
50266,West Des Moines,IA,515,US
50268,What Cheer,IA,641,US
50269,Whitten,IA,641,US
50271,Williams,IA,515,US
50272,Williamson,IA,641,US
50273,Winterset,IA,"5,15,641",US
50274,Wiota,IA,712,US
50275,Woodburn,IA,641,US
50276,Woodward,IA,515,US
50277,Yale,IA,"6,41,515",US
50278,Zearing,IA,"6,41,515",US
50301,Des Moines,IA,515,US
50302,Des Moines,IA,515,US
50303,Des Moines,IA,515,US
50304,Des Moines,IA,515,US
50305,Des Moines,IA,515,US
50306,Des Moines,IA,515,US
50307,Des Moines,IA,515,US
50308,Des Moines,IA,515,US
50309,Des Moines,IA,"5,15,641",US
50310,Des Moines,IA,515,US
50311,Des Moines,IA,515,US
50312,Des Moines,IA,515,US
50313,Des Moines,IA,515,US
50314,Des Moines,IA,515,US
50315,Des Moines,IA,"5,15,641",US
50316,Des Moines,IA,515,US
50317,Des Moines,IA,515,US
50318,Des Moines,IA,515,US
50319,Des Moines,IA,515,US
50320,Des Moines,IA,515,US
50321,Des Moines,IA,515,US
50322,Urbandale,IA,515,US
50323,Urbandale,IA,515,US
50324,Windsor Heights,IA,515,US
50325,Clive,IA,515,US
50327,Pleasant Hill,IA,515,US
50328,Des Moines,IA,515,US
50329,Des Moines,IA,515,US
50330,Des Moines,IA,515,US
50331,Des Moines,IA,515,US
50332,Des Moines,IA,515,US
50333,Des Moines,IA,515,US
50334,Des Moines,IA,515,US
50335,Des Moines,IA,515,US
50336,Des Moines,IA,515,US
50339,Des Moines,IA,515,US
50340,Des Moines,IA,515,US
50347,Des Moines,IA,515,US
50359,Des Moines,IA,515,US
50360,Des Moines,IA,515,US
50361,Des Moines,IA,515,US
50362,Des Moines,IA,515,US
50363,Des Moines,IA,515,US
50364,Des Moines,IA,515,US
50367,Des Moines,IA,515,US
50368,Des Moines,IA,515,US
50369,Des Moines,IA,515,US
50380,Des Moines,IA,515,US
50381,Des Moines,IA,515,US
50391,Des Moines,IA,515,US
50392,Des Moines,IA,515,US
50393,Des Moines,IA,515,US
50394,Des Moines,IA,515,US
50395,Des Moines,IA,515,US
50396,Des Moines,IA,515,US
50397,Des Moines,IA,515,US
50398,Urbandale,IA,515,US
50401,Mason City,IA,641,US
50402,Mason City,IA,641,US
50420,Alexander,IA,641,US
50421,Belmond,IA,"6,41,515",US
50423,Britt,IA,"6,41,515",US
50424,Buffalo Center,IA,"6,41,515",US
50426,Carpenter,IA,641,US
50427,Chapin,IA,,US
50428,Clear Lake,IA,641,US
50430,Corwith,IA,515,US
50431,Coulter,IA,641,US
50432,Crystal Lake,IA,641,US
50433,Dougherty,IA,641,US
50434,Fertile,IA,641,US
50435,Floyd,IA,641,US
50436,Forest City,IA,641,US
50438,Garner,IA,641,US
50439,Goodell,IA,641,US
50440,Grafton,IA,641,US
50441,Hampton,IA,"6,41,319",US
50444,Hanlontown,IA,641,US
50446,Joice,IA,641,US
50447,Kanawha,IA,641,US
50448,Kensett,IA,641,US
50449,Klemme,IA,641,US
50450,Lake Mills,IA,641,US
50451,Lakota,IA,"5,15,641",US
50452,Latimer,IA,641,US
50453,Leland,IA,641,US
50454,Little Cedar,IA,641,US
50455,Mc Intire,IA,641,US
50456,Manly,IA,641,US
50457,Meservey,IA,641,US
50458,Nora Springs,IA,641,US
50459,Northwood,IA,641,US
50460,Orchard,IA,641,US
50461,Osage,IA,641,US
50464,Plymouth,IA,641,US
50465,Rake,IA,"6,41,507",US
50466,Riceville,IA,641,US
50467,Rock Falls,IA,641,US
50468,Rockford,IA,641,US
50469,Rockwell,IA,641,US
50470,Rowan,IA,641,US
50471,Rudd,IA,641,US
50472,Saint Ansgar,IA,641,US
50473,Scarville,IA,641,US
50475,Sheffield,IA,641,US
50476,Stacyville,IA,641,US
50477,Swaledale,IA,641,US
50478,Thompson,IA,641,US
50479,Thornton,IA,641,US
50480,Titonka,IA,515,US
50481,Toeterville,IA,641,US
50482,Ventura,IA,641,US
50483,Wesley,IA,515,US
50484,Woden,IA,641,US
50501,Fort Dodge,IA,515,US
50510,Albert City,IA,712,US
50511,Algona,IA,515,US
50514,Armstrong,IA,"7,12,515",US
50515,Ayrshire,IA,712,US
50516,Badger,IA,515,US
50517,Bancroft,IA,515,US
50518,Barnum,IA,"5,15,712",US
50519,Bode,IA,515,US
50520,Bradgate,IA,515,US
50521,Burnside,IA,515,US
50522,Burt,IA,515,US
50523,Callender,IA,515,US
50524,Clare,IA,515,US
50525,Clarion,IA,515,US
50526,Clarion,IA,515,US
50527,Curlew,IA,712,US
50528,Cylinder,IA,"7,12,515",US
50529,Dakota City,IA,515,US
50530,Dayton,IA,515,US
50531,Dolliver,IA,712,US
50532,Duncombe,IA,515,US
50533,Eagle Grove,IA,515,US
50535,Early,IA,712,US
50536,Emmetsburg,IA,712,US
50538,Farnhamville,IA,515,US
50539,Fenton,IA,515,US
50540,Fonda,IA,712,US
50541,Gilmore City,IA,"5,15,712",US
50542,Goldfield,IA,515,US
50543,Gowrie,IA,515,US
50544,Harcourt,IA,515,US
50545,Hardy,IA,515,US
50546,Havelock,IA,712,US
50548,Humboldt,IA,515,US
50551,Jolley,IA,712,US
50552,Knierim,IA,515,US
50554,Laurens,IA,712,US
50556,Ledyard,IA,"5,15,641",US
50557,Lehigh,IA,515,US
50558,Livermore,IA,515,US
50559,Lone Rock,IA,515,US
50560,Lu Verne,IA,515,US
50561,Lytton,IA,712,US
50562,Mallard,IA,712,US
50563,Manson,IA,"7,12,515",US
50565,Marathon,IA,712,US
50566,Moorland,IA,515,US
50567,Nemaha,IA,712,US
50568,Newell,IA,712,US
50569,Otho,IA,515,US
50570,Ottosen,IA,515,US
50571,Palmer,IA,712,US
50573,Plover,IA,712,US
50574,Pocahontas,IA,712,US
50575,Pomeroy,IA,712,US
50576,Rembrandt,IA,712,US
50577,Renwick,IA,515,US
50578,Ringsted,IA,"7,12,515",US
50579,Rockwell City,IA,"7,12,515",US
50581,Rolfe,IA,"7,12,515",US
50582,Rutland,IA,515,US
50583,Sac City,IA,712,US
50585,Sioux Rapids,IA,712,US
50586,Somers,IA,515,US
50588,Storm Lake,IA,712,US
50590,Swea City,IA,515,US
50591,Thor,IA,515,US
50592,Truesdale,IA,712,US
50593,Varina,IA,712,US
50594,Vincent,IA,515,US
50595,Webster City,IA,515,US
50597,West Bend,IA,515,US
50598,Whittemore,IA,515,US
50599,Woolstock,IA,515,US
50601,Ackley,IA,"6,41,319",US
50602,Allison,IA,"3,19,641",US
50603,Alta Vista,IA,641,US
50604,Aplington,IA,319,US
50605,Aredale,IA,641,US
50606,Arlington,IA,563,US
50607,Aurora,IA,319,US
50608,Austinville,IA,319,US
50609,Beaman,IA,641,US
50611,Bristow,IA,641,US
50612,Buckingham,IA,319,US
50613,Cedar Falls,IA,"3,19,641",US
50614,Cedar Falls,IA,319,US
50616,Charles City,IA,641,US
50619,Clarksville,IA,"3,19,641",US
50620,Colwell,IA,641,US
50621,Conrad,IA,641,US
50622,Denver,IA,319,US
50623,Dewar,IA,319,US
50624,Dike,IA,"3,19,641",US
50625,Dumont,IA,641,US
50626,Dunkerton,IA,319,US
50627,Eldora,IA,641,US
50628,Elma,IA,641,US
50629,Fairbank,IA,319,US
50630,Fredericksburg,IA,"5,63,319",US
50631,Frederika,IA,319,US
50632,Garwin,IA,641,US
50633,Geneva,IA,641,US
50634,Gilbertville,IA,319,US
50635,Gladbrook,IA,"6,41,319",US
50636,Greene,IA,"6,41,319",US
50638,Grundy Center,IA,"3,19,641",US
50641,Hazleton,IA,319,US
50642,Holland,IA,"3,19,641",US
50643,Hudson,IA,319,US
50644,Independence,IA,319,US
50645,Ionia,IA,"3,19,641",US
50647,Janesville,IA,319,US
50648,Jesup,IA,319,US
50649,Kesley,IA,319,US
50650,Lamont,IA,"5,63,319",US
50651,La Porte City,IA,319,US
50652,Lincoln,IA,641,US
50653,Marble Rock,IA,641,US
50654,Masonville,IA,"5,63,319",US
50655,Maynard,IA,563,US
50657,Morrison,IA,319,US
50658,Nashua,IA,"6,41,319",US
50659,New Hampton,IA,"6,41,563",US
50660,New Hartford,IA,319,US
50661,North Washington,IA,,US
50662,Oelwein,IA,"3,19,563",US
50664,Oran,IA,319,US
50665,Parkersburg,IA,319,US
50666,Plainfield,IA,319,US
50667,Raymond,IA,319,US
50668,Readlyn,IA,319,US
50669,Reinbeck,IA,"3,19,641",US
50670,Shell Rock,IA,319,US
50671,Stanley,IA,319,US
50672,Steamboat Rock,IA,641,US
50673,Stout,IA,319,US
50674,Sumner,IA,"5,63,319",US
50675,Traer,IA,"3,19,641",US
50676,Tripoli,IA,319,US
50677,Waverly,IA,319,US
50680,Wellsburg,IA,641,US
50681,Westgate,IA,563,US
50682,Winthrop,IA,319,US
50701,Waterloo,IA,319,US
50702,Waterloo,IA,319,US
50703,Waterloo,IA,319,US
50704,Waterloo,IA,319,US
50706,Waterloo,IA,319,US
50707,Evansdale,IA,319,US
50801,Creston,IA,641,US
50830,Afton,IA,641,US
50831,Arispe,IA,641,US
50833,Bedford,IA,"7,12,641",US
50835,Benton,IA,641,US
50836,Blockton,IA,641,US
50837,Bridgewater,IA,"6,41,712",US
50839,Carbon,IA,,US
50840,Clearfield,IA,641,US
50841,Corning,IA,"6,41,712",US
50842,Cromwell,IA,641,US
50843,Cumberland,IA,712,US
50845,Diagonal,IA,641,US
50846,Fontanelle,IA,641,US
50847,Grant,IA,712,US
50848,Gravity,IA,712,US
50849,Greenfield,IA,641,US
50851,Lenox,IA,641,US
50853,Massena,IA,712,US
50854,Mount Ayr,IA,641,US
50857,Nodaway,IA,712,US
50858,Orient,IA,641,US
50859,Prescott,IA,641,US
50860,Redding,IA,641,US
50861,Shannon City,IA,641,US
50862,Sharpsburg,IA,641,US
50863,Tingley,IA,641,US
50864,Villisca,IA,712,US
50936,Des Moines,IA,515,US
50940,Des Moines,IA,515,US
50947,Des Moines,IA,515,US
50950,Des Moines,IA,515,US
50980,Des Moines,IA,515,US
50981,Des Moines,IA,515,US
50982,Des Moines,IA,,US
50983,Des Moines,IA,,US
51001,Akron,IA,"7,12,605",US
51002,Alta,IA,712,US
51003,Alton,IA,712,US
51004,Anthon,IA,712,US
51005,Aurelia,IA,712,US
51006,Battle Creek,IA,712,US
51007,Bronson,IA,712,US
51008,Brunsville,IA,712,US
51009,Calumet,IA,712,US
51010,Castana,IA,712,US
51011,Chatsworth,IA,712,US
51012,Cherokee,IA,712,US
51014,Cleghorn,IA,712,US
51015,Climbing Hill,IA,712,US
51016,Correctionville,IA,712,US
51018,Cushing,IA,712,US
51019,Danbury,IA,712,US
51020,Galva,IA,712,US
51022,Granville,IA,712,US
51023,Hawarden,IA,712,US
51024,Hinton,IA,712,US
51025,Holstein,IA,712,US
51026,Hornick,IA,712,US
51027,Ireton,IA,712,US
51028,Kingsley,IA,712,US
51029,Larrabee,IA,712,US
51030,Lawton,IA,712,US
51031,Le Mars,IA,712,US
51033,Linn Grove,IA,712,US
51034,Mapleton,IA,712,US
51035,Marcus,IA,712,US
51036,Maurice,IA,712,US
51037,Meriden,IA,712,US
51038,Merrill,IA,712,US
51039,Moville,IA,712,US
51040,Onawa,IA,712,US
51041,Orange City,IA,712,US
51044,Oto,IA,712,US
51045,Oyens,IA,712,US
51046,Paullina,IA,712,US
51047,Peterson,IA,712,US
51048,Pierson,IA,712,US
51049,Quimby,IA,712,US
51050,Remsen,IA,712,US
51051,Rodney,IA,712,US
51052,Salix,IA,712,US
51053,Schaller,IA,712,US
51054,Sergeant Bluff,IA,712,US
51055,Sloan,IA,712,US
51056,Smithland,IA,712,US
51058,Sutherland,IA,712,US
51060,Ute,IA,712,US
51061,Washta,IA,712,US
51062,Westfield,IA,712,US
51063,Whiting,IA,712,US
51101,Sioux City,IA,712,US
51102,Sioux City,IA,712,US
51103,Sioux City,IA,712,US
51104,Sioux City,IA,712,US
51105,Sioux City,IA,712,US
51106,Sioux City,IA,712,US
51108,Sioux City,IA,712,US
51109,Sioux City,IA,712,US
51111,Sioux City,IA,712,US
51201,Sheldon,IA,712,US
51230,Alvord,IA,712,US
51231,Archer,IA,712,US
51232,Ashton,IA,712,US
51234,Boyden,IA,712,US
51235,Doon,IA,712,US
51237,George,IA,712,US
51238,Hospers,IA,712,US
51239,Hull,IA,712,US
51240,Inwood,IA,712,US
51241,Larchwood,IA,712,US
51242,Lester,IA,712,US
51243,Little Rock,IA,712,US
51244,Matlock,IA,712,US
51245,Primghar,IA,712,US
51246,Rock Rapids,IA,712,US
51247,Rock Valley,IA,712,US
51248,Sanborn,IA,712,US
51249,Sibley,IA,712,US
51250,Sioux Center,IA,712,US
51301,Spencer,IA,712,US
51331,Arnolds Park,IA,712,US
51333,Dickens,IA,712,US
51334,Estherville,IA,712,US
51338,Everly,IA,712,US
51340,Fostoria,IA,712,US
51341,Gillett Grove,IA,712,US
51342,Graettinger,IA,712,US
51343,Greenville,IA,712,US
51344,Gruver,IA,712,US
51345,Harris,IA,712,US
51346,Hartley,IA,712,US
51347,Lake Park,IA,"7,12,507",US
51350,Melvin,IA,712,US
51351,Milford,IA,712,US
51354,Ocheyedan,IA,712,US
51355,Okoboji,IA,712,US
51357,Royal,IA,712,US
51358,Ruthven,IA,712,US
51360,Spirit Lake,IA,"7,12,507",US
51363,Superior,IA,712,US
51364,Terril,IA,712,US
51365,Wallingford,IA,712,US
51366,Webb,IA,712,US
51401,Carroll,IA,712,US
51430,Arcadia,IA,712,US
51431,Arthur,IA,712,US
51432,Aspinwall,IA,712,US
51433,Auburn,IA,712,US
51436,Breda,IA,712,US
51439,Charter Oak,IA,712,US
51440,Dedham,IA,712,US
51441,Deloit,IA,712,US
51442,Denison,IA,712,US
51443,Glidden,IA,712,US
51444,Halbur,IA,712,US
51445,Ida Grove,IA,712,US
51446,Irwin,IA,712,US
51447,Kirkman,IA,712,US
51448,Kiron,IA,712,US
51449,Lake City,IA,712,US
51450,Lake View,IA,712,US
51451,Lanesboro,IA,712,US
51452,Lidderdale,IA,712,US
51453,Lohrville,IA,"7,12,515",US
51454,Manilla,IA,712,US
51455,Manning,IA,712,US
51458,Odebolt,IA,712,US
51459,Ralston,IA,712,US
51460,Ricketts,IA,712,US
51461,Schleswig,IA,712,US
51462,Scranton,IA,"7,12,515",US
51463,Templeton,IA,712,US
51465,Vail,IA,712,US
51466,Wall Lake,IA,712,US
51467,Westside,IA,712,US
51501,Council Bluffs,IA,712,US
51502,Council Bluffs,IA,712,US
51503,Council Bluffs,IA,712,US
51510,Carter Lake,IA,"7,12,402",US
51520,Arion,IA,712,US
51521,Avoca,IA,712,US
51523,Blencoe,IA,712,US
51525,Carson,IA,712,US
51526,Crescent,IA,712,US
51527,Defiance,IA,712,US
51528,Dow City,IA,712,US
51529,Dunlap,IA,712,US
51530,Earling,IA,712,US
51531,Elk Horn,IA,712,US
51532,Elliott,IA,712,US
51533,Emerson,IA,712,US
51534,Glenwood,IA,712,US
51535,Griswold,IA,712,US
51536,Hancock,IA,712,US
51537,Harlan,IA,712,US
51540,Hastings,IA,712,US
51541,Henderson,IA,712,US
51542,Honey Creek,IA,712,US
51543,Kimballton,IA,712,US
51544,Lewis,IA,712,US
51545,Little Sioux,IA,712,US
51546,Logan,IA,712,US
51548,Mc Clelland,IA,712,US
51549,Macedonia,IA,712,US
51550,Magnolia,IA,712,US
51551,Malvern,IA,712,US
51552,Marne,IA,712,US
51553,Minden,IA,712,US
51554,Mineola,IA,712,US
51555,Missouri Valley,IA,712,US
51556,Modale,IA,712,US
51557,Mondamin,IA,712,US
51558,Moorhead,IA,712,US
51559,Neola,IA,712,US
51560,Oakland,IA,712,US
51561,Pacific Junction,IA,712,US
51562,Panama,IA,712,US
51563,Persia,IA,712,US
51564,Pisgah,IA,712,US
51565,Portsmouth,IA,712,US
51566,Red Oak,IA,712,US
51570,Shelby,IA,712,US
51571,Silver City,IA,712,US
51572,Soldier,IA,712,US
51573,Stanton,IA,712,US
51575,Treynor,IA,712,US
51576,Underwood,IA,712,US
51577,Walnut,IA,712,US
51578,Westphalia,IA,712,US
51579,Woodbine,IA,712,US
51591,Red Oak,IA,712,US
51593,Harlan,IA,712,US
51601,Shenandoah,IA,712,US
51602,Shenandoah,IA,712,US
51603,Shenandoah,IA,712,US
51630,Blanchard,IA,712,US
51631,Braddyville,IA,"7,12,660",US
51632,Clarinda,IA,712,US
51636,Coin,IA,712,US
51637,College Springs,IA,712,US
51638,Essex,IA,712,US
51639,Farragut,IA,712,US
51640,Hamburg,IA,712,US
51645,Imogene,IA,712,US
51646,New Market,IA,712,US
51647,Northboro,IA,712,US
51648,Percival,IA,712,US
51649,Randolph,IA,712,US
51650,Riverton,IA,712,US
51651,Shambaugh,IA,712,US
51652,Sidney,IA,712,US
51653,Tabor,IA,712,US
51654,Thurman,IA,712,US
51656,Yorktown,IA,712,US
52001,Dubuque,IA,563,US
52002,Dubuque,IA,563,US
52003,Dubuque,IA,563,US
52004,Dubuque,IA,563,US
52030,Andrew,IA,563,US
52031,Bellevue,IA,563,US
52032,Bernard,IA,563,US
52033,Cascade,IA,563,US
52035,Colesburg,IA,563,US
52036,Delaware,IA,563,US
52037,Delmar,IA,563,US
52038,Dundee,IA,563,US
52039,Durango,IA,563,US
52040,Dyersville,IA,563,US
52041,Earlville,IA,563,US
52042,Edgewood,IA,563,US
52043,Elkader,IA,563,US
52044,Elkport,IA,563,US
52045,Epworth,IA,"3,19,563",US
52046,Farley,IA,563,US
52047,Farmersburg,IA,563,US
52048,Garber,IA,563,US
52049,Garnavillo,IA,563,US
52050,Greeley,IA,563,US
52052,Guttenberg,IA,563,US
52053,Holy Cross,IA,563,US
52054,La Motte,IA,563,US
52056,Luxemburg,IA,563,US
52057,Manchester,IA,563,US
52060,Maquoketa,IA,563,US
52064,Miles,IA,563,US
52065,New Vienna,IA,563,US
52066,North Buena Vista,IA,563,US
52068,Peosta,IA,563,US
52069,Preston,IA,563,US
52070,Sabula,IA,563,US
52071,Saint Donatus,IA,563,US
52072,Saint Olaf,IA,563,US
52073,Sherrill,IA,563,US
52074,Spragueville,IA,563,US
52075,Springbrook,IA,563,US
52076,Strawberry Point,IA,563,US
52077,Volga,IA,563,US
52078,Worthington,IA,563,US
52079,Zwingle,IA,563,US
52099,Dubuque,IA,563,US
52101,Decorah,IA,563,US
52132,Calmar,IA,563,US
52133,Castalia,IA,563,US
52134,Chester,IA,"5,63,641",US
52135,Clermont,IA,563,US
52136,Cresco,IA,563,US
52140,Dorchester,IA,563,US
52141,Elgin,IA,563,US
52142,Fayette,IA,563,US
52144,Fort Atkinson,IA,563,US
52146,Harpers Ferry,IA,563,US
52147,Hawkeye,IA,"5,63,319",US
52149,Highlandville,IA,563,US
52151,Lansing,IA,"3,19,563",US
52154,Lawler,IA,"5,63,641",US
52155,Lime Springs,IA,"5,63,641",US
52156,Luana,IA,563,US
52157,Mc Gregor,IA,563,US
52158,Marquette,IA,563,US
52159,Monona,IA,563,US
52160,New Albin,IA,"5,63,507",US
52161,Ossian,IA,563,US
52162,Postville,IA,563,US
52163,Protivin,IA,563,US
52164,Randalia,IA,563,US
52165,Ridgeway,IA,563,US
52166,Saint Lucas,IA,563,US
52168,Spillville,IA,563,US
52169,Wadena,IA,563,US
52170,Waterville,IA,563,US
52171,Waucoma,IA,563,US
52172,Waukon,IA,563,US
52175,West Union,IA,563,US
52201,Ainsworth,IA,319,US
52202,Alburnett,IA,319,US
52203,Amana,IA,319,US
52204,Amana,IA,319,US
52205,Anamosa,IA,319,US
52206,Atkins,IA,319,US
52207,Baldwin,IA,563,US
52208,Belle Plaine,IA,319,US
52209,Blairstown,IA,319,US
52210,Brandon,IA,319,US
52211,Brooklyn,IA,"6,41,319",US
52212,Center Junction,IA,563,US
52213,Center Point,IA,319,US
52214,Central City,IA,319,US
52215,Chelsea,IA,"6,41,319",US
52216,Clarence,IA,563,US
52217,Clutier,IA,319,US
52218,Coggon,IA,"3,19,563",US
52219,Prairieburg,IA,319,US
52220,Conroy,IA,319,US
52221,Guernsey,IA,319,US
52222,Deep River,IA,"6,41,319",US
52223,Delhi,IA,563,US
52224,Dysart,IA,319,US
52225,Elberon,IA,"3,19,641",US
52227,Ely,IA,319,US
52228,Fairfax,IA,319,US
52229,Garrison,IA,319,US
52231,Harper,IA,641,US
52232,Hartwick,IA,319,US
52233,Hiawatha,IA,319,US
52235,Hills,IA,319,US
52236,Homestead,IA,319,US
52237,Hopkinton,IA,563,US
52240,Iowa City,IA,319,US
52241,Coralville,IA,"5,63,319",US
52242,Iowa City,IA,319,US
52243,Iowa City,IA,319,US
52244,Iowa City,IA,319,US
52245,Iowa City,IA,319,US
52246,Iowa City,IA,319,US
52247,Kalona,IA,319,US
52248,Keota,IA,"6,41,319",US
52249,Keystone,IA,319,US
52251,Ladora,IA,319,US
52252,Langworthy,IA,,US
52253,Lisbon,IA,"3,19,563",US
52254,Lost Nation,IA,563,US
52255,Lowden,IA,563,US
52257,Luzerne,IA,319,US
52301,Marengo,IA,319,US
52302,Marion,IA,319,US
52305,Martelle,IA,319,US
52306,Mechanicsville,IA,"5,63,319",US
52307,Middle Amana,IA,319,US
52308,Millersburg,IA,319,US
52309,Monmouth,IA,563,US
52310,Monticello,IA,"3,19,563",US
52312,Morley,IA,319,US
52313,Mount Auburn,IA,319,US
52314,Mount Vernon,IA,319,US
52315,Newhall,IA,319,US
52316,North English,IA,319,US
52317,North Liberty,IA,319,US
52318,Norway,IA,319,US
52319,Oakdale,IA,319,US
52320,Olin,IA,"3,19,563",US
52321,Onslow,IA,563,US
52322,Oxford,IA,319,US
52323,Oxford Junction,IA,"5,63,319",US
52324,Palo,IA,319,US
52325,Parnell,IA,319,US
52326,Quasqueton,IA,319,US
52327,Riverside,IA,319,US
52328,Robins,IA,319,US
52329,Rowley,IA,319,US
52330,Ryan,IA,563,US
52332,Shellsburg,IA,319,US
52333,Solon,IA,319,US
52334,South Amana,IA,319,US
52335,South English,IA,"3,19,641",US
52336,Springville,IA,319,US
52337,Stanwood,IA,"5,63,319",US
52338,Swisher,IA,319,US
52339,Tama,IA,641,US
52340,Tiffin,IA,319,US
52341,Toddville,IA,319,US
52342,Toledo,IA,641,US
52344,Troy Mills,IA,319,US
52345,Urbana,IA,319,US
52346,Van Horne,IA,319,US
52347,Victor,IA,319,US
52348,Vining,IA,641,US
52349,Vinton,IA,319,US
52350,Viola,IA,319,US
52351,Walford,IA,319,US
52352,Walker,IA,319,US
52353,Washington,IA,319,US
52354,Watkins,IA,319,US
52355,Webster,IA,319,US
52356,Wellman,IA,"3,19,641",US
52358,West Branch,IA,319,US
52359,West Chester,IA,319,US
52361,Williamsburg,IA,319,US
52362,Wyoming,IA,563,US
52401,Cedar Rapids,IA,319,US
52402,Cedar Rapids,IA,319,US
52403,Cedar Rapids,IA,319,US
52404,Cedar Rapids,IA,319,US
52405,Cedar Rapids,IA,319,US
52406,Cedar Rapids,IA,319,US
52407,Cedar Rapids,IA,319,US
52408,Cedar Rapids,IA,319,US
52409,Cedar Rapids,IA,319,US
52410,Cedar Rapids,IA,319,US
52411,Cedar Rapids,IA,319,US
52497,Cedar Rapids,IA,319,US
52498,Cedar Rapids,IA,319,US
52499,Cedar Rapids,IA,319,US
52501,Ottumwa,IA,641,US
52530,Agency,IA,641,US
52531,Albia,IA,641,US
52533,Batavia,IA,"6,41,319",US
52534,Beacon,IA,641,US
52535,Birmingham,IA,319,US
52536,Blakesburg,IA,641,US
52537,Bloomfield,IA,641,US
52538,West Grove,IA,641,US
52540,Brighton,IA,319,US
52542,Cantril,IA,319,US
52543,Cedar,IA,641,US
52544,Centerville,IA,641,US
52548,Chillicothe,IA,641,US
52549,Cincinnati,IA,641,US
52550,Delta,IA,641,US
52551,Douds,IA,641,US
52552,Drakesville,IA,641,US
52553,Eddyville,IA,641,US
52554,Eldon,IA,641,US
52555,Exline,IA,641,US
52556,Fairfield,IA,"6,41,319",US
52557,Fairfield,IA,641,US
52560,Floris,IA,641,US
52561,Fremont,IA,641,US
52562,Hayesville,IA,,US
52563,Hedrick,IA,"6,41,319",US
52565,Keosauqua,IA,"3,19,641",US
52566,Kirkville,IA,641,US
52567,Libertyville,IA,641,US
52568,Martinsburg,IA,641,US
52569,Melrose,IA,641,US
52570,Milton,IA,"6,41,319",US
52571,Moravia,IA,641,US
52572,Moulton,IA,641,US
52573,Mount Sterling,IA,319,US
52574,Mystic,IA,641,US
52576,Ollie,IA,"6,41,319",US
52577,Oskaloosa,IA,641,US
52580,Packwood,IA,"3,19,641",US
52581,Plano,IA,641,US
52583,Promise City,IA,641,US
52584,Pulaski,IA,641,US
52585,Richland,IA,"3,19,641",US
52586,Rose Hill,IA,641,US
52588,Selma,IA,641,US
52590,Seymour,IA,641,US
52591,Sigourney,IA,"6,41,319",US
52593,Udell,IA,641,US
52594,Unionville,IA,641,US
52595,University Park,IA,641,US
52601,Burlington,IA,319,US
52619,Argyle,IA,319,US
52620,Bonaparte,IA,319,US
52621,Crawfordsville,IA,319,US
52623,Danville,IA,319,US
52624,Denmark,IA,319,US
52625,Donnellson,IA,319,US
52626,Farmington,IA,"3,19,660",US
52627,Fort Madison,IA,319,US
52630,Hillsboro,IA,319,US
52631,Houghton,IA,319,US
52632,Keokuk,IA,319,US
52635,Lockridge,IA,319,US
52637,Mediapolis,IA,319,US
52638,Middletown,IA,319,US
52639,Montrose,IA,319,US
52640,Morning Sun,IA,319,US
52641,Mount Pleasant,IA,"3,19,641",US
52642,Rome,IA,319,US
52644,Mount Union,IA,319,US
52645,New London,IA,319,US
52646,Oakville,IA,319,US
52647,Olds,IA,319,US
52648,Pilot Grove,IA,319,US
52649,Salem,IA,319,US
52650,Sperry,IA,319,US
52651,Stockport,IA,319,US
52652,Swedesburg,IA,319,US
52653,Wapello,IA,319,US
52654,Wayland,IA,319,US
52655,West Burlington,IA,319,US
52656,West Point,IA,319,US
52657,Saint Paul,IA,319,US
52658,Wever,IA,319,US
52659,Winfield,IA,319,US
52660,Yarmouth,IA,319,US
52701,Andover,IA,563,US
52720,Atalissa,IA,563,US
52721,Bennett,IA,563,US
52722,Bettendorf,IA,563,US
52726,Blue Grass,IA,563,US
52727,Bryant,IA,563,US
52728,Buffalo,IA,563,US
52729,Calamus,IA,563,US
52730,Camanche,IA,563,US
52731,Charlotte,IA,563,US
52732,Clinton,IA,563,US
52733,Clinton,IA,563,US
52734,Clinton,IA,563,US
52736,Clinton,IA,563,US
52737,Columbus City,IA,319,US
52738,Columbus Junction,IA,319,US
52739,Conesville,IA,319,US
52742,De Witt,IA,563,US
52745,Dixon,IA,563,US
52746,Donahue,IA,563,US
52747,Durant,IA,"5,63,319",US
52748,Eldridge,IA,563,US
52749,Fruitland,IA,563,US
52750,Goose Lake,IA,563,US
52751,Grand Mound,IA,563,US
52752,Grandview,IA,319,US
52753,Le Claire,IA,563,US
52754,Letts,IA,319,US
52755,Lone Tree,IA,319,US
52756,Long Grove,IA,563,US
52757,Low Moor,IA,563,US
52758,Mc Causland,IA,563,US
52759,Montpelier,IA,,US
52760,Moscow,IA,563,US
52761,Muscatine,IA,"3,19,563",US
52765,New Liberty,IA,563,US
52766,Nichols,IA,319,US
52767,Pleasant Valley,IA,563,US
52768,Princeton,IA,563,US
52769,Stockton,IA,563,US
52771,Teeds Grove,IA,563,US
52772,Tipton,IA,563,US
52773,Walcott,IA,563,US
52774,Welton,IA,563,US
52776,West Liberty,IA,"3,19,563",US
52777,Wheatland,IA,563,US
52778,Wilton,IA,563,US
52801,Davenport,IA,563,US
52802,Davenport,IA,563,US
52803,Davenport,IA,563,US
52804,Davenport,IA,563,US
52805,Davenport,IA,563,US
52806,Davenport,IA,563,US
52807,Davenport,IA,563,US
52808,Davenport,IA,563,US
52809,Davenport,IA,563,US
53001,Adell,WI,"41,49,20,262",US
53002,Allenton,WI,"2,62,920",US
53003,Ashippun,WI,920,US
53004,Belgium,WI,"2,62,920",US
53005,Brookfield,WI,"26,24,14,920",US
53006,Brownsville,WI,920,US
53007,Butler,WI,262,US
53008,Brookfield,WI,262,US
53010,Campbellsport,WI,"9,20,262",US
53011,Cascade,WI,920,US
53012,Cedarburg,WI,262,US
53013,Cedar Grove,WI,"9,20,262",US
53014,Chilton,WI,920,US
53015,Cleveland,WI,920,US
53016,Clyman,WI,920,US
53017,Colgate,WI,262,US
53018,Delafield,WI,262,US
53019,Eden,WI,920,US
53020,Elkhart Lake,WI,920,US
53021,Fredonia,WI,"2,62,920",US
53022,Germantown,WI,262,US
53023,Glenbeulah,WI,920,US
53024,Grafton,WI,"2,62,414",US
53026,Greenbush,WI,920,US
53027,Hartford,WI,"2,62,920",US
53029,Hartland,WI,"2,62,414",US
53031,Hingham,WI,920,US
53032,Horicon,WI,920,US
53033,Hubertus,WI,262,US
53034,Hustisford,WI,920,US
53035,Iron Ridge,WI,920,US
53036,Ixonia,WI,"9,20,262",US
53037,Jackson,WI,"2,62,414",US
53038,Johnson Creek,WI,920,US
53039,Juneau,WI,920,US
53040,Kewaskum,WI,"2,62,920",US
53042,Kiel,WI,920,US
53044,Kohler,WI,920,US
53045,Brookfield,WI,"2,62,414",US
53046,Lannon,WI,262,US
53047,Lebanon,WI,920,US
53048,Lomira,WI,920,US
53049,Malone,WI,920,US
53050,Mayville,WI,920,US
53051,Menomonee Falls,WI,"2,62,414",US
53052,Menomonee Falls,WI,262,US
53056,Merton,WI,262,US
53057,Mount Calvary,WI,920,US
53058,Nashotah,WI,"2,62,920",US
53059,Neosho,WI,"4,14,920",US
53060,Newburg,WI,262,US
53061,New Holstein,WI,920,US
53062,New Holstein,WI,920,US
53063,Newton,WI,920,US
53064,North Lake,WI,262,US
53065,Oakfield,WI,920,US
53066,Oconomowoc,WI,"2,62,920",US
53069,Okauchee,WI,262,US
53070,Oostburg,WI,920,US
53072,Pewaukee,WI,"2,62,414",US
53073,Plymouth,WI,920,US
53074,Port Washington,WI,262,US
53075,Random Lake,WI,"92,04,14,262",US
53076,Richfield,WI,262,US
53078,Rubicon,WI,"2,62,920",US
53079,Saint Cloud,WI,920,US
53080,Saukville,WI,262,US
53081,Sheboygan,WI,920,US
53082,Sheboygan,WI,920,US
53083,Sheboygan,WI,920,US
53085,Sheboygan Falls,WI,920,US
53086,Slinger,WI,"4,14,262",US
53088,Stockbridge,WI,920,US
53089,Sussex,WI,"2,62,414",US
53090,West Bend,WI,262,US
53091,Theresa,WI,"9,20,262",US
53092,Thiensville,WI,"2,62,414",US
53093,Waldo,WI,920,US
53094,Watertown,WI,920,US
53095,West Bend,WI,"2,62,414",US
53097,Mequon,WI,262,US
53098,Watertown,WI,920,US
53099,Woodland,WI,920,US
53101,Bassett,WI,262,US
53102,Benet Lake,WI,262,US
53103,Big Bend,WI,262,US
53104,Bristol,WI,262,US
53105,Burlington,WI,262,US
53108,Caledonia,WI,"2,62,414",US
53109,Camp Lake,WI,262,US
53110,Cudahy,WI,414,US
53114,Darien,WI,"2,62,608",US
53115,Delavan,WI,"2,62,608",US
53118,Dousman,WI,262,US
53119,Eagle,WI,262,US
53120,East Troy,WI,262,US
53121,Elkhorn,WI,262,US
53122,Elm Grove,WI,"2,62,414",US
53125,Fontana,WI,262,US
53126,Franksville,WI,262,US
53127,Genesee Depot,WI,262,US
53128,Genoa City,WI,262,US
53129,Greendale,WI,414,US
53130,Hales Corners,WI,414,US
53132,Franklin,WI,414,US
53137,Helenville,WI,"2,62,920",US
53138,Honey Creek,WI,262,US
53139,Kansasville,WI,262,US
53140,Kenosha,WI,262,US
53141,Kenosha,WI,262,US
53142,Kenosha,WI,262,US
53143,Kenosha,WI,262,US
53144,Kenosha,WI,262,US
53146,New Berlin,WI,262,US
53147,Lake Geneva,WI,262,US
53148,Lyons,WI,262,US
53149,Mukwonago,WI,262,US
53150,Muskego,WI,"4,14,262",US
53151,New Berlin,WI,"2,62,414",US
53152,New Munster,WI,262,US
53153,North Prairie,WI,"4,14,262",US
53154,Oak Creek,WI,"2,62,414",US
53156,Palmyra,WI,262,US
53157,Pell Lake,WI,262,US
53158,Pleasant Prairie,WI,262,US
53159,Powers Lake,WI,262,US
53167,Rochester,WI,262,US
53168,Salem,WI,262,US
53170,Silver Lake,WI,262,US
53171,Somers,WI,262,US
53172,South Milwaukee,WI,414,US
53176,Springfield,WI,262,US
53177,Sturtevant,WI,262,US
53178,Sullivan,WI,262,US
53179,Trevor,WI,262,US
53181,Twin Lakes,WI,262,US
53182,Union Grove,WI,262,US
53183,Wales,WI,262,US
53184,Walworth,WI,"2,62,608",US
53185,Waterford,WI,262,US
53186,Waukesha,WI,"2,62,414",US
53187,Waukesha,WI,262,US
53188,Waukesha,WI,"2,62,414",US
53189,Waukesha,WI,262,US
53190,Whitewater,WI,"2,62,608",US
53191,Williams Bay,WI,262,US
53192,Wilmot,WI,262,US
53194,Woodworth,WI,262,US
53195,Zenda,WI,262,US
53199,Silver Lake,WI,262,US
53201,Milwaukee,WI,"2,62,414",US
53202,Milwaukee,WI,"4,14,262",US
53203,Milwaukee,WI,"4,14,262",US
53204,Milwaukee,WI,414,US
53205,Milwaukee,WI,"26,24,14,920",US
53206,Milwaukee,WI,414,US
53207,Milwaukee,WI,414,US
53208,Milwaukee,WI,"41,49,20,262",US
53209,Milwaukee,WI,414,US
53210,Milwaukee,WI,"2,62,414",US
53211,Milwaukee,WI,414,US
53212,Milwaukee,WI,414,US
53213,Milwaukee,WI,414,US
53214,Milwaukee,WI,"4,14,262",US
53215,Milwaukee,WI,414,US
53216,Milwaukee,WI,414,US
53217,Milwaukee,WI,"4,14,262",US
53218,Milwaukee,WI,414,US
53219,Milwaukee,WI,414,US
53220,Milwaukee,WI,414,US
53221,Milwaukee,WI,414,US
53222,Milwaukee,WI,414,US
53223,Milwaukee,WI,"4,14,262",US
53224,Milwaukee,WI,414,US
53225,Milwaukee,WI,414,US
53226,Milwaukee,WI,"41,42,62,920",US
53227,Milwaukee,WI,414,US
53228,Milwaukee,WI,"4,14,262",US
53233,Milwaukee,WI,"4,14,262",US
53234,Milwaukee,WI,414,US
53235,Saint Francis,WI,414,US
53237,Milwaukee,WI,414,US
53244,Milwaukee,WI,414,US
53259,Milwaukee,WI,414,US
53263,Milwaukee,WI,414,US
53267,Milwaukee,WI,414,US
53268,Milwaukee,WI,414,US
53274,Milwaukee,WI,414,US
53278,Milwaukee,WI,414,US
53288,Milwaukee,WI,414,US
53290,Milwaukee,WI,414,US
53293,Milwaukee,WI,414,US
53295,Milwaukee,WI,414,US
53401,Racine,WI,262,US
53402,Racine,WI,262,US
53403,Racine,WI,262,US
53404,Racine,WI,262,US
53405,Racine,WI,262,US
53406,Racine,WI,262,US
53407,Racine,WI,262,US
53408,Racine,WI,262,US
53501,Afton,WI,,US
53502,Albany,WI,608,US
53503,Arena,WI,608,US
53504,Argyle,WI,608,US
53505,Avalon,WI,608,US
53506,Avoca,WI,608,US
53507,Barneveld,WI,608,US
53508,Belleville,WI,608,US
53510,Belmont,WI,608,US
53511,Beloit,WI,608,US
53512,Beloit,WI,608,US
53515,Black Earth,WI,608,US
53516,Blanchardville,WI,608,US
53517,Blue Mounds,WI,608,US
53518,Blue River,WI,608,US
53520,Brodhead,WI,608,US
53521,Brooklyn,WI,608,US
53522,Browntown,WI,608,US
53523,Cambridge,WI,608,US
53525,Clinton,WI,"2,62,608",US
53526,Cobb,WI,608,US
53527,Cottage Grove,WI,608,US
53528,Cross Plains,WI,608,US
53529,Dane,WI,608,US
53530,Darlington,WI,608,US
53531,Deerfield,WI,608,US
53532,De Forest,WI,608,US
53533,Dodgeville,WI,608,US
53534,Edgerton,WI,608,US
53535,Edmund,WI,608,US
53536,Evansville,WI,608,US
53537,Footville,WI,608,US
53538,Fort Atkinson,WI,"92,02,62,608",US
53540,Gotham,WI,608,US
53541,Gratiot,WI,608,US
53542,Hanover,WI,608,US
53543,Highland,WI,608,US
53544,Hollandale,WI,608,US
53545,Janesville,WI,608,US
53546,Janesville,WI,608,US
53547,Janesville,WI,608,US
53548,Janesville,WI,608,US
53549,Jefferson,WI,"9,20,262",US
53550,Juda,WI,608,US
53551,Lake Mills,WI,920,US
53553,Linden,WI,608,US
53554,Livingston,WI,608,US
53555,Lodi,WI,608,US
53556,Lone Rock,WI,608,US
53557,Lowell,WI,920,US
53558,Mc Farland,WI,608,US
53559,Marshall,WI,"6,08,920",US
53560,Mazomanie,WI,608,US
53561,Merrimac,WI,608,US
53562,Middleton,WI,608,US
53563,Milton,WI,"2,62,608",US
53565,Mineral Point,WI,608,US
53566,Monroe,WI,608,US
53569,Montfort,WI,608,US
53570,Monticello,WI,608,US
53571,Morrisonville,WI,608,US
53572,Mount Horeb,WI,608,US
53573,Muscoda,WI,608,US
53574,New Glarus,WI,608,US
53575,Oregon,WI,608,US
53576,Orfordville,WI,608,US
53577,Plain,WI,608,US
53578,Prairie Du Sac,WI,608,US
53579,Reeseville,WI,920,US
53580,Rewey,WI,608,US
53581,Richland Center,WI,608,US
53582,Ridgeway,WI,608,US
53583,Sauk City,WI,608,US
53584,Sextonville,WI,608,US
53585,Sharon,WI,262,US
53586,Shullsburg,WI,608,US
53587,South Wayne,WI,608,US
53588,Spring Green,WI,608,US
53589,Stoughton,WI,608,US
53590,Sun Prairie,WI,608,US
53593,Verona,WI,608,US
53594,Waterloo,WI,920,US
53595,Dodgeville,WI,608,US
53596,Sun Prairie,WI,608,US
53597,Waunakee,WI,608,US
53598,Windsor,WI,608,US
53599,Woodford,WI,608,US
53701,Madison,WI,608,US
53702,Madison,WI,608,US
53703,Madison,WI,608,US
53704,Madison,WI,608,US
53705,Madison,WI,608,US
53706,Madison,WI,608,US
53707,Madison,WI,608,US
53708,Madison,WI,608,US
53711,Madison,WI,608,US
53713,Madison,WI,608,US
53714,Madison,WI,608,US
53715,Madison,WI,608,US
53716,Madison,WI,608,US
53717,Madison,WI,608,US
53718,Madison,WI,608,US
53719,Madison,WI,608,US
53725,Madison,WI,608,US
53726,Madison,WI,608,US
53744,Madison,WI,608,US
53774,Madison,WI,608,US
53777,Madison,WI,608,US
53778,Madison,WI,608,US
53779,Madison,WI,608,US
53782,Madison,WI,608,US
53783,Madison,WI,608,US
53784,Madison,WI,608,US
53785,Madison,WI,608,US
53786,Madison,WI,608,US
53788,Madison,WI,608,US
53789,Madison,WI,608,US
53790,Madison,WI,608,US
53791,Madison,WI,608,US
53792,Madison,WI,608,US
53793,Madison,WI,608,US
53794,Madison,WI,608,US
53801,Bagley,WI,608,US
53802,Beetown,WI,608,US
53803,Benton,WI,608,US
53804,Bloomington,WI,608,US
53805,Boscobel,WI,608,US
53806,Cassville,WI,608,US
53807,Cuba City,WI,608,US
53808,Dickeyville,WI,608,US
53809,Fennimore,WI,608,US
53810,Glen Haven,WI,608,US
53811,Hazel Green,WI,608,US
53812,Kieler,WI,608,US
53813,Lancaster,WI,608,US
53816,Mount Hope,WI,608,US
53817,Patch Grove,WI,608,US
53818,Platteville,WI,608,US
53820,Potosi,WI,608,US
53821,Prairie Du Chien,WI,608,US
53824,Sinsinawa,WI,608,US
53825,Stitzer,WI,608,US
53826,Wauzeka,WI,608,US
53827,Woodman,WI,608,US
53901,Portage,WI,608,US
53910,Adams,WI,608,US
53911,Arlington,WI,608,US
53913,Baraboo,WI,608,US
53916,Beaver Dam,WI,920,US
53919,Brandon,WI,920,US
53920,Briggsville,WI,608,US
53922,Burnett,WI,920,US
53923,Cambria,WI,"9,20,608",US
53924,Cazenovia,WI,608,US
53925,Columbus,WI,920,US
53926,Dalton,WI,920,US
53927,Dellwood,WI,,US
53928,Doylestown,WI,920,US
53929,Elroy,WI,608,US
53930,Endeavor,WI,608,US
53931,Fairwater,WI,920,US
53932,Fall River,WI,920,US
53933,Fox Lake,WI,920,US
53934,Friendship,WI,608,US
53935,Friesland,WI,920,US
53936,Grand Marsh,WI,608,US
53937,Hillpoint,WI,608,US
53939,Kingston,WI,920,US
53940,Lake Delton,WI,608,US
53941,La Valle,WI,608,US
53942,Lime Ridge,WI,608,US
53943,Loganville,WI,608,US
53944,Lyndon Station,WI,608,US
53946,Markesan,WI,920,US
53947,Marquette,WI,920,US
53948,Mauston,WI,608,US
53949,Montello,WI,"6,08,920",US
53950,New Lisbon,WI,608,US
53951,North Freedom,WI,608,US
53952,Oxford,WI,608,US
53953,Packwaukee,WI,608,US
53954,Pardeeville,WI,608,US
53955,Poynette,WI,"6,08,920",US
53956,Randolph,WI,920,US
53957,Randolph,WI,920,US
53958,Reedsburg,WI,608,US
53959,Reedsburg,WI,608,US
53960,Rio,WI,"9,20,608",US
53961,Rock Springs,WI,608,US
53962,Union Center,WI,608,US
53963,Waupun,WI,920,US
53964,Westfield,WI,608,US
53965,Wisconsin Dells,WI,608,US
53968,Wonewoc,WI,608,US
53969,Wyocena,WI,608,US
54001,Amery,WI,715,US
54002,Baldwin,WI,715,US
54003,Beldenville,WI,715,US
54004,Clayton,WI,715,US
54005,Clear Lake,WI,715,US
54006,Cushing,WI,715,US
54007,Deer Park,WI,715,US
54009,Dresser,WI,715,US
54010,East Ellsworth,WI,715,US
54011,Ellsworth,WI,715,US
54013,Glenwood City,WI,715,US
54014,Hager City,WI,715,US
54015,Hammond,WI,715,US
54016,Hudson,WI,715,US
54017,New Richmond,WI,715,US
54020,Osceola,WI,715,US
54021,Prescott,WI,715,US
54022,River Falls,WI,715,US
54023,Roberts,WI,715,US
54024,Saint Croix Falls,WI,715,US
54025,Somerset,WI,715,US
54026,Star Prairie,WI,715,US
54027,Wilson,WI,715,US
54028,Woodville,WI,715,US
54082,Houlton,WI,715,US
54101,Abrams,WI,920,US
54102,Amberg,WI,715,US
54103,Armstrong Creek,WI,715,US
54104,Athelstane,WI,715,US
54106,Black Creek,WI,920,US
54107,Bonduel,WI,"7,15,920",US
54110,Brillion,WI,920,US
54111,Cecil,WI,715,US
54112,Coleman,WI,"9,20,715",US
54113,Combined Locks,WI,920,US
54114,Crivitz,WI,"7,15,920",US
54115,De Pere,WI,920,US
54119,Dunbar,WI,715,US
54120,Fence,WI,715,US
54121,Florence,WI,715,US
54123,Forest Junction,WI,920,US
54124,Gillett,WI,"9,20,715",US
54125,Goodman,WI,715,US
54126,Greenleaf,WI,920,US
54127,Green Valley,WI,715,US
54128,Gresham,WI,715,US
54129,Hilbert,WI,920,US
54130,Kaukauna,WI,920,US
54131,Freedom,WI,,US
54135,Keshena,WI,715,US
54136,Kimberly,WI,920,US
54137,Krakow,WI,920,US
54138,Lakewood,WI,715,US
54139,Lena,WI,920,US
54140,Little Chute,WI,920,US
54141,Little Suamico,WI,920,US
54143,Marinette,WI,715,US
54149,Mountain,WI,715,US
54150,Neopit,WI,715,US
54151,Niagara,WI,715,US
54152,Nichols,WI,920,US
54153,Oconto,WI,920,US
54154,Oconto Falls,WI,"9,20,715",US
54155,Oneida,WI,920,US
54156,Pembine,WI,715,US
54157,Peshtigo,WI,715,US
54159,Porterfield,WI,715,US
54160,Potter,WI,920,US
54161,Pound,WI,"9,20,715",US
54162,Pulaski,WI,"9,20,715",US
54165,Seymour,WI,920,US
54166,Shawano,WI,"9,20,715",US
54169,Sherwood,WI,920,US
54170,Shiocton,WI,"9,20,715",US
54171,Sobieski,WI,920,US
54173,Suamico,WI,920,US
54174,Suring,WI,"9,20,715",US
54175,Townsend,WI,715,US
54177,Wausaukee,WI,715,US
54180,Wrightstown,WI,920,US
54182,Zachow,WI,715,US
54201,Algoma,WI,920,US
54202,Baileys Harbor,WI,920,US
54204,Brussels,WI,920,US
54205,Casco,WI,920,US
54207,Collins,WI,920,US
54208,Denmark,WI,920,US
54209,Egg Harbor,WI,920,US
54210,Ellison Bay,WI,920,US
54211,Ephraim,WI,920,US
54212,Fish Creek,WI,920,US
54213,Forestville,WI,920,US
54214,Francis Creek,WI,920,US
54215,Kellnersville,WI,920,US
54216,Kewaunee,WI,920,US
54217,Luxemburg,WI,920,US
54220,Manitowoc,WI,920,US
54221,Manitowoc,WI,920,US
54226,Maplewood,WI,920,US
54227,Maribel,WI,920,US
54228,Mishicot,WI,920,US
54229,New Franken,WI,920,US
54230,Reedsville,WI,920,US
54232,Saint Nazianz,WI,920,US
54234,Sister Bay,WI,920,US
54235,Sturgeon Bay,WI,920,US
54240,Tisch Mills,WI,920,US
54241,Two Rivers,WI,920,US
54245,Valders,WI,920,US
54246,Washington Island,WI,920,US
54247,Whitelaw,WI,920,US
54301,Green Bay,WI,"9,20,715",US
54302,Green Bay,WI,920,US
54303,Green Bay,WI,"9,20,715",US
54304,Green Bay,WI,920,US
54305,Green Bay,WI,920,US
54306,Green Bay,WI,920,US
54307,Green Bay,WI,920,US
54308,Green Bay,WI,920,US
54311,Green Bay,WI,920,US
54313,Green Bay,WI,920,US
54324,Green Bay,WI,920,US
54344,Green Bay,WI,920,US
54401,Wausau,WI,715,US
54402,Wausau,WI,715,US
54403,Wausau,WI,715,US
54404,Marshfield,WI,715,US
54405,Abbotsford,WI,715,US
54406,Amherst,WI,715,US
54407,Amherst Junction,WI,715,US
54408,Aniwa,WI,715,US
54409,Antigo,WI,715,US
54410,Arpin,WI,715,US
54411,Athens,WI,715,US
54412,Auburndale,WI,715,US
54413,Babcock,WI,715,US
54414,Birnamwood,WI,715,US
54415,Blenker,WI,715,US
54416,Bowler,WI,715,US
54417,Brokaw,WI,715,US
54418,Bryant,WI,715,US
54420,Chili,WI,715,US
54421,Colby,WI,715,US
54422,Curtiss,WI,715,US
54423,Custer,WI,715,US
54424,Deerbrook,WI,715,US
54425,Dorchester,WI,715,US
54426,Edgar,WI,715,US
54427,Eland,WI,715,US
54428,Elcho,WI,715,US
54429,Elderon,WI,715,US
54430,Elton,WI,715,US
54432,Galloway,WI,715,US
54433,Gilman,WI,715,US
54434,Jump River,WI,715,US
54435,Gleason,WI,715,US
54436,Granton,WI,715,US
54437,Greenwood,WI,715,US
54439,Hannibal,WI,715,US
54440,Hatley,WI,715,US
54441,Hewitt,WI,715,US
54442,Irma,WI,715,US
54443,Junction City,WI,715,US
54446,Loyal,WI,715,US
54447,Lublin,WI,715,US
54448,Marathon,WI,715,US
54449,Marshfield,WI,715,US
54450,Mattoon,WI,715,US
54451,Medford,WI,715,US
54452,Merrill,WI,715,US
54454,Milladore,WI,715,US
54455,Mosinee,WI,715,US
54456,Neillsville,WI,715,US
54457,Nekoosa,WI,"7,15,608",US
54458,Nelsonville,WI,715,US
54459,Ogema,WI,715,US
54460,Owen,WI,715,US
54462,Pearson,WI,715,US
54463,Pelican Lake,WI,715,US
54464,Phlox,WI,715,US
54465,Pickerel,WI,715,US
54466,Pittsville,WI,"2,62,715",US
54467,Plover,WI,715,US
54469,Port Edwards,WI,715,US
54470,Rib Lake,WI,715,US
54471,Ringle,WI,715,US
54472,Marshfield,WI,715,US
54473,Rosholt,WI,715,US
54474,Rothschild,WI,715,US
54475,Rudolph,WI,715,US
54476,Schofield,WI,715,US
54479,Spencer,WI,715,US
54480,Stetsonville,WI,715,US
54481,Stevens Point,WI,715,US
54482,Stevens Point,WI,715,US
54484,Stratford,WI,715,US
54485,Summit Lake,WI,715,US
54486,Tigerton,WI,715,US
54487,Tomahawk,WI,715,US
54488,Unity,WI,715,US
54489,Vesper,WI,715,US
54490,Westboro,WI,715,US
54491,White Lake,WI,715,US
54492,Stevens Point,WI,715,US
54493,Willard,WI,715,US
54494,Wisconsin Rapids,WI,715,US
54495,Wisconsin Rapids,WI,715,US
54498,Withee,WI,715,US
54499,Wittenberg,WI,715,US
54501,Rhinelander,WI,715,US
54511,Argonne,WI,715,US
54512,Boulder Junction,WI,715,US
54513,Brantwood,WI,715,US
54514,Butternut,WI,715,US
54515,Catawba,WI,715,US
54517,Clam Lake,WI,715,US
54519,Conover,WI,715,US
54520,Crandon,WI,715,US
54521,Eagle River,WI,"7,15,906",US
54524,Fifield,WI,715,US
54525,Gile,WI,715,US
54526,Glen Flora,WI,715,US
54527,Glidden,WI,715,US
54529,Harshaw,WI,715,US
54530,Hawkins,WI,715,US
54531,Hazelhurst,WI,715,US
54532,Heafford Junction,WI,715,US
54534,Hurley,WI,715,US
54536,Iron Belt,WI,715,US
54537,Kennan,WI,715,US
54538,Lac Du Flambeau,WI,715,US
54539,Lake Tomahawk,WI,715,US
54540,Land O Lakes,WI,"9,06,715",US
54541,Laona,WI,715,US
54542,Long Lake,WI,715,US
54543,Mc Naughton,WI,715,US
54545,Manitowish Waters,WI,715,US
54546,Mellen,WI,715,US
54547,Mercer,WI,715,US
54548,Minocqua,WI,715,US
54550,Montreal,WI,715,US
54552,Park Falls,WI,715,US
54554,Phelps,WI,715,US
54555,Phillips,WI,715,US
54556,Prentice,WI,"7,15,608",US
54557,Presque Isle,WI,715,US
54558,Saint Germain,WI,715,US
54559,Saxon,WI,715,US
54560,Sayner,WI,715,US
54561,Star Lake,WI,715,US
54562,Three Lakes,WI,715,US
54563,Tony,WI,715,US
54564,Tripoli,WI,715,US
54565,Upson,WI,715,US
54566,Wabeno,WI,715,US
54568,Woodruff,WI,715,US
54601,La Crosse,WI,608,US
54602,La Crosse,WI,608,US
54603,La Crosse,WI,608,US
54610,Alma,WI,"6,08,715",US
54611,Alma Center,WI,715,US
54612,Arcadia,WI,608,US
54613,Arkdale,WI,608,US
54614,Bangor,WI,608,US
54615,Black River Falls,WI,"7,15,608",US
54616,Blair,WI,"6,08,715",US
54618,Camp Douglas,WI,608,US
54619,Cashton,WI,608,US
54620,Cataract,WI,608,US
54621,Chaseburg,WI,608,US
54622,Cochrane,WI,608,US
54623,Coon Valley,WI,608,US
54624,De Soto,WI,608,US
54625,Dodge,WI,608,US
54626,Eastman,WI,608,US
54627,Ettrick,WI,608,US
54628,Ferryville,WI,608,US
54629,Fountain City,WI,608,US
54630,Galesville,WI,608,US
54631,Gays Mills,WI,608,US
54632,Genoa,WI,608,US
54634,Hillsboro,WI,608,US
54635,Hixton,WI,715,US
54636,Holmen,WI,608,US
54637,Hustler,WI,608,US
54638,Kendall,WI,608,US
54639,La Farge,WI,608,US
54640,Lynxville,WI,608,US
54641,Mather,WI,608,US
54642,Melrose,WI,"6,08,715",US
54643,Millston,WI,,US
54644,Mindoro,WI,608,US
54645,Mount Sterling,WI,608,US
54646,Necedah,WI,608,US
54648,Norwalk,WI,608,US
54649,Oakdale,WI,608,US
54650,Onalaska,WI,608,US
54651,Ontario,WI,608,US
54652,Readstown,WI,608,US
54653,Rockland,WI,608,US
54654,Seneca,WI,608,US
54655,Soldiers Grove,WI,608,US
54656,Sparta,WI,608,US
54657,Steuben,WI,608,US
54658,Stoddard,WI,608,US
54659,Taylor,WI,"7,15,608",US
54660,Tomah,WI,608,US
54661,Trempealeau,WI,608,US
54662,Tunnel City,WI,608,US
54664,Viola,WI,608,US
54665,Viroqua,WI,608,US
54666,Warrens,WI,608,US
54667,Westby,WI,608,US
54669,West Salem,WI,608,US
54670,Wilton,WI,608,US
54701,Eau Claire,WI,715,US
54702,Eau Claire,WI,715,US
54703,Eau Claire,WI,715,US
54720,Altoona,WI,715,US
54721,Arkansaw,WI,715,US
54722,Augusta,WI,715,US
54723,Bay City,WI,715,US
54724,Bloomer,WI,715,US
54725,Boyceville,WI,715,US
54726,Boyd,WI,715,US
54727,Cadott,WI,715,US
54728,Chetek,WI,715,US
54729,Chippewa Falls,WI,715,US
54730,Colfax,WI,715,US
54731,Conrath,WI,715,US
54732,Cornell,WI,715,US
54733,Dallas,WI,715,US
54734,Downing,WI,715,US
54735,Downsville,WI,715,US
54736,Durand,WI,715,US
54737,Eau Galle,WI,715,US
54738,Eleva,WI,715,US
54739,Elk Mound,WI,715,US
54740,Elmwood,WI,715,US
54741,Fairchild,WI,715,US
54742,Fall Creek,WI,715,US
54743,Gilmanton,WI,715,US
54745,Holcombe,WI,715,US
54746,Humbird,WI,715,US
54747,Independence,WI,"7,15,608",US
54748,Jim Falls,WI,715,US
54749,Knapp,WI,715,US
54750,Maiden Rock,WI,715,US
54751,Menomonie,WI,715,US
54754,Merrillan,WI,715,US
54755,Mondovi,WI,"7,15,608",US
54756,Nelson,WI,"7,15,608",US
54757,New Auburn,WI,715,US
54758,Osseo,WI,715,US
54759,Pepin,WI,715,US
54760,Pigeon Falls,WI,715,US
54761,Plum City,WI,715,US
54762,Prairie Farm,WI,715,US
54763,Ridgeland,WI,715,US
54764,Rock Falls,WI,715,US
54765,Sand Creek,WI,715,US
54766,Sheldon,WI,715,US
54767,Spring Valley,WI,715,US
54768,Stanley,WI,715,US
54769,Stockholm,WI,715,US
54770,Strum,WI,715,US
54771,Thorp,WI,715,US
54772,Wheeler,WI,715,US
54773,Whitehall,WI,715,US
54774,Chippewa Falls,WI,715,US
54801,Spooner,WI,715,US
54805,Almena,WI,715,US
54806,Ashland,WI,715,US
54810,Balsam Lake,WI,715,US
54812,Barron,WI,715,US
54813,Barronett,WI,715,US
54814,Bayfield,WI,715,US
54816,Benoit,WI,715,US
54817,Birchwood,WI,715,US
54818,Brill,WI,715,US
54819,Bruce,WI,715,US
54820,Brule,WI,715,US
54821,Cable,WI,715,US
54822,Cameron,WI,715,US
54824,Centuria,WI,715,US
54826,Comstock,WI,715,US
54827,Cornucopia,WI,715,US
54828,Couderay,WI,715,US
54829,Cumberland,WI,715,US
54830,Danbury,WI,715,US
54832,Drummond,WI,715,US
54834,Edgewater,WI,715,US
54835,Exeland,WI,715,US
54836,Foxboro,WI,715,US
54837,Frederic,WI,715,US
54838,Gordon,WI,715,US
54839,Grand View,WI,715,US
54840,Grantsburg,WI,715,US
54841,Haugen,WI,715,US
54842,Hawthorne,WI,715,US
54843,Hayward,WI,715,US
54844,Herbster,WI,715,US
54845,Hertel,WI,715,US
54846,High Bridge,WI,715,US
54847,Iron River,WI,715,US
54848,Ladysmith,WI,715,US
54849,Lake Nebagamon,WI,715,US
54850,La Pointe,WI,715,US
54853,Luck,WI,715,US
54854,Maple,WI,715,US
54855,Marengo,WI,715,US
54856,Mason,WI,715,US
54857,Mikana,WI,715,US
54858,Milltown,WI,715,US
54859,Minong,WI,715,US
54861,Odanah,WI,715,US
54862,Ojibwa,WI,715,US
54864,Poplar,WI,715,US
54865,Port Wing,WI,715,US
54867,Radisson,WI,715,US
54868,Rice Lake,WI,715,US
54870,Sarona,WI,715,US
54871,Shell Lake,WI,715,US
54872,Siren,WI,715,US
54873,Solon Springs,WI,715,US
54874,South Range,WI,715,US
54875,Springbrook,WI,715,US
54876,Stone Lake,WI,715,US
54880,Superior,WI,715,US
54888,Trego,WI,715,US
54889,Turtle Lake,WI,715,US
54890,Wascott,WI,715,US
54891,Washburn,WI,715,US
54893,Webster,WI,715,US
54895,Weyerhaeuser,WI,715,US
54896,Winter,WI,715,US
54901,Oshkosh,WI,920,US
54902,Oshkosh,WI,920,US
54903,Oshkosh,WI,920,US
54904,Oshkosh,WI,"9,20,414",US
54906,Oshkosh,WI,920,US
54909,Almond,WI,715,US
54911,Appleton,WI,920,US
54912,Appleton,WI,920,US
54913,Appleton,WI,920,US
54914,Appleton,WI,920,US
54915,Appleton,WI,920,US
54919,Appleton,WI,920,US
54921,Bancroft,WI,715,US
54922,Bear Creek,WI,"7,15,920",US
54923,Berlin,WI,920,US
54926,Big Falls,WI,715,US
54927,Butte Des Morts,WI,920,US
54928,Caroline,WI,715,US
54929,Clintonville,WI,715,US
54930,Coloma,WI,715,US
54931,Dale,WI,920,US
54932,Eldorado,WI,920,US
54933,Embarrass,WI,715,US
54934,Eureka,WI,920,US
54935,Fond Du Lac,WI,920,US
54936,Fond Du Lac,WI,920,US
54937,Fond Du Lac,WI,920,US
54940,Fremont,WI,920,US
54941,Green Lake,WI,920,US
54942,Greenville,WI,920,US
54943,Hancock,WI,"7,15,608",US
54944,Hortonville,WI,920,US
54945,Iola,WI,715,US
54946,King,WI,715,US
54947,Larsen,WI,920,US
54948,Leopolis,WI,715,US
54949,Manawa,WI,920,US
54950,Marion,WI,715,US
54952,Menasha,WI,920,US
54956,Neenah,WI,920,US
54957,Neenah,WI,920,US
54960,Neshkoro,WI,920,US
54961,New London,WI,"9,20,715",US
54962,Ogdensburg,WI,"9,20,715",US
54963,Omro,WI,920,US
54964,Pickett,WI,920,US
54965,Pine River,WI,920,US
54966,Plainfield,WI,715,US
54967,Poy Sippi,WI,920,US
54968,Princeton,WI,920,US
54969,Readfield,WI,920,US
54970,Redgranite,WI,920,US
54971,Ripon,WI,920,US
54974,Rosendale,WI,920,US
54976,Saxeville,WI,920,US
54977,Scandinavia,WI,715,US
54978,Tilleda,WI,715,US
54979,Van Dyne,WI,920,US
54980,Waukau,WI,920,US
54981,Waupaca,WI,"7,15,920",US
54982,Wautoma,WI,920,US
54983,Weyauwega,WI,920,US
54984,Wild Rose,WI,"9,20,715",US
54985,Winnebago,WI,920,US
54986,Winneconne,WI,920,US
54990,Iola,WI,715,US
55001,Afton,MN,"6,12,651",US
55002,Almelund,MN,,US
55003,Bayport,MN,651,US
55005,Bethel,MN,"7,63,651",US
55006,Braham,MN,320,US
55007,Brook Park,MN,320,US
55008,Cambridge,MN,"65,17,63,612",US
55009,Cannon Falls,MN,"5,07,651",US
55010,Castle Rock,MN,,US
55011,Cedar,MN,"6,12,763",US
55012,Center City,MN,651,US
55013,Chisago City,MN,651,US
55014,Circle Pines,MN,"65,16,12,763",US
55016,Cottage Grove,MN,"6,51,612",US
55017,Dalbo,MN,763,US
55018,Dennison,MN,507,US
55019,Dundas,MN,507,US
55020,Elko New Market,MN,"9,52,612",US
55021,Faribault,MN,507,US
55024,Farmington,MN,"9,52,65,16,12,507",US
55025,Forest Lake,MN,"6,51,612",US
55026,Frontenac,MN,651,US
55027,Goodhue,MN,"6,51,507",US
55029,Grandy,MN,,US
55030,Grasston,MN,320,US
55031,Hampton,MN,"6,51,507",US
55032,Harris,MN,"65,13,20,763",US
55033,Hastings,MN,"6,51,612",US
55036,Henriette,MN,320,US
55037,Hinckley,MN,320,US
55038,Hugo,MN,651,US
55040,Isanti,MN,"76,36,51,612",US
55041,Lake City,MN,"65,15,07,952",US
55042,Lake Elmo,MN,"6,51,612",US
55043,Lakeland,MN,"6,51,612",US
55044,Lakeville,MN,"9,52,612",US
55045,Lindstrom,MN,651,US
55046,Lonsdale,MN,507,US
55047,Marine On Saint Croix,MN,651,US
55049,Medford,MN,507,US
55051,Mora,MN,"3,20,763",US
55052,Morristown,MN,507,US
55053,Nerstrand,MN,507,US
55054,Elko New Market,MN,952,US
55055,Newport,MN,651,US
55056,North Branch,MN,"65,16,12,763",US
55057,Northfield,MN,"50,79,52,612",US
55060,Owatonna,MN,507,US
55063,Pine City,MN,"6,12,320",US
55065,Randolph,MN,507,US
55066,Red Wing,MN,"65,15,07,612",US
55067,Rock Creek,MN,320,US
55068,Rosemount,MN,"65,16,12,952",US
55069,Rush City,MN,320,US
55070,Saint Francis,MN,"7,63,612",US
55071,Saint Paul Park,MN,"6,51,952",US
55072,Sandstone,MN,320,US
55073,Scandia,MN,651,US
55074,Shafer,MN,651,US
55075,South Saint Paul,MN,"6,51,612",US
55076,Inver Grove Heights,MN,"6,51,612",US
55077,Inver Grove Heights,MN,"6,51,612",US
55078,Stacy,MN,651,US
55079,Stacy,MN,"65,16,12,763",US
55080,Stanchfield,MN,"32,06,12,763",US
55082,Stillwater,MN,"95,26,51,612",US
55083,Stillwater,MN,651,US
55084,Taylors Falls,MN,651,US
55085,Vermillion,MN,651,US
55087,Warsaw,MN,507,US
55088,Webster,MN,"95,26,12,507",US
55089,Welch,MN,651,US
55090,Willernie,MN,651,US
55092,Wyoming,MN,"6,51,763",US
55101,Saint Paul,MN,"65,16,12,763",US
55102,Saint Paul,MN,"6,12,651",US
55103,Saint Paul,MN,"6,12,651",US
55104,Saint Paul,MN,"61,26,51,952",US
55105,Saint Paul,MN,"6,12,651",US
55106,Saint Paul,MN,"6,51,612",US
55107,Saint Paul,MN,"76,36,51,612",US
55108,Saint Paul,MN,"6,51,612",US
55109,Saint Paul,MN,"6,51,612",US
55110,Saint Paul,MN,"95,26,51,612",US
55111,Saint Paul,MN,"6,12,651",US
55112,Saint Paul,MN,"61,26,51,763",US
55113,Saint Paul,MN,"65,16,12,763",US
55114,Saint Paul,MN,"6,12,651",US
55115,Saint Paul,MN,"95,26,51,763",US
55116,Saint Paul,MN,"65,19,52,612",US
55117,Saint Paul,MN,"6,51,612",US
55118,Saint Paul,MN,"95,26,51,612",US
55119,Saint Paul,MN,"65,19,52,612",US
55120,Saint Paul,MN,"65,16,12,952",US
55121,Saint Paul,MN,"65,19,52,612",US
55122,Saint Paul,MN,"65,16,12,952",US
55123,Saint Paul,MN,"65,16,12,952",US
55124,Saint Paul,MN,"6,51,76,39,52,612",US
55125,Saint Paul,MN,"65,16,12,763",US
55126,Saint Paul,MN,"65,16,12,763",US
55127,Saint Paul,MN,"6,51,612",US
55128,Saint Paul,MN,"6,51,612",US
55129,Saint Paul,MN,"6,51,612",US
55130,Saint Paul,MN,651,US
55133,Saint Paul,MN,651,US
55144,Saint Paul,MN,651,US
55145,Saint Paul,MN,651,US
55146,Saint Paul,MN,651,US
55150,Mendota,MN,,US
55155,Saint Paul,MN,651,US
55161,Saint Paul,MN,651,US
55164,Saint Paul,MN,651,US
55165,Saint Paul,MN,651,US
55166,Saint Paul,MN,651,US
55168,Saint Paul,MN,651,US
55169,Saint Paul,MN,651,US
55170,Saint Paul,MN,651,US
55171,Saint Paul,MN,651,US
55172,Saint Paul,MN,651,US
55175,Saint Paul,MN,651,US
55177,Saint Paul,MN,651,US
55187,Saint Paul,MN,651,US
55188,Saint Paul,MN,651,US
55191,Saint Paul,MN,651,US
55301,Albertville,MN,763,US
55302,Annandale,MN,320,US
55303,Anoka,MN,"7,63,612",US
55304,Andover,MN,"7,63,612",US
55305,Hopkins,MN,"95,26,12,763",US
55306,Burnsville,MN,"6,12,952",US
55307,Arlington,MN,507,US
55308,Becker,MN,763,US
55309,Big Lake,MN,"7,63,612",US
55310,Bird Island,MN,320,US
55311,Osseo,MN,"6,12,763",US
55312,Brownton,MN,320,US
55313,Buffalo,MN,"76,36,12,320",US
55314,Buffalo Lake,MN,320,US
55315,Carver,MN,952,US
55316,Champlin,MN,"7,63,612",US
55317,Chanhassen,MN,"9,52,612",US
55318,Chaska,MN,"95,26,12,651",US
55319,Clear Lake,MN,"3,20,763",US
55320,Clearwater,MN,"3,20,763",US
55321,Cokato,MN,320,US
55322,Cologne,MN,"9,52,612",US
55323,Crystal Bay,MN,,US
55324,Darwin,MN,320,US
55325,Dassel,MN,320,US
55327,Dayton,MN,"6,12,763",US
55328,Delano,MN,"76,36,12,952",US
55329,Eden Valley,MN,320,US
55330,Elk River,MN,"7,63,612",US
55331,Excelsior,MN,"9,52,612",US
55332,Fairfax,MN,507,US
55333,Franklin,MN,507,US
55334,Gaylord,MN,507,US
55335,Gibbon,MN,507,US
55336,Glencoe,MN,320,US
55337,Burnsville,MN,"95,26,12,651",US
55338,Green Isle,MN,507,US
55339,Hamburg,MN,"9,52,320",US
55340,Hamel,MN,"7,63,612",US
55341,Hanover,MN,763,US
55342,Hector,MN,"3,20,507",US
55343,Hopkins,MN,"9,52,612",US
55344,Eden Prairie,MN,"95,27,63,612",US
55345,Minnetonka,MN,"6,12,952",US
55346,Eden Prairie,MN,"9,52,612",US
55347,Eden Prairie,MN,"95,26,12,651",US
55348,Maple Plain,MN,952,US
55349,Howard Lake,MN,"3,20,763",US
55350,Hutchinson,MN,320,US
55352,Jordan,MN,"9,52,763",US
55353,Kimball,MN,320,US
55354,Lester Prairie,MN,320,US
55355,Litchfield,MN,320,US
55356,Long Lake,MN,"9,52,763",US
55357,Loretto,MN,"7,63,612",US
55358,Maple Lake,MN,"3,20,763",US
55359,Maple Plain,MN,"76,36,12,952",US
55360,Mayer,MN,"9,52,612",US
55361,Minnetonka Beach,MN,,US
55362,Monticello,MN,"7,63,612",US
55363,Montrose,MN,"76,36,12,952",US
55364,Mound,MN,"95,26,12,763",US
55365,Monticello,MN,763,US
55366,New Auburn,MN,320,US
55367,New Germany,MN,"95,26,12,320",US
55368,Norwood Young America,MN,"9,52,320",US
55369,Osseo,MN,"76,36,12,952",US
55370,Plato,MN,320,US
55371,Princeton,MN,"7,63,61,23,20,651",US
55372,Prior Lake,MN,"9,52,612",US
55373,Rockford,MN,"7,63,612",US
55374,Rogers,MN,"76,36,12,952",US
55375,Saint Bonifacius,MN,"9,52,612",US
55376,Saint Michael,MN,"7,63,612",US
55377,Santiago,MN,763,US
55378,Savage,MN,"95,26,12,651",US
55379,Shakopee,MN,"9,52,612",US
55380,Silver Creek,MN,,US
55381,Silver Lake,MN,320,US
55382,South Haven,MN,320,US
55383,Norwood,MN,952,US
55384,Spring Park,MN,952,US
55385,Stewart,MN,320,US
55386,Victoria,MN,"9,52,612",US
55387,Waconia,MN,"95,26,12,218",US
55388,Watertown,MN,952,US
55389,Watkins,MN,320,US
55390,Waverly,MN,"76,36,12,320",US
55391,Wayzata,MN,"76,39,52,612",US
55392,Navarre,MN,,US
55393,Maple Plain,MN,952,US
55394,Young America,MN,952,US
55395,Winsted,MN,"3,20,952",US
55396,Winthrop,MN,507,US
55397,Young America,MN,952,US
55398,Zimmerman,MN,"7,63,612",US
55399,Young America,MN,952,US
55401,Minneapolis,MN,"6,12,76,39,52,651",US
55402,Minneapolis,MN,"6,12,95,26,51,763",US
55403,Minneapolis,MN,"6,12,651",US
55404,Minneapolis,MN,"6,12,952",US
55405,Minneapolis,MN,"9,52,612",US
55406,Minneapolis,MN,"7,63,61,26,51,952",US
55407,Minneapolis,MN,"61,26,51,952",US
55408,Minneapolis,MN,"95,26,12,651",US
55409,Minneapolis,MN,612,US
55410,Minneapolis,MN,"6,12,952",US
55411,Minneapolis,MN,"6,12,763",US
55412,Minneapolis,MN,"6,12,76,36,51,952",US
55413,Minneapolis,MN,"6,12,65,17,63,952",US
55414,Minneapolis,MN,"6,12,95,26,51,763",US
55415,Minneapolis,MN,"6,12,76,36,51,952",US
55416,Minneapolis,MN,"7,63,95,26,12,651",US
55417,Minneapolis,MN,"6,51,612",US
55418,Minneapolis,MN,"6,12,763",US
55419,Minneapolis,MN,"6,12,952",US
55420,Minneapolis,MN,"9,52,612",US
55421,Minneapolis,MN,"7,63,61,26,51,952",US
55422,Minneapolis,MN,"7,63,612",US
55423,Minneapolis,MN,"6,12,95,22,18,763",US
55424,Minneapolis,MN,"9,52,612",US
55425,Minneapolis,MN,"95,26,51,612",US
55426,Minneapolis,MN,"6,12,76,39,52,651",US
55427,Minneapolis,MN,"6,12,65,17,63,952",US
55428,Minneapolis,MN,"7,63,612",US
55429,Minneapolis,MN,"7,63,612",US
55430,Minneapolis,MN,"6,12,76,39,52,651",US
55431,Minneapolis,MN,"9,52,612",US
55432,Minneapolis,MN,"6,12,763",US
55433,Minneapolis,MN,"7,63,612",US
55434,Minneapolis,MN,"65,17,63,612",US
55435,Minneapolis,MN,"6,12,95,26,51,763",US
55436,Minneapolis,MN,"9,52,612",US
55437,Minneapolis,MN,"95,26,12,651",US
55438,Minneapolis,MN,"9,52,612",US
55439,Minneapolis,MN,"7,63,95,26,12,651",US
55440,Minneapolis,MN,952,US
55441,Minneapolis,MN,"7,63,95,26,12,651",US
55442,Minneapolis,MN,"6,12,76,36,51,952",US
55443,Minneapolis,MN,"6,12,763",US
55444,Minneapolis,MN,"7,63,612",US
55445,Minneapolis,MN,"6,12,763",US
55446,Minneapolis,MN,"76,36,12,952",US
55447,Minneapolis,MN,"7,63,61,29,52,651",US
55448,Minneapolis,MN,"7,63,612",US
55449,Minneapolis,MN,"7,63,612",US
55450,Minneapolis,MN,"61,27,63,952",US
55454,Minneapolis,MN,"6,12,65,17,63,952",US
55455,Minneapolis,MN,"6,12,76,39,52,651",US
55458,Minneapolis,MN,612,US
55459,Minneapolis,MN,763,US
55460,Minneapolis,MN,612,US
55467,Minneapolis,MN,612,US
55468,Minneapolis,MN,612,US
55470,Minneapolis,MN,612,US
55472,Minneapolis,MN,612,US
55473,Minneapolis,MN,612,US
55474,Minneapolis,MN,612,US
55478,Minneapolis,MN,612,US
55479,Minneapolis,MN,612,US
55480,Minneapolis,MN,612,US
55483,Minneapolis,MN,612,US
55484,Minneapolis,MN,612,US
55485,Minneapolis,MN,612,US
55486,Minneapolis,MN,612,US
55487,Minneapolis,MN,612,US
55488,Minneapolis,MN,612,US
55550,Young America,MN,952,US
55551,Young America,MN,952,US
55552,Young America,MN,952,US
55553,Young America,MN,952,US
55554,Norwood,MN,952,US
55555,Young America,MN,952,US
55556,Young America,MN,952,US
55557,Young America,MN,952,US
55558,Young America,MN,952,US
55559,Young America,MN,952,US
55560,Young America,MN,952,US
55561,Monticello,MN,763,US
55562,Young America,MN,952,US
55563,Monticello,MN,763,US
55564,Young America,MN,952,US
55565,Monticello,MN,763,US
55566,Young America,MN,952,US
55567,Young America,MN,952,US
55568,Young America,MN,952,US
55569,Osseo,MN,763,US
55570,Maple Plain,MN,952,US
55571,Maple Plain,MN,952,US
55572,Rockford,MN,763,US
55573,Young America,MN,952,US
55574,Maple Plain,MN,952,US
55575,Howard Lake,MN,320,US
55576,Maple Plain,MN,952,US
55577,Rockford,MN,763,US
55578,Maple Plain,MN,952,US
55579,Maple Plain,MN,952,US
55580,Monticello,MN,763,US
55581,Monticello,MN,763,US
55582,Monticello,MN,763,US
55583,Norwood,MN,952,US
55584,Monticello,MN,763,US
55585,Monticello,MN,763,US
55586,Monticello,MN,763,US
55587,Monticello,MN,763,US
55588,Monticello,MN,763,US
55589,Monticello,MN,763,US
55590,Monticello,MN,763,US
55591,Monticello,MN,763,US
55592,Maple Plain,MN,952,US
55593,Maple Plain,MN,952,US
55594,Young America,MN,952,US
55595,Loretto,MN,763,US
55596,Loretto,MN,763,US
55597,Loretto,MN,763,US
55598,Loretto,MN,763,US
55599,Loretto,MN,763,US
55601,Beaver Bay,MN,218,US
55602,Brimson,MN,218,US
55603,Finland,MN,218,US
55604,Grand Marais,MN,218,US
55605,Grand Portage,MN,218,US
55606,Hovland,MN,218,US
55607,Isabella,MN,218,US
55609,Knife River,MN,218,US
55612,Lutsen,MN,218,US
55613,Schroeder,MN,218,US
55614,Silver Bay,MN,218,US
55615,Tofte,MN,218,US
55616,Two Harbors,MN,218,US
55701,Adolph,MN,218,US
55702,Alborn,MN,218,US
55703,Angora,MN,218,US
55704,Askov,MN,320,US
55705,Aurora,MN,218,US
55706,Babbitt,MN,218,US
55707,Barnum,MN,218,US
55708,Biwabik,MN,218,US
55709,Bovey,MN,218,US
55710,Britt,MN,218,US
55711,Brookston,MN,218,US
55712,Bruno,MN,"3,20,218",US
55713,Buhl,MN,218,US
55716,Calumet,MN,218,US
55717,Canyon,MN,218,US
55718,Carlton,MN,218,US
55719,Chisholm,MN,218,US
55720,Cloquet,MN,218,US
55721,Cohasset,MN,218,US
55722,Coleraine,MN,218,US
55723,Cook,MN,218,US
55724,Cotton,MN,218,US
55725,Crane Lake,MN,218,US
55726,Cromwell,MN,218,US
55730,Grand Rapids,MN,218,US
55731,Ely,MN,218,US
55732,Embarrass,MN,218,US
55733,Esko,MN,218,US
55734,Eveleth,MN,218,US
55735,Finlayson,MN,"3,20,218",US
55736,Floodwood,MN,218,US
55738,Forbes,MN,218,US
55741,Gilbert,MN,218,US
55742,Goodland,MN,218,US
55744,Grand Rapids,MN,218,US
55745,Grand Rapids,MN,218,US
55746,Hibbing,MN,218,US
55747,Hibbing,MN,218,US
55748,Hill City,MN,218,US
55749,Holyoke,MN,218,US
55750,Hoyt Lakes,MN,218,US
55751,Iron,MN,218,US
55752,Jacobson,MN,218,US
55753,Keewatin,MN,218,US
55756,Kerrick,MN,218,US
55757,Kettle River,MN,218,US
55758,Kinney,MN,218,US
55760,Mcgregor,MN,218,US
55763,Makinen,MN,218,US
55764,Marble,MN,218,US
55765,Meadowlands,MN,218,US
55766,Melrude,MN,218,US
55767,Moose Lake,MN,218,US
55768,Mountain Iron,MN,218,US
55769,Nashwauk,MN,218,US
55771,Orr,MN,218,US
55772,Nett Lake,MN,218,US
55775,Pengilly,MN,218,US
55777,Virginia,MN,218,US
55779,Saginaw,MN,218,US
55780,Sawyer,MN,218,US
55781,Side Lake,MN,218,US
55782,Soudan,MN,218,US
55783,Sturgeon Lake,MN,218,US
55784,Swan River,MN,218,US
55785,Swatara,MN,218,US
55786,Taconite,MN,218,US
55787,Tamarack,MN,218,US
55790,Tower,MN,218,US
55791,Twig,MN,218,US
55792,Virginia,MN,218,US
55793,Warba,MN,218,US
55795,Willow River,MN,218,US
55796,Winton,MN,218,US
55797,Wrenshall,MN,218,US
55798,Wright,MN,218,US
55801,Duluth,MN,218,US
55802,Duluth,MN,"2,18,612",US
55803,Duluth,MN,218,US
55804,Duluth,MN,218,US
55805,Duluth,MN,218,US
55806,Duluth,MN,218,US
55807,Duluth,MN,218,US
55808,Duluth,MN,"2,18,715",US
55810,Duluth,MN,218,US
55811,Duluth,MN,218,US
55812,Duluth,MN,218,US
55814,Duluth,MN,218,US
55815,Duluth,MN,218,US
55816,Duluth,MN,218,US
55901,Rochester,MN,507,US
55902,Rochester,MN,507,US
55903,Rochester,MN,507,US
55904,Rochester,MN,507,US
55905,Rochester,MN,507,US
55906,Rochester,MN,507,US
55909,Adams,MN,507,US
55910,Altura,MN,507,US
55912,Austin,MN,507,US
55917,Blooming Prairie,MN,507,US
55918,Brownsdale,MN,507,US
55919,Brownsville,MN,507,US
55920,Byron,MN,507,US
55921,Caledonia,MN,507,US
55922,Canton,MN,507,US
55923,Chatfield,MN,507,US
55924,Claremont,MN,507,US
55925,Dakota,MN,507,US
55926,Dexter,MN,507,US
55927,Dodge Center,MN,507,US
55929,Dover,MN,507,US
55931,Eitzen,MN,507,US
55932,Elgin,MN,507,US
55933,Elkton,MN,507,US
55934,Eyota,MN,507,US
55935,Fountain,MN,507,US
55936,Grand Meadow,MN,507,US
55939,Harmony,MN,"5,07,563",US
55940,Hayfield,MN,507,US
55941,Hokah,MN,507,US
55942,Homer,MN,507,US
55943,Houston,MN,507,US
55944,Kasson,MN,507,US
55945,Kellogg,MN,"5,07,651",US
55946,Kenyon,MN,507,US
55947,La Crescent,MN,507,US
55949,Lanesboro,MN,507,US
55950,Lansing,MN,507,US
55951,Le Roy,MN,"5,07,641",US
55952,Lewiston,MN,507,US
55953,Lyle,MN,507,US
55954,Mabel,MN,507,US
55955,Mantorville,MN,507,US
55956,Mazeppa,MN,"5,07,651",US
55957,Millville,MN,507,US
55959,Minnesota City,MN,507,US
55960,Oronoco,MN,507,US
55961,Ostrander,MN,507,US
55962,Peterson,MN,507,US
55963,Pine Island,MN,507,US
55964,Plainview,MN,507,US
55965,Preston,MN,507,US
55967,Racine,MN,507,US
55968,Reads Landing,MN,651,US
55969,Rollingstone,MN,507,US
55970,Rose Creek,MN,507,US
55971,Rushford,MN,507,US
55972,Saint Charles,MN,507,US
55973,Sargeant,MN,507,US
55974,Spring Grove,MN,"5,07,563",US
55975,Spring Valley,MN,507,US
55976,Stewartville,MN,507,US
55977,Taopi,MN,507,US
55979,Utica,MN,507,US
55981,Wabasha,MN,"6,51,507",US
55982,Waltham,MN,507,US
55983,Wanamingo,MN,507,US
55985,West Concord,MN,507,US
55987,Winona,MN,507,US
55988,Stockton,MN,507,US
55990,Wykoff,MN,507,US
55991,Zumbro Falls,MN,507,US
55992,Zumbrota,MN,"5,07,651",US
56001,Mankato,MN,"5,07,612",US
56002,Mankato,MN,507,US
56003,Mankato,MN,507,US
56006,Mankato,MN,507,US
56007,Albert Lea,MN,507,US
56009,Alden,MN,507,US
56010,Amboy,MN,507,US
56011,Belle Plaine,MN,"9,52,507",US
56013,Blue Earth,MN,507,US
56014,Bricelyn,MN,507,US
56016,Clarks Grove,MN,507,US
56017,Cleveland,MN,507,US
56019,Comfrey,MN,507,US
56020,Conger,MN,507,US
56021,Courtland,MN,507,US
56022,Darfur,MN,507,US
56023,Delavan,MN,507,US
56024,Eagle Lake,MN,507,US
56025,Easton,MN,507,US
56026,Ellendale,MN,507,US
56027,Elmore,MN,"5,07,641",US
56028,Elysian,MN,507,US
56029,Emmons,MN,"5,07,641",US
56030,Essig,MN,507,US
56031,Fairmont,MN,"5,07,612",US
56032,Freeborn,MN,507,US
56033,Frost,MN,507,US
56034,Garden City,MN,507,US
56035,Geneva,MN,507,US
56036,Glenville,MN,507,US
56037,Good Thunder,MN,507,US
56039,Granada,MN,507,US
56041,Hanska,MN,507,US
56042,Hartland,MN,507,US
56043,Hayward,MN,507,US
56044,Henderson,MN,"5,07,952",US
56045,Hollandale,MN,507,US
56046,Hope,MN,507,US
56047,Huntley,MN,507,US
56048,Janesville,MN,507,US
56050,Kasota,MN,507,US
56051,Kiester,MN,507,US
56052,Kilkenny,MN,507,US
56054,Lafayette,MN,507,US
56055,Lake Crystal,MN,507,US
56056,La Salle,MN,507,US
56057,Le Center,MN,507,US
56058,Le Sueur,MN,507,US
56060,Lewisville,MN,507,US
56062,Madelia,MN,507,US
56063,Madison Lake,MN,507,US
56065,Mapleton,MN,507,US
56068,Minnesota Lake,MN,507,US
56069,Montgomery,MN,507,US
56071,New Prague,MN,"95,26,12,507",US
56072,New Richland,MN,507,US
56073,New Ulm,MN,507,US
56074,Nicollet,MN,507,US
56075,Northrop,MN,507,US
56078,Pemberton,MN,507,US
56080,Saint Clair,MN,507,US
56081,Saint James,MN,507,US
56082,Saint Peter,MN,"5,07,651",US
56083,Sanborn,MN,507,US
56084,Searles,MN,507,US
56085,Sleepy Eye,MN,507,US
56087,Springfield,MN,507,US
56088,Truman,MN,507,US
56089,Twin Lakes,MN,507,US
56090,Vernon Center,MN,507,US
56091,Waldorf,MN,507,US
56093,Waseca,MN,507,US
56096,Waterville,MN,507,US
56097,Wells,MN,507,US
56098,Winnebago,MN,507,US
56101,Windom,MN,507,US
56110,Adrian,MN,507,US
56111,Alpha,MN,507,US
56113,Arco,MN,507,US
56114,Avoca,MN,507,US
56115,Balaton,MN,507,US
56116,Beaver Creek,MN,507,US
56117,Bigelow,MN,507,US
56118,Bingham Lake,MN,507,US
56119,Brewster,MN,507,US
56120,Butterfield,MN,507,US
56121,Ceylon,MN,507,US
56122,Chandler,MN,507,US
56123,Currie,MN,507,US
56125,Dovray,MN,507,US
56127,Dunnell,MN,507,US
56128,Edgerton,MN,507,US
56129,Ellsworth,MN,"5,07,712",US
56131,Fulda,MN,507,US
56132,Garvin,MN,507,US
56134,Hardwick,MN,507,US
56136,Hendricks,MN,"5,07,605",US
56137,Heron Lake,MN,507,US
56138,Hills,MN,"5,07,712",US
56139,Holland,MN,507,US
56140,Ihlen,MN,507,US
56141,Iona,MN,507,US
56142,Ivanhoe,MN,507,US
56143,Jackson,MN,507,US
56144,Jasper,MN,"5,07,605",US
56145,Jeffers,MN,507,US
56146,Kanaranzi,MN,507,US
56147,Kenneth,MN,507,US
56149,Lake Benton,MN,507,US
56150,Lakefield,MN,507,US
56151,Lake Wilson,MN,507,US
56152,Lamberton,MN,507,US
56153,Leota,MN,507,US
56155,Lismore,MN,507,US
56156,Luverne,MN,507,US
56157,Lynd,MN,507,US
56158,Magnolia,MN,507,US
56159,Mountain Lake,MN,507,US
56160,Odin,MN,507,US
56161,Okabena,MN,507,US
56162,Ormsby,MN,507,US
56164,Pipestone,MN,"5,07,605",US
56165,Reading,MN,507,US
56166,Revere,MN,507,US
56167,Round Lake,MN,507,US
56168,Rushmore,MN,507,US
56169,Russell,MN,507,US
56170,Ruthton,MN,507,US
56171,Sherburn,MN,507,US
56172,Slayton,MN,507,US
56173,Steen,MN,507,US
56174,Storden,MN,507,US
56175,Tracy,MN,507,US
56176,Trimont,MN,507,US
56177,Trosky,MN,507,US
56178,Tyler,MN,507,US
56180,Walnut Grove,MN,507,US
56181,Welcome,MN,507,US
56183,Westbrook,MN,507,US
56185,Wilmont,MN,507,US
56186,Woodstock,MN,507,US
56187,Worthington,MN,507,US
56201,Willmar,MN,"32,09,52,651",US
56207,Alberta,MN,320,US
56208,Appleton,MN,320,US
56209,Atwater,MN,320,US
56210,Barry,MN,320,US
56211,Beardsley,MN,320,US
56212,Bellingham,MN,320,US
56214,Belview,MN,507,US
56215,Benson,MN,320,US
56216,Blomkest,MN,320,US
56218,Boyd,MN,"3,20,507",US
56219,Browns Valley,MN,"3,20,605",US
56220,Canby,MN,"5,07,320",US
56221,Chokio,MN,320,US
56222,Clara City,MN,320,US
56223,Clarkfield,MN,320,US
56224,Clements,MN,507,US
56225,Clinton,MN,320,US
56226,Clontarf,MN,320,US
56227,Correll,MN,320,US
56228,Cosmos,MN,320,US
56229,Cottonwood,MN,507,US
56230,Danube,MN,320,US
56231,Danvers,MN,320,US
56232,Dawson,MN,320,US
56235,Donnelly,MN,320,US
56236,Dumont,MN,320,US
56237,Echo,MN,507,US
56239,Ghent,MN,507,US
56240,Graceville,MN,320,US
56241,Granite Falls,MN,"3,20,507",US
56243,Grove City,MN,320,US
56244,Hancock,MN,320,US
56245,Hanley Falls,MN,"5,07,320",US
56248,Herman,MN,320,US
56249,Holloway,MN,320,US
56251,Kandiyohi,MN,320,US
56252,Kerkhoven,MN,320,US
56253,Lake Lillian,MN,320,US
56255,Lucan,MN,507,US
56256,Madison,MN,320,US
56257,Marietta,MN,"3,20,507",US
56258,Marshall,MN,507,US
56260,Maynard,MN,320,US
56262,Milan,MN,320,US
56263,Milroy,MN,"5,07,320",US
56264,Minneota,MN,"5,07,320",US
56265,Montevideo,MN,320,US
56266,Morgan,MN,507,US
56267,Morris,MN,320,US
56270,Morton,MN,507,US
56271,Murdock,MN,320,US
56273,New London,MN,320,US
56274,Norcross,MN,320,US
56276,Odessa,MN,320,US
56277,Olivia,MN,"3,20,507",US
56278,Ortonville,MN,320,US
56279,Pennock,MN,320,US
56280,Porter,MN,507,US
56281,Prinsburg,MN,320,US
56282,Raymond,MN,320,US
56283,Redwood Falls,MN,507,US
56284,Renville,MN,320,US
56285,Sacred Heart,MN,320,US
56287,Seaforth,MN,507,US
56288,Spicer,MN,320,US
56289,Sunburg,MN,320,US
56291,Taunton,MN,507,US
56292,Vesta,MN,507,US
56293,Wabasso,MN,507,US
56294,Wanda,MN,507,US
56295,Watson,MN,320,US
56296,Wheaton,MN,"3,20,218",US
56297,Wood Lake,MN,507,US
56301,Saint Cloud,MN,320,US
56302,Saint Cloud,MN,"3,20,612",US
56303,Saint Cloud,MN,"32,06,12,651",US
56304,Saint Cloud,MN,320,US
56307,Albany,MN,320,US
56308,Alexandria,MN,320,US
56309,Ashby,MN,218,US
56310,Avon,MN,320,US
56311,Barrett,MN,"3,20,218",US
56312,Belgrade,MN,320,US
56313,Bock,MN,320,US
56314,Bowlus,MN,320,US
56315,Brandon,MN,"3,20,218",US
56316,Brooten,MN,320,US
56317,Buckman,MN,320,US
56318,Burtrum,MN,320,US
56319,Carlos,MN,320,US
56320,Cold Spring,MN,320,US
56321,Collegeville,MN,320,US
56323,Cyrus,MN,320,US
56324,Dalton,MN,218,US
56325,Elrosa,MN,320,US
56326,Evansville,MN,"2,18,320",US
56327,Farwell,MN,320,US
56328,Flensburg,MN,320,US
56329,Foley,MN,"3,20,763",US
56330,Foreston,MN,320,US
56331,Freeport,MN,320,US
56332,Garfield,MN,"3,20,218",US
56333,Gilman,MN,320,US
56334,Glenwood,MN,320,US
56335,Greenwald,MN,320,US
56336,Grey Eagle,MN,320,US
56338,Hillman,MN,320,US
56339,Hoffman,MN,320,US
56340,Holdingford,MN,320,US
56341,Holmes City,MN,320,US
56342,Isle,MN,320,US
56343,Kensington,MN,320,US
56344,Lastrup,MN,320,US
56345,Little Falls,MN,320,US
56347,Long Prairie,MN,320,US
56349,Lowry,MN,320,US
56350,Mc Grath,MN,"3,20,218",US
56352,Melrose,MN,320,US
56353,Milaca,MN,"3,20,763",US
56354,Miltona,MN,"2,18,320",US
56355,Nelson,MN,320,US
56356,New Munich,MN,320,US
56357,Oak Park,MN,"3,20,763",US
56358,Ogilvie,MN,320,US
56359,Onamia,MN,320,US
56360,Osakis,MN,320,US
56361,Parkers Prairie,MN,"3,20,218",US
56362,Paynesville,MN,320,US
56363,Pease,MN,320,US
56364,Pierz,MN,320,US
56367,Rice,MN,320,US
56368,Richmond,MN,320,US
56369,Rockville,MN,320,US
56371,Roscoe,MN,320,US
56372,Saint Cloud,MN,320,US
56373,Royalton,MN,320,US
56374,Saint Joseph,MN,"3,20,218",US
56375,Saint Stephen,MN,320,US
56376,Saint Martin,MN,320,US
56377,Sartell,MN,320,US
56378,Sauk Centre,MN,320,US
56379,Sauk Rapids,MN,320,US
56381,Starbuck,MN,320,US
56382,Swanville,MN,320,US
56384,Upsala,MN,320,US
56385,Villard,MN,320,US
56386,Wahkon,MN,320,US
56387,Waite Park,MN,320,US
56388,Waite Park,MN,320,US
56389,West Union,MN,,US
56393,Saint Cloud,MN,320,US
56395,Saint Cloud,MN,320,US
56396,Saint Cloud,MN,320,US
56397,Saint Cloud,MN,320,US
56398,Saint Cloud,MN,320,US
56399,Saint Cloud,MN,320,US
56401,Brainerd,MN,"2,18,320",US
56425,Baxter,MN,218,US
56430,Ah Gwah Ching,MN,218,US
56431,Aitkin,MN,"2,18,320",US
56433,Akeley,MN,218,US
56434,Aldrich,MN,218,US
56435,Backus,MN,218,US
56436,Benedict,MN,218,US
56437,Bertha,MN,218,US
56438,Browerville,MN,"3,20,218",US
56440,Clarissa,MN,218,US
56441,Crosby,MN,218,US
56442,Crosslake,MN,218,US
56443,Cushing,MN,"2,18,320",US
56444,Deerwood,MN,218,US
56446,Eagle Bend,MN,218,US
56447,Emily,MN,218,US
56448,Fifty Lakes,MN,218,US
56449,Fort Ripley,MN,"3,20,218",US
56450,Garrison,MN,"3,20,218",US
56452,Hackensack,MN,218,US
56453,Hewitt,MN,218,US
56455,Ironton,MN,218,US
56456,Jenkins,MN,218,US
56458,Lake George,MN,218,US
56459,Lake Hubert,MN,218,US
56461,Laporte,MN,218,US
56464,Menahga,MN,218,US
56465,Merrifield,MN,218,US
56466,Motley,MN,218,US
56467,Nevis,MN,218,US
56468,Nisswa,MN,218,US
56469,Palisade,MN,218,US
56470,Park Rapids,MN,218,US
56472,Pequot Lakes,MN,218,US
56473,Pillager,MN,218,US
56474,Pine River,MN,218,US
56475,Randall,MN,320,US
56477,Sebeka,MN,218,US
56478,Nimrod,MN,218,US
56479,Staples,MN,218,US
56481,Verndale,MN,218,US
56482,Wadena,MN,218,US
56484,Walker,MN,218,US
56501,Detroit Lakes,MN,218,US
56502,Detroit Lakes,MN,218,US
56510,Ada,MN,218,US
56511,Audubon,MN,218,US
56514,Barnesville,MN,218,US
56515,Battle Lake,MN,218,US
56516,Bejou,MN,218,US
56517,Beltrami,MN,218,US
56518,Bluffton,MN,218,US
56519,Borup,MN,218,US
56520,Breckenridge,MN,218,US
56521,Callaway,MN,218,US
56522,Campbell,MN,218,US
56523,Climax,MN,218,US
56524,Clitherall,MN,218,US
56525,Comstock,MN,218,US
56527,Deer Creek,MN,218,US
56528,Dent,MN,218,US
56529,Dilworth,MN,218,US
56531,Elbow Lake,MN,"2,18,320",US
56533,Elizabeth,MN,218,US
56534,Erhard,MN,218,US
56535,Erskine,MN,218,US
56536,Felton,MN,218,US
56537,Fergus Falls,MN,218,US
56538,Fergus Falls,MN,218,US
56540,Fertile,MN,218,US
56541,Flom,MN,218,US
56542,Fosston,MN,218,US
56543,Foxhome,MN,218,US
56544,Frazee,MN,218,US
56545,Gary,MN,218,US
56546,Georgetown,MN,218,US
56547,Glyndon,MN,218,US
56548,Halstad,MN,218,US
56549,Hawley,MN,218,US
56550,Hendrum,MN,218,US
56551,Henning,MN,218,US
56552,Hitterdal,MN,218,US
56553,Kent,MN,218,US
56554,Lake Park,MN,218,US
56556,Mcintosh,MN,218,US
56557,Mahnomen,MN,218,US
56560,Moorhead,MN,"2,18,701",US
56561,Moorhead,MN,218,US
56562,Moorhead,MN,218,US
56563,Moorhead,MN,218,US
56565,Nashua,MN,218,US
56566,Naytahwaush,MN,218,US
56567,New York Mills,MN,218,US
56568,Nielsville,MN,218,US
56569,Ogema,MN,218,US
56570,Osage,MN,218,US
56571,Ottertail,MN,218,US
56572,Pelican Rapids,MN,218,US
56573,Perham,MN,218,US
56574,Perley,MN,218,US
56575,Ponsford,MN,218,US
56576,Richville,MN,218,US
56577,Richwood,MN,218,US
56578,Rochert,MN,218,US
56579,Rothsay,MN,218,US
56580,Sabin,MN,218,US
56581,Shelly,MN,218,US
56583,Tintah,MN,218,US
56584,Twin Valley,MN,218,US
56585,Ulen,MN,218,US
56586,Underwood,MN,218,US
56587,Vergas,MN,218,US
56588,Vining,MN,218,US
56589,Waubun,MN,218,US
56590,Wendell,MN,"2,18,320",US
56591,White Earth,MN,218,US
56592,Winger,MN,218,US
56593,Wolf Lake,MN,218,US
56594,Wolverton,MN,218,US
56601,Bemidji,MN,218,US
56619,Bemidji,MN,218,US
56621,Bagley,MN,218,US
56623,Baudette,MN,218,US
56626,Bena,MN,218,US
56627,Big Falls,MN,218,US
56628,Bigfork,MN,218,US
56629,Birchdale,MN,218,US
56630,Blackduck,MN,218,US
56631,Bowstring,MN,218,US
56633,Cass Lake,MN,218,US
56634,Clearbrook,MN,218,US
56636,Deer River,MN,218,US
56637,Talmoon,MN,218,US
56639,Effie,MN,218,US
56641,Federal Dam,MN,218,US
56644,Gonvick,MN,218,US
56646,Gully,MN,218,US
56647,Hines,MN,218,US
56649,International Falls,MN,218,US
56650,Kelliher,MN,218,US
56651,Lengby,MN,218,US
56652,Leonard,MN,218,US
56653,Littlefork,MN,218,US
56654,Loman,MN,218,US
56655,Longville,MN,218,US
56657,Marcell,MN,218,US
56658,Margie,MN,218,US
56659,Max,MN,218,US
56660,Mizpah,MN,218,US
56661,Northome,MN,218,US
56662,Outing,MN,218,US
56663,Pennington,MN,218,US
56666,Ponemah,MN,218,US
56667,Puposky,MN,218,US
56668,Ranier,MN,218,US
56669,Kabetogama,MN,218,US
56670,Redby,MN,218,US
56671,Redlake,MN,218,US
56672,Remer,MN,218,US
56673,Roosevelt,MN,218,US
56676,Shevlin,MN,218,US
56678,Solway,MN,218,US
56679,South International Falls,MN,218,US
56680,Spring Lake,MN,218,US
56681,Squaw Lake,MN,218,US
56682,Swift,MN,218,US
56683,Tenstrike,MN,218,US
56684,Trail,MN,218,US
56685,Waskish,MN,218,US
56686,Williams,MN,218,US
56687,Wilton,MN,218,US
