zip,primary_city,state,area_codes,country
68455,Union,NE,402,US
68456,Utica,NE,402,US
68457,Verdon,NE,402,US
68458,Virginia,NE,402,US
68460,Waco,NE,402,US
68461,Walton,NE,402,US
68462,Waverly,NE,402,US
68463,Weeping Water,NE,402,US
68464,Western,NE,402,US
68465,Wilber,NE,402,US
68466,Wymore,NE,402,US
68467,York,NE,402,US
68501,Lincoln,NE,402,US
68502,Lincoln,NE,402,US
68503,Lincoln,NE,402,US
68504,Lincoln,NE,402,US
68505,Lincoln,NE,402,US
68506,Lincoln,NE,402,US
68507,Lincoln,NE,402,US
68508,Lincoln,NE,402,US
68509,Lincoln,NE,402,US
68510,Lincoln,NE,402,US
68512,Lincoln,NE,402,US
68514,Lincoln,NE,402,US
68516,Lincoln,NE,402,US
68517,Lincoln,NE,402,US
68520,Lincoln,NE,402,US
68521,Lincoln,NE,402,US
68522,Lincoln,NE,402,US
68523,Lincoln,NE,402,US
68524,Lincoln,NE,402,US
68526,Lincoln,NE,402,US
68527,Lincoln,NE,402,US
68528,Lincoln,NE,402,US
68529,Lincoln,NE,402,US
68531,Lincoln,NE,402,US
68532,Lincoln,NE,402,US
68542,Lincoln,NE,402,US
68583,Lincoln,NE,402,US
68588,Lincoln,NE,402,US
68601,Columbus,NE,"4,02,308",US
68602,Columbus,NE,402,US
68620,Albion,NE,"4,02,308",US
68621,Ames,NE,402,US
68622,Bartlett,NE,"3,08,402",US
68623,Belgrade,NE,308,US
68624,Bellwood,NE,402,US
68626,Brainard,NE,402,US
68627,Cedar Rapids,NE,"3,08,402",US
68628,Clarks,NE,"3,08,402",US
68629,Clarkson,NE,402,US
68631,Creston,NE,402,US
68632,David City,NE,402,US
68633,Dodge,NE,402,US
68634,Duncan,NE,402,US
68635,Dwight,NE,402,US
68636,Elgin,NE,402,US
68637,Ericson,NE,308,US
68638,Fullerton,NE,308,US
68640,Genoa,NE,"4,02,308",US
68641,Howells,NE,402,US
68642,Humphrey,NE,402,US
68643,Leigh,NE,402,US
68644,Lindsay,NE,402,US
68647,Monroe,NE,402,US
68648,Morse Bluff,NE,402,US
68649,North Bend,NE,402,US
68651,Osceola,NE,402,US
68652,Petersburg,NE,402,US
68653,Platte Center,NE,402,US
68654,Polk,NE,402,US
68655,Primrose,NE,308,US
68658,Rising City,NE,402,US
68659,Rogers,NE,402,US
68660,Saint Edward,NE,402,US
68661,Schuyler,NE,402,US
68662,Shelby,NE,402,US
68663,Silver Creek,NE,"3,08,402",US
68664,Snyder,NE,402,US
68665,Spalding,NE,308,US
68666,Stromsburg,NE,402,US
68667,Surprise,NE,402,US
68669,Ulysses,NE,402,US
68701,Norfolk,NE,402,US
68702,Norfolk,NE,402,US
68710,Allen,NE,402,US
68711,Amelia,NE,"3,08,402",US
68713,Atkinson,NE,402,US
68714,Bassett,NE,402,US
68715,Battle Creek,NE,402,US
68716,Beemer,NE,402,US
68717,Belden,NE,402,US
68718,Bloomfield,NE,402,US
68719,Bristow,NE,402,US
68720,Brunswick,NE,402,US
68722,Butte,NE,402,US
68723,Carroll,NE,402,US
68724,Center,NE,402,US
68725,Chambers,NE,402,US
68726,Clearwater,NE,402,US
68727,Coleridge,NE,402,US
68728,Concord,NE,402,US
68729,Creighton,NE,402,US
68730,Crofton,NE,402,US
68731,Dakota City,NE,402,US
68732,Dixon,NE,402,US
68733,Emerson,NE,402,US
68734,Emmet,NE,402,US
68735,Ewing,NE,402,US
68736,Fordyce,NE,402,US
68738,Hadar,NE,402,US
68739,Hartington,NE,402,US
68740,Hoskins,NE,402,US
68741,Hubbard,NE,402,US
68742,Inman,NE,402,US
68743,Jackson,NE,402,US
68745,Laurel,NE,402,US
68746,Lynch,NE,402,US
68747,Mclean,NE,402,US
68748,Madison,NE,402,US
68749,Magnet,NE,402,US
68751,Maskell,NE,402,US
68752,Meadow Grove,NE,402,US
68753,Mills,NE,402,US
68755,Naper,NE,402,US
68756,Neligh,NE,402,US
68757,Newcastle,NE,402,US
68758,Newman Grove,NE,402,US
68759,Newport,NE,402,US
68760,Niobrara,NE,402,US
68761,Oakdale,NE,402,US
68763,Oneill,NE,402,US
68764,Orchard,NE,402,US
68765,Osmond,NE,402,US
68766,Page,NE,402,US
68767,Pierce,NE,402,US
68768,Pilger,NE,402,US
68769,Plainview,NE,402,US
68770,Ponca,NE,402,US
68771,Randolph,NE,402,US
68773,Royal,NE,402,US
68774,Saint Helena,NE,402,US
68776,South Sioux City,NE,402,US
68777,Spencer,NE,402,US
68778,Springview,NE,402,US
68779,Stanton,NE,402,US
68780,Stuart,NE,402,US
68781,Tilden,NE,402,US
68783,Verdigre,NE,402,US
68784,Wakefield,NE,402,US
68785,Waterbury,NE,402,US
68786,Wausa,NE,402,US
68787,Wayne,NE,402,US
68788,West Point,NE,402,US
68789,Winnetoon,NE,402,US
68790,Winside,NE,402,US
68791,Wisner,NE,402,US
68792,Wynot,NE,402,US
68801,Grand Island,NE,308,US
68802,Grand Island,NE,308,US
68803,Grand Island,NE,308,US
68810,Alda,NE,308,US
68812,Amherst,NE,308,US
68813,Anselmo,NE,308,US
68814,Ansley,NE,308,US
68815,Arcadia,NE,308,US
68816,Archer,NE,308,US
68817,Ashton,NE,308,US
68818,Aurora,NE,402,US
68820,Boelus,NE,308,US
68821,Brewster,NE,308,US
68822,Broken Bow,NE,308,US
68823,Burwell,NE,308,US
68824,Cairo,NE,308,US
68825,Callaway,NE,308,US
68826,Central City,NE,308,US
68827,Chapman,NE,308,US
68828,Comstock,NE,308,US
68831,Dannebrog,NE,308,US
68832,Doniphan,NE,"4,02,308",US
68833,Dunning,NE,308,US
68834,Eddyville,NE,308,US
68835,Elba,NE,308,US
68836,Elm Creek,NE,308,US
68837,Elyria,NE,308,US
68838,Farwell,NE,308,US
68840,Gibbon,NE,308,US
68841,Giltner,NE,402,US
68842,Greeley,NE,308,US
68843,Hampton,NE,402,US
68844,Hazard,NE,308,US
68845,Kearney,NE,308,US
68846,Hordville,NE,"4,02,308",US
68847,Kearney,NE,308,US
68848,Kearney,NE,308,US
68849,Kearney,NE,308,US
68850,Lexington,NE,308,US
68852,Litchfield,NE,308,US
68853,Loup City,NE,308,US
68854,Marquette,NE,"4,02,308",US
68855,Mason City,NE,308,US
68856,Merna,NE,308,US
68858,Miller,NE,308,US
68859,North Loup,NE,308,US
68860,Oconto,NE,308,US
68861,Odessa,NE,,US
68862,Ord,NE,308,US
68863,Overton,NE,308,US
68864,Palmer,NE,308,US
68865,Phillips,NE,402,US
68866,Pleasanton,NE,308,US
68869,Ravenna,NE,308,US
68870,Riverdale,NE,308,US
68871,Rockville,NE,308,US
68872,Saint Libory,NE,308,US
68873,Saint Paul,NE,308,US
68874,Sargent,NE,308,US
68875,Scotia,NE,308,US
68876,Shelton,NE,308,US
68878,Sumner,NE,308,US
68879,Taylor,NE,308,US
68881,Westerville,NE,308,US
68882,Wolbach,NE,308,US
68883,Wood River,NE,"3,08,402",US
68901,Hastings,NE,402,US
68902,Hastings,NE,402,US
68920,Alma,NE,308,US
68922,Arapahoe,NE,308,US
68923,Atlanta,NE,308,US
68924,Axtell,NE,"3,08,402",US
68925,Ayr,NE,402,US
68926,Beaver City,NE,308,US
68927,Bertrand,NE,308,US
68928,Bladen,NE,"3,08,402",US
68929,Bloomington,NE,308,US
68930,Blue Hill,NE,402,US
68932,Campbell,NE,402,US
68933,Clay Center,NE,402,US
68934,Deweese,NE,402,US
68935,Edgar,NE,402,US
68936,Edison,NE,308,US
68937,Elwood,NE,308,US
68938,Fairfield,NE,402,US
68939,Franklin,NE,308,US
68940,Funk,NE,308,US
68941,Glenvil,NE,402,US
68942,Guide Rock,NE,402,US
68943,Hardy,NE,402,US
68944,Harvard,NE,402,US
68945,Heartwell,NE,308,US
68946,Hendley,NE,308,US
68947,Hildreth,NE,308,US
68948,Holbrook,NE,308,US
68949,Holdrege,NE,308,US
68950,Holstein,NE,402,US
68952,Inavale,NE,402,US
68954,Inland,NE,402,US
68955,Juniata,NE,402,US
68956,Kenesaw,NE,"4,02,308",US
68957,Lawrence,NE,402,US
68958,Loomis,NE,308,US
68959,Minden,NE,"3,08,402",US
68960,Naponee,NE,308,US
68961,Nelson,NE,402,US
68964,Oak,NE,402,US
68966,Orleans,NE,308,US
68967,Oxford,NE,308,US
68969,Ragan,NE,308,US
68970,Red Cloud,NE,"4,02,785",US
68971,Republican City,NE,308,US
68972,Riverton,NE,402,US
68973,Roseland,NE,402,US
68974,Ruskin,NE,402,US
68975,Saronville,NE,402,US
68976,Smithfield,NE,308,US
68977,Stamford,NE,308,US
68978,Superior,NE,"4,02,785",US
68979,Sutton,NE,402,US
68980,Trumbull,NE,402,US
68981,Upland,NE,"3,08,402",US
68982,Wilcox,NE,308,US
69001,Mc Cook,NE,308,US
69020,Bartley,NE,308,US
69021,Benkelman,NE,308,US
69022,Cambridge,NE,308,US
69023,Champion,NE,308,US
69024,Culbertson,NE,308,US
69025,Curtis,NE,308,US
69026,Danbury,NE,"3,08,785",US
69027,Enders,NE,308,US
69028,Eustis,NE,308,US
69029,Farnam,NE,308,US
69030,Haigler,NE,308,US
69032,Hayes Center,NE,308,US
69033,Imperial,NE,308,US
69034,Indianola,NE,308,US
69036,Lebanon,NE,308,US
69037,Max,NE,308,US
69038,Maywood,NE,308,US
69039,Moorefield,NE,308,US
69040,Palisade,NE,308,US
69041,Parks,NE,308,US
69042,Stockville,NE,308,US
69043,Stratton,NE,308,US
69044,Trenton,NE,308,US
69045,Wauneta,NE,308,US
69046,Wilsonville,NE,308,US
69101,North Platte,NE,308,US
69103,North Platte,NE,308,US
69120,Arnold,NE,308,US
69121,Arthur,NE,308,US
69122,Big Springs,NE,308,US
69123,Brady,NE,308,US
69125,Broadwater,NE,308,US
69127,Brule,NE,308,US
69128,Bushnell,NE,308,US
69129,Chappell,NE,308,US
69130,Cozad,NE,308,US
69131,Dalton,NE,308,US
69132,Dickens,NE,308,US
69133,Dix,NE,308,US
69134,Elsie,NE,308,US
69135,Elsmere,NE,308,US
69138,Gothenburg,NE,308,US
69140,Grant,NE,308,US
69141,Gurley,NE,308,US
69142,Halsey,NE,308,US
69143,Hershey,NE,308,US
69144,Keystone,NE,308,US
69145,Kimball,NE,308,US
69146,Lemoyne,NE,308,US
69147,Lewellen,NE,308,US
69148,Lisco,NE,308,US
69149,Lodgepole,NE,308,US
69150,Madrid,NE,308,US
69151,Maxwell,NE,308,US
69152,Mullen,NE,308,US
69153,Ogallala,NE,308,US
69154,Oshkosh,NE,308,US
69155,Paxton,NE,308,US
69156,Potter,NE,308,US
69157,Purdum,NE,308,US
69160,Sidney,NE,308,US
69161,Seneca,NE,308,US
69162,Sidney,NE,308,US
69163,Stapleton,NE,308,US
69165,Sutherland,NE,308,US
69166,Thedford,NE,308,US
69167,Tryon,NE,308,US
69168,Venango,NE,308,US
69169,Wallace,NE,308,US
69170,Wellfleet,NE,308,US
69171,Willow Island,NE,308,US
69190,Oshkosh,NE,308,US
69201,Valentine,NE,"40,26,05,308",US
69210,Ainsworth,NE,402,US
69211,Cody,NE,"60,54,02,308",US
69212,Crookston,NE,"4,02,605",US
69214,Johnstown,NE,402,US
69216,Kilgore,NE,"4,02,605",US
69217,Long Pine,NE,402,US
69218,Merriman,NE,308,US
69219,Nenzel,NE,402,US
69220,Sparks,NE,402,US
69221,Wood Lake,NE,402,US
69301,Alliance,NE,308,US
69331,Angora,NE,308,US
69333,Ashby,NE,308,US
69334,Bayard,NE,308,US
69335,Bingham,NE,308,US
69336,Bridgeport,NE,308,US
69337,Chadron,NE,308,US
69339,Crawford,NE,308,US
69340,Ellsworth,NE,308,US
69341,Gering,NE,308,US
69343,Gordon,NE,308,US
69345,Harrisburg,NE,308,US
69346,Harrison,NE,308,US
69347,Hay Springs,NE,308,US
69348,Hemingford,NE,308,US
69350,Hyannis,NE,308,US
69351,Lakeside,NE,308,US
69352,Lyman,NE,308,US
69353,Mcgrew,NE,308,US
69354,Marsland,NE,308,US
69355,Melbeta,NE,308,US
69356,Minatare,NE,308,US
69357,Mitchell,NE,308,US
69358,Morrill,NE,308,US
69360,Rushville,NE,308,US
69361,Scottsbluff,NE,308,US
69363,Scottsbluff,NE,308,US
69365,Whiteclay,NE,308,US
69366,Whitman,NE,308,US
69367,Whitney,NE,308,US
70001,Metairie,LA,504,US
70002,Metairie,LA,504,US
70003,Metairie,LA,504,US
70004,Metairie,LA,504,US
70005,Metairie,LA,504,US
70006,Metairie,LA,504,US
70009,Metairie,LA,504,US
70010,Metairie,LA,504,US
70011,Metairie,LA,504,US
70030,Des Allemands,LA,985,US
70031,Ama,LA,504,US
70032,Arabi,LA,504,US
70033,Metairie,LA,504,US
70036,Barataria,LA,504,US
70037,Belle Chasse,LA,504,US
70038,Boothville,LA,985,US
70039,Boutte,LA,985,US
70040,Braithwaite,LA,"9,85,504",US
70041,Buras,LA,"9,85,504",US
70043,Chalmette,LA,504,US
70044,Chalmette,LA,504,US
70047,Destrehan,LA,"9,85,225",US
70049,Edgard,LA,"9,85,225",US
70050,Empire,LA,,US
70051,Garyville,LA,985,US
70052,Gramercy,LA,225,US
70053,Gretna,LA,"5,04,985",US
70054,Gretna,LA,504,US
70055,Metairie,LA,504,US
70056,Gretna,LA,504,US
70057,Hahnville,LA,985,US
70058,Harvey,LA,504,US
70059,Harvey,LA,504,US
70060,Metairie,LA,504,US
70062,Kenner,LA,504,US
70063,Kenner,LA,504,US
70064,Kenner,LA,504,US
70065,Kenner,LA,504,US
70067,Lafitte,LA,"5,04,337",US
70068,La Place,LA,"5,04,985",US
70069,La Place,LA,985,US
70070,Luling,LA,985,US
70071,Lutcher,LA,225,US
70072,Marrero,LA,504,US
70073,Marrero,LA,504,US
70075,Meraux,LA,504,US
70076,Mount Airy,LA,985,US
70078,New Sarpy,LA,985,US
70079,Norco,LA,985,US
70080,Paradis,LA,985,US
70081,Pilottown,LA,,US
70082,Pointe A La Hache,LA,985,US
70083,Port Sulphur,LA,"9,85,504",US
70084,Reserve,LA,985,US
70085,Saint Bernard,LA,504,US
70086,Saint James,LA,225,US
70087,Saint Rose,LA,504,US
70090,Vacherie,LA,"2,25,985",US
70091,Venice,LA,"9,85,504",US
70092,Violet,LA,504,US
70093,Belle Chasse,LA,504,US
70094,Westwego,LA,504,US
70096,Westwego,LA,504,US
70097,Kenner,LA,504,US
70112,New Orleans,LA,504,US
70113,New Orleans,LA,504,US
70114,New Orleans,LA,"9,85,504",US
70115,New Orleans,LA,504,US
70116,New Orleans,LA,504,US
70117,New Orleans,LA,504,US
70118,New Orleans,LA,"5,04,985",US
70119,New Orleans,LA,504,US
70121,New Orleans,LA,"5,04,985",US
70122,New Orleans,LA,504,US
70123,New Orleans,LA,504,US
70124,New Orleans,LA,"5,04,985",US
70125,New Orleans,LA,504,US
70126,New Orleans,LA,504,US
70127,New Orleans,LA,504,US
70128,New Orleans,LA,504,US
70129,New Orleans,LA,504,US
70130,New Orleans,LA,"5,04,225",US
70131,New Orleans,LA,504,US
70139,New Orleans,LA,504,US
70140,New Orleans,LA,504,US
70141,New Orleans,LA,504,US
70142,New Orleans,LA,504,US
70143,New Orleans,LA,504,US
70145,New Orleans,LA,504,US
70146,New Orleans,LA,504,US
70148,New Orleans,LA,504,US
70149,New Orleans,LA,504,US
70150,New Orleans,LA,504,US
70151,New Orleans,LA,504,US
70152,New Orleans,LA,504,US
70153,New Orleans,LA,504,US
70154,New Orleans,LA,504,US
70156,New Orleans,LA,504,US
70157,New Orleans,LA,504,US
70158,New Orleans,LA,504,US
70159,New Orleans,LA,504,US
70160,New Orleans,LA,504,US
70161,New Orleans,LA,504,US
70162,New Orleans,LA,504,US
70163,New Orleans,LA,504,US
70164,New Orleans,LA,504,US
70165,New Orleans,LA,504,US
70166,New Orleans,LA,504,US
70167,New Orleans,LA,504,US
70170,New Orleans,LA,504,US
70172,New Orleans,LA,504,US
70174,New Orleans,LA,504,US
70175,New Orleans,LA,504,US
70176,New Orleans,LA,504,US
70177,New Orleans,LA,504,US
70178,New Orleans,LA,504,US
70179,New Orleans,LA,504,US
70181,New Orleans,LA,504,US
70182,New Orleans,LA,504,US
70183,New Orleans,LA,504,US
70184,New Orleans,LA,504,US
70185,New Orleans,LA,504,US
70186,New Orleans,LA,504,US
70187,New Orleans,LA,504,US
70189,New Orleans,LA,504,US
70190,New Orleans,LA,504,US
70195,New Orleans,LA,504,US
70301,Thibodaux,LA,985,US
70302,Thibodaux,LA,985,US
70310,Thibodaux,LA,985,US
70339,Pierre Part,LA,985,US
70340,Amelia,LA,985,US
70341,Belle Rose,LA,"2,25,985",US
70342,Berwick,LA,985,US
70343,Bourg,LA,985,US
70344,Chauvin,LA,985,US
70345,Cut Off,LA,"9,85,504",US
70346,Donaldsonville,LA,"2,25,985",US
70352,Donner,LA,985,US
70353,Dulac,LA,985,US
70354,Galliano,LA,985,US
70355,Gheens,LA,985,US
70356,Gibson,LA,985,US
70357,Golden Meadow,LA,985,US
70358,Grand Isle,LA,985,US
70359,Gray,LA,985,US
70360,Houma,LA,"9,85,504",US
70361,Houma,LA,985,US
70363,Houma,LA,985,US
70364,Houma,LA,985,US
70371,Kraemer,LA,985,US
70372,Labadieville,LA,985,US
70373,Larose,LA,985,US
70374,Lockport,LA,985,US
70375,Mathews,LA,985,US
70377,Montegut,LA,"5,04,985",US
70380,Morgan City,LA,"9,85,337",US
70381,Morgan City,LA,985,US
70390,Napoleonville,LA,985,US
70391,Paincourtville,LA,985,US
70392,Patterson,LA,"9,85,337",US
70393,Plattenville,LA,985,US
70394,Raceland,LA,985,US
70395,Schriever,LA,985,US
70397,Theriot,LA,985,US
70401,Hammond,LA,"9,85,225",US
70402,Hammond,LA,985,US
70403,Hammond,LA,"9,85,225",US
70404,Hammond,LA,985,US
70420,Abita Springs,LA,985,US
70421,Akers,LA,,US
70422,Amite,LA,"9,85,225",US
70426,Angie,LA,985,US
70427,Bogalusa,LA,985,US
70429,Bogalusa,LA,985,US
70431,Bush,LA,"9,85,504",US
70433,Covington,LA,"9,85,504",US
70434,Covington,LA,504,US
70435,Covington,LA,985,US
70436,Fluker,LA,985,US
70437,Folsom,LA,"9,85,504",US
70438,Franklinton,LA,985,US
70441,Greensburg,LA,225,US
70442,Husser,LA,985,US
70443,Independence,LA,"9,85,225",US
70444,Kentwood,LA,985,US
70445,Lacombe,LA,985,US
70446,Loranger,LA,985,US
70447,Madisonville,LA,985,US
70448,Mandeville,LA,985,US
70449,Maurepas,LA,225,US
70450,Mount Hermon,LA,985,US
70451,Natalbany,LA,,US
70452,Pearl River,LA,985,US
70453,Pine Grove,LA,225,US
70454,Ponchatoula,LA,"9,85,225",US
70455,Robert,LA,985,US
70456,Roseland,LA,"9,85,225",US
70457,Saint Benedict,LA,985,US
70458,Slidell,LA,"9,85,504",US
70459,Slidell,LA,985,US
70460,Slidell,LA,"9,85,504",US
70461,Slidell,LA,985,US
70462,Springfield,LA,225,US
70463,Sun,LA,985,US
70464,Talisheek,LA,985,US
70465,Tangipahoa,LA,985,US
70466,Tickfaw,LA,"2,25,985",US
70467,Varnado,LA,985,US
70469,Slidell,LA,985,US
70470,Mandeville,LA,504,US
70471,Mandeville,LA,985,US
70500,Lafayette,LA,337,US
70501,Lafayette,LA,337,US
70502,Lafayette,LA,337,US
70503,Lafayette,LA,337,US
70504,Lafayette,LA,337,US
70505,Lafayette,LA,337,US
70506,Lafayette,LA,337,US
70507,Lafayette,LA,337,US
70508,Lafayette,LA,"3,37,318",US
70509,Lafayette,LA,337,US
70510,Abbeville,LA,337,US
70511,Abbeville,LA,337,US
70512,Arnaudville,LA,337,US
70513,Avery Island,LA,337,US
70514,Baldwin,LA,337,US
70515,Basile,LA,337,US
70516,Branch,LA,337,US
70517,Breaux Bridge,LA,"3,18,337",US
70518,Broussard,LA,337,US
70519,Cade,LA,337,US
70520,Carencro,LA,337,US
70521,Cecilia,LA,337,US
70522,Centerville,LA,337,US
70523,Charenton,LA,337,US
70524,Chataignier,LA,337,US
70525,Church Point,LA,337,US
70526,Crowley,LA,337,US
70527,Crowley,LA,337,US
70528,Delcambre,LA,337,US
70529,Duson,LA,337,US
70531,Egan,LA,337,US
70532,Elton,LA,337,US
70533,Erath,LA,337,US
70534,Estherwood,LA,337,US
70535,Eunice,LA,337,US
70537,Evangeline,LA,337,US
70538,Franklin,LA,"3,37,985",US
70540,Garden City,LA,,US
70541,Grand Coteau,LA,337,US
70542,Gueydan,LA,337,US
70543,Iota,LA,337,US
70544,Jeanerette,LA,337,US
70546,Jennings,LA,"3,18,337",US
70548,Kaplan,LA,337,US
70549,Lake Arthur,LA,337,US
70550,Lawtell,LA,337,US
70551,Leonville,LA,337,US
70552,Loreauville,LA,337,US
70554,Mamou,LA,337,US
70555,Maurice,LA,337,US
70556,Mermentau,LA,337,US
70558,Milton,LA,337,US
70559,Morse,LA,337,US
70560,New Iberia,LA,337,US
70562,New Iberia,LA,337,US
70563,New Iberia,LA,337,US
70569,Lydia,LA,337,US
70570,Opelousas,LA,337,US
70571,Opelousas,LA,337,US
70575,Perry,LA,337,US
70576,Pine Prairie,LA,337,US
70577,Port Barre,LA,337,US
70578,Rayne,LA,337,US
70580,Reddell,LA,337,US
70581,Roanoke,LA,337,US
70582,Saint Martinville,LA,337,US
70583,Scott,LA,337,US
70584,Sunset,LA,337,US
70585,Turkey Creek,LA,337,US
70586,Ville Platte,LA,337,US
70589,Washington,LA,337,US
70591,Welsh,LA,337,US
70592,Youngsville,LA,337,US
70593,Lafayette,LA,337,US
70595,Lafayette,LA,337,US
70596,Lafayette,LA,337,US
70598,Lafayette,LA,337,US
70601,Lake Charles,LA,337,US
70602,Lake Charles,LA,337,US
70605,Lake Charles,LA,337,US
70606,Lake Charles,LA,337,US
70607,Lake Charles,LA,337,US
70609,Lake Charles,LA,337,US
70611,Lake Charles,LA,337,US
70612,Lake Charles,LA,337,US
70615,Lake Charles,LA,337,US
70616,Lake Charles,LA,337,US
70629,Lake Charles,LA,337,US
70630,Bell City,LA,337,US
70631,Cameron,LA,337,US
70632,Creole,LA,337,US
70633,Dequincy,LA,337,US
70634,Deridder,LA,337,US
70637,Dry Creek,LA,337,US
70638,Elizabeth,LA,"3,18,337",US
70639,Evans,LA,337,US
70640,Fenton,LA,337,US
70643,Grand Chenier,LA,337,US
70644,Grant,LA,,US
70645,Hackberry,LA,337,US
70646,Hayes,LA,337,US
70647,Iowa,LA,337,US
70648,Kinder,LA,337,US
70650,Lacassine,LA,337,US
70651,Leblanc,LA,,US
70652,Longville,LA,337,US
70653,Merryville,LA,337,US
70654,Mittie,LA,337,US
70655,Oberlin,LA,337,US
70656,Pitkin,LA,"3,18,337",US
70657,Ragley,LA,337,US
70658,Reeves,LA,337,US
70659,Rosepine,LA,337,US
70660,Singer,LA,337,US
70661,Starks,LA,337,US
70662,Sugartown,LA,"3,37,318",US
70663,Sulphur,LA,337,US
70664,Sulphur,LA,337,US
70665,Sulphur,LA,337,US
70668,Vinton,LA,337,US
70669,Westlake,LA,337,US
70704,Baker,LA,225,US
70706,Denham Springs,LA,225,US
70707,Gonzales,LA,225,US
70710,Addis,LA,225,US
70711,Albany,LA,225,US
70712,Angola,LA,225,US
70714,Baker,LA,225,US
70715,Batchelor,LA,225,US
70718,Brittany,LA,225,US
70719,Brusly,LA,225,US
70721,Carville,LA,225,US
70722,Clinton,LA,225,US
70723,Convent,LA,"5,04,225",US
70725,Darrow,LA,225,US
70726,Denham Springs,LA,225,US
70727,Denham Springs,LA,225,US
70728,Duplessis,LA,225,US
70729,Erwinville,LA,225,US
70730,Ethel,LA,225,US
70732,Fordoche,LA,"2,25,337",US
70733,French Settlement,LA,225,US
70734,Geismar,LA,225,US
70736,Glynn,LA,225,US
70737,Gonzales,LA,"2,25,985",US
70738,Burnside,LA,225,US
70739,Greenwell Springs,LA,225,US
70740,Grosse Tete,LA,225,US
70743,Hester,LA,225,US
70744,Holden,LA,225,US
70747,Innis,LA,225,US
70748,Jackson,LA,225,US
70749,Jarreau,LA,225,US
70750,Krotz Springs,LA,337,US
70752,Lakeland,LA,225,US
70753,Lettsworth,LA,225,US
70754,Livingston,LA,225,US
70755,Livonia,LA,225,US
70756,Lottie,LA,225,US
70757,Maringouin,LA,225,US
70759,Morganza,LA,225,US
70760,New Roads,LA,225,US
70761,Norwood,LA,225,US
70762,Oscar,LA,225,US
70763,Paulina,LA,225,US
70764,Plaquemine,LA,225,US
70765,Plaquemine,LA,225,US
70767,Port Allen,LA,225,US
70769,Prairieville,LA,225,US
70770,Pride,LA,225,US
70772,Rosedale,LA,225,US
70773,Rougon,LA,225,US
70774,Saint Amant,LA,225,US
70775,Saint Francisville,LA,"9,85,225",US
70776,Saint Gabriel,LA,225,US
70777,Slaughter,LA,225,US
70778,Sorrento,LA,225,US
70780,Sunshine,LA,225,US
70782,Tunica,LA,225,US
70783,Ventress,LA,225,US
70784,Wakefield,LA,225,US
70785,Walker,LA,225,US
70786,Watson,LA,225,US
70787,Weyanoke,LA,225,US
70788,White Castle,LA,225,US
70789,Wilson,LA,225,US
70791,Zachary,LA,225,US
70792,Uncle Sam,LA,225,US
70801,Baton Rouge,LA,"2,25,337",US
70802,Baton Rouge,LA,225,US
70803,Baton Rouge,LA,225,US
70804,Baton Rouge,LA,225,US
70805,Baton Rouge,LA,225,US
70806,Baton Rouge,LA,225,US
70807,Baton Rouge,LA,225,US
70808,Baton Rouge,LA,225,US
70809,Baton Rouge,LA,"2,25,504",US
70810,Baton Rouge,LA,225,US
70811,Baton Rouge,LA,225,US
70812,Baton Rouge,LA,225,US
70813,Baton Rouge,LA,225,US
70814,Baton Rouge,LA,225,US
70815,Baton Rouge,LA,225,US
70816,Baton Rouge,LA,"2,25,985",US
70817,Baton Rouge,LA,225,US
70818,Baton Rouge,LA,225,US
70819,Baton Rouge,LA,225,US
70820,Baton Rouge,LA,225,US
70821,Baton Rouge,LA,225,US
70822,Baton Rouge,LA,225,US
70823,Baton Rouge,LA,225,US
70825,Baton Rouge,LA,225,US
70826,Baton Rouge,LA,225,US
70827,Baton Rouge,LA,225,US
70831,Baton Rouge,LA,225,US
70833,Baton Rouge,LA,225,US
70835,Baton Rouge,LA,225,US
70836,Baton Rouge,LA,225,US
70837,Baton Rouge,LA,225,US
70873,Baton Rouge,LA,225,US
70874,Baton Rouge,LA,225,US
70879,Baton Rouge,LA,225,US
70883,Baton Rouge,LA,225,US
70884,Baton Rouge,LA,225,US
70891,Baton Rouge,LA,225,US
70892,Baton Rouge,LA,225,US
70893,Baton Rouge,LA,225,US
70894,Baton Rouge,LA,225,US
70895,Baton Rouge,LA,225,US
70896,Baton Rouge,LA,225,US
70898,Baton Rouge,LA,225,US
71001,Arcadia,LA,318,US
71002,Ashland,LA,318,US
71003,Athens,LA,318,US
71004,Belcher,LA,318,US
71006,Benton,LA,318,US
71007,Bethany,LA,318,US
71008,Bienville,LA,318,US
71009,Blanchard,LA,318,US
71016,Castor,LA,318,US
71018,Cotton Valley,LA,318,US
71019,Coushatta,LA,318,US
71021,Cullen,LA,318,US
71023,Doyline,LA,318,US
71024,Dubberly,LA,318,US
71027,Frierson,LA,318,US
71028,Gibsland,LA,318,US
71029,Gilliam,LA,318,US
71030,Gloster,LA,318,US
71031,Goldonna,LA,318,US
71032,Grand Cane,LA,318,US
71033,Greenwood,LA,318,US
71034,Hall Summit,LA,318,US
71037,Haughton,LA,318,US
71038,Haynesville,LA,318,US
71039,Heflin,LA,318,US
71040,Homer,LA,318,US
71043,Hosston,LA,318,US
71044,Ida,LA,318,US
71045,Jamestown,LA,318,US
71046,Keatchie,LA,318,US
71047,Keithville,LA,318,US
71048,Lisbon,LA,318,US
71049,Logansport,LA,318,US
71050,Longstreet,LA,318,US
71051,Elm Grove,LA,318,US
71052,Mansfield,LA,318,US
71055,Minden,LA,318,US
71058,Minden,LA,318,US
71060,Mooringsport,LA,318,US
71061,Oil City,LA,318,US
71063,Pelican,LA,318,US
71064,Plain Dealing,LA,318,US
71065,Pleasant Hill,LA,318,US
71066,Powhatan,LA,318,US
71067,Princeton,LA,318,US
71068,Ringgold,LA,318,US
71069,Rodessa,LA,318,US
71070,Saline,LA,318,US
71071,Sarepta,LA,318,US
71072,Shongaloo,LA,318,US
71073,Sibley,LA,318,US
71075,Springhill,LA,"3,18,870",US
71078,Stonewall,LA,318,US
71079,Summerfield,LA,318,US
71080,Taylor,LA,318,US
71082,Vivian,LA,"3,18,903",US
71101,Shreveport,LA,318,US
71102,Shreveport,LA,318,US
71103,Shreveport,LA,318,US
71104,Shreveport,LA,318,US
71105,Shreveport,LA,318,US
71106,Shreveport,LA,318,US
71107,Shreveport,LA,318,US
71108,Shreveport,LA,318,US
71109,Shreveport,LA,318,US
71110,Barksdale Afb,LA,318,US
71111,Bossier City,LA,318,US
71112,Bossier City,LA,318,US
71113,Bossier City,LA,318,US
71115,Shreveport,LA,318,US
71118,Shreveport,LA,318,US
71119,Shreveport,LA,318,US
71120,Shreveport,LA,318,US
71129,Shreveport,LA,318,US
71130,Shreveport,LA,318,US
71133,Shreveport,LA,318,US
71134,Shreveport,LA,318,US
71135,Shreveport,LA,318,US
71136,Shreveport,LA,318,US
71137,Shreveport,LA,318,US
71138,Shreveport,LA,318,US
71148,Shreveport,LA,318,US
71149,Shreveport,LA,318,US
71150,Shreveport,LA,318,US
71151,Shreveport,LA,318,US
71152,Shreveport,LA,318,US
71153,Shreveport,LA,318,US
71154,Shreveport,LA,318,US
71156,Shreveport,LA,318,US
71161,Shreveport,LA,318,US
71162,Shreveport,LA,318,US
71163,Shreveport,LA,318,US
71164,Shreveport,LA,318,US
71165,Shreveport,LA,318,US
71166,Shreveport,LA,318,US
71171,Bossier City,LA,318,US
71172,Bossier City,LA,318,US
71201,Monroe,LA,"3,18,504",US
71202,Monroe,LA,318,US
71203,Monroe,LA,318,US
71207,Monroe,LA,318,US
71208,Monroe,LA,318,US
71209,Monroe,LA,318,US
71210,Monroe,LA,318,US
71211,Monroe,LA,318,US
71212,Monroe,LA,318,US
71213,Monroe,LA,318,US
71217,Monroe,LA,318,US
71218,Archibald,LA,318,US
71219,Baskin,LA,318,US
71220,Bastrop,LA,318,US
71221,Bastrop,LA,318,US
71222,Bernice,LA,318,US
71223,Bonita,LA,318,US
71225,Calhoun,LA,318,US
71226,Chatham,LA,318,US
71227,Choudrant,LA,318,US
71229,Collinston,LA,318,US
71230,Crowville,LA,318,US
71232,Delhi,LA,318,US
71233,Delta,LA,318,US
71234,Downsville,LA,318,US
71235,Dubach,LA,318,US
71237,Epps,LA,318,US
71238,Eros,LA,318,US
71240,Fairbanks,LA,318,US
71241,Farmerville,LA,318,US
71242,Forest,LA,318,US
71243,Fort Necessity,LA,318,US
71245,Grambling,LA,318,US
71247,Hodge,LA,318,US
71249,Jigger,LA,318,US
71250,Jones,LA,318,US
71251,Jonesboro,LA,318,US
71253,Kilbourne,LA,318,US
71254,Lake Providence,LA,318,US
71256,Lillie,LA,318,US
71259,Mangham,LA,318,US
71260,Marion,LA,318,US
71261,Mer Rouge,LA,318,US
71263,Oak Grove,LA,318,US
71264,Oak Ridge,LA,318,US
71266,Pioneer,LA,318,US
71268,Quitman,LA,"3,37,318",US
71269,Rayville,LA,318,US
71270,Ruston,LA,318,US
71272,Ruston,LA,318,US
71273,Ruston,LA,318,US
71275,Simsboro,LA,318,US
71276,Sondheimer,LA,318,US
71277,Spearsville,LA,318,US
71279,Start,LA,318,US
71280,Sterlington,LA,318,US
71281,Swartz,LA,318,US
71282,Tallulah,LA,318,US
71284,Tallulah,LA,318,US
71286,Transylvania,LA,318,US
71291,West Monroe,LA,318,US
71292,West Monroe,LA,318,US
71294,West Monroe,LA,318,US
71295,Winnsboro,LA,318,US
71301,Alexandria,LA,318,US
71302,Alexandria,LA,318,US
71303,Alexandria,LA,318,US
71306,Alexandria,LA,318,US
71307,Alexandria,LA,318,US
71309,Alexandria,LA,318,US
71315,Alexandria,LA,318,US
71316,Acme,LA,318,US
71320,Bordelonville,LA,318,US
71322,Bunkie,LA,"3,18,337",US
71323,Center Point,LA,318,US
71324,Chase,LA,318,US
71325,Cheneyville,LA,"3,18,337",US
71326,Clayton,LA,318,US
71327,Cottonport,LA,318,US
71328,Deville,LA,318,US
71329,Dupont,LA,318,US
71330,Echo,LA,318,US
71331,Effie,LA,318,US
71333,Evergreen,LA,318,US
71334,Ferriday,LA,318,US
71336,Gilbert,LA,318,US
71339,Hamburg,LA,318,US
71340,Harrisonburg,LA,318,US
71341,Hessmer,LA,318,US
71342,Jena,LA,318,US
71343,Jonesville,LA,318,US
71345,Lebeau,LA,,US
71346,Lecompte,LA,318,US
71348,Libuse,LA,318,US
71350,Mansura,LA,318,US
71351,Marksville,LA,318,US
71353,Melville,LA,"2,25,337",US
71354,Monterey,LA,318,US
71355,Moreauville,LA,318,US
71356,Morrow,LA,318,US
71357,Newellton,LA,318,US
71358,Palmetto,LA,337,US
71359,Pineville,LA,318,US
71360,Pineville,LA,318,US
71361,Pineville,LA,318,US
71362,Plaucheville,LA,"3,18,337",US
71363,Rhinehart,LA,318,US
71365,Ruby,LA,318,US
71366,Saint Joseph,LA,318,US
71367,Saint Landry,LA,"3,18,337",US
71368,Sicily Island,LA,318,US
71369,Simmesport,LA,318,US
71371,Trout,LA,318,US
71373,Vidalia,LA,318,US
71375,Waterproof,LA,318,US
71377,Wildsville,LA,318,US
71378,Wisner,LA,318,US
71401,Aimwell,LA,318,US
71403,Anacoco,LA,"3,37,318",US
71404,Atlanta,LA,318,US
71405,Ball,LA,318,US
71406,Belmont,LA,318,US
71407,Bentley,LA,318,US
71409,Boyce,LA,318,US
71410,Calvin,LA,318,US
71411,Campti,LA,318,US
71414,Clarence,LA,318,US
71415,Clarks,LA,318,US
71416,Cloutierville,LA,318,US
71417,Colfax,LA,318,US
71418,Columbia,LA,318,US
71419,Converse,LA,318,US
71422,Dodson,LA,318,US
71423,Dry Prong,LA,318,US
71424,Elmer,LA,318,US
71425,Enterprise,LA,318,US
71426,Fisher,LA,318,US
71427,Flatwoods,LA,318,US
71428,Flora,LA,318,US
71429,Florien,LA,318,US
71430,Forest Hill,LA,318,US
71431,Gardner,LA,318,US
71432,Georgetown,LA,318,US
71433,Glenmora,LA,318,US
71434,Gorum,LA,318,US
71435,Grayson,LA,318,US
71438,Hineston,LA,318,US
71439,Hornbeck,LA,318,US
71440,Joyce,LA,318,US
71441,Kelly,LA,318,US
71443,Kurthwood,LA,,US
71446,Leesville,LA,"3,18,337",US
71447,Lena,LA,318,US
71448,Longleaf,LA,318,US
71449,Many,LA,318,US
71450,Marthaville,LA,318,US
71452,Melrose,LA,318,US
71454,Montgomery,LA,318,US
71455,Mora,LA,318,US
71456,Natchez,LA,318,US
71457,Natchitoches,LA,318,US
71458,Natchitoches,LA,318,US
71459,Fort Polk,LA,337,US
71460,Negreet,LA,318,US
71461,New Llano,LA,337,US
71462,Noble,LA,318,US
71463,Oakdale,LA,318,US
71465,Olla,LA,318,US
71466,Otis,LA,318,US
71467,Pollock,LA,318,US
71468,Provencal,LA,318,US
71469,Robeline,LA,318,US
71471,Saint Maurice,LA,318,US
71472,Sieper,LA,318,US
71473,Sikes,LA,318,US
71474,Simpson,LA,337,US
71475,Slagle,LA,,US
71477,Tioga,LA,318,US
71479,Tullos,LA,318,US
71480,Urania,LA,318,US
71483,Winnfield,LA,318,US
71485,Woodworth,LA,318,US
71486,Zwolle,LA,318,US
71496,Leesville,LA,337,US
71497,Natchitoches,LA,318,US
71601,Pine Bluff,AR,870,US
71602,White Hall,AR,"8,70,501",US
71603,Pine Bluff,AR,870,US
71611,Pine Bluff,AR,870,US
71612,White Hall,AR,870,US
71613,Pine Bluff,AR,870,US
71630,Arkansas City,AR,870,US
71631,Banks,AR,870,US
71635,Crossett,AR,870,US
71638,Dermott,AR,870,US
71639,Dumas,AR,870,US
71640,Eudora,AR,870,US
71642,Fountain Hill,AR,870,US
71643,Gould,AR,870,US
71644,Grady,AR,870,US
71646,Hamburg,AR,870,US
71647,Hermitage,AR,870,US
71651,Jersey,AR,870,US
71652,Kingsland,AR,870,US
71653,Lake Village,AR,870,US
71654,Mc Gehee,AR,870,US
71655,Monticello,AR,870,US
71656,Monticello,AR,870,US
71657,Monticello,AR,870,US
71658,Montrose,AR,870,US
71659,Moscow,AR,,US
71660,New Edinburg,AR,870,US
71661,Parkdale,AR,870,US
71662,Pickens,AR,870,US
71663,Portland,AR,870,US
71665,Rison,AR,870,US
71666,Rohwer,AR,870,US
71667,Star City,AR,870,US
71670,Tillar,AR,870,US
71671,Warren,AR,870,US
71674,Watson,AR,870,US
71675,Wilmar,AR,870,US
71676,Wilmot,AR,870,US
71677,Winchester,AR,870,US
71678,Yorktown,AR,870,US
71701,Camden,AR,870,US
71711,Camden,AR,870,US
71720,Bearden,AR,870,US
71721,Beirne,AR,870,US
71722,Bluff City,AR,870,US
71724,Calion,AR,870,US
71725,Carthage,AR,870,US
71726,Chidester,AR,870,US
71728,Curtis,AR,870,US
71730,El Dorado,AR,870,US
71731,El Dorado,AR,870,US
71740,Emerson,AR,870,US
71742,Fordyce,AR,870,US
71743,Gurdon,AR,870,US
71744,Hampton,AR,870,US
71745,Harrell,AR,870,US
71747,Huttig,AR,870,US
71748,Ivan,AR,870,US
71749,Junction City,AR,"8,70,318",US
71750,Lawson,AR,870,US
71751,Louann,AR,870,US
71752,Mc Neil,AR,870,US
71753,Magnolia,AR,870,US
71754,Magnolia,AR,870,US
71758,Mount Holly,AR,870,US
71759,Norphlet,AR,870,US
71762,Smackover,AR,870,US
71763,Sparkman,AR,870,US
71764,Stephens,AR,870,US
71765,Strong,AR,870,US
71766,Thornton,AR,870,US
71768,El Dorado,AR,870,US
71770,Waldo,AR,870,US
71772,Whelen Springs,AR,870,US
71801,Hope,AR,870,US
71802,Hope,AR,870,US
71820,Alleene,AR,870,US
71822,Ashdown,AR,870,US
71823,Ben Lomond,AR,870,US
71825,Blevins,AR,870,US
71826,Bradley,AR,870,US
71827,Buckner,AR,870,US
71828,Cale,AR,870,US
71831,Columbus,AR,870,US
71832,De Queen,AR,870,US
71833,Dierks,AR,870,US
71834,Doddridge,AR,870,US
71835,Emmet,AR,870,US
71836,Foreman,AR,870,US
71837,Fouke,AR,870,US
71838,Fulton,AR,870,US
71839,Garland City,AR,870,US
71840,Genoa,AR,870,US
71841,Gillham,AR,870,US
71842,Horatio,AR,870,US
71844,Laneburg,AR,870,US
71845,Lewisville,AR,870,US
71846,Lockesburg,AR,870,US
71847,Mc Caskill,AR,870,US
71851,Mineral Springs,AR,870,US
71852,Nashville,AR,870,US
71853,Ogden,AR,870,US
71854,Texarkana,AR,870,US
71855,Ozan,AR,870,US
71857,Prescott,AR,870,US
71858,Rosston,AR,870,US
71859,Saratoga,AR,870,US
71860,Stamps,AR,870,US
71861,Taylor,AR,870,US
71862,Washington,AR,870,US
71864,Willisville,AR,870,US
71865,Wilton,AR,870,US
71866,Winthrop,AR,870,US
71901,Hot Springs National Park,AR,501,US
71902,Hot Springs National Park,AR,501,US
71903,Hot Springs National Park,AR,501,US
71909,Hot Springs Village,AR,501,US
71910,Hot Springs Village,AR,501,US
71913,Hot Springs National Park,AR,501,US
71914,Hot Springs National Park,AR,501,US
71920,Alpine,AR,870,US
71921,Amity,AR,"8,70,501",US
71922,Antoine,AR,870,US
71923,Arkadelphia,AR,"8,70,501",US
71929,Bismarck,AR,"5,01,870",US
71932,Board Camp,AR,,US
71933,Bonnerdale,AR,"5,01,870",US
71935,Caddo Gap,AR,870,US
71937,Cove,AR,870,US
71940,Delight,AR,870,US
71941,Donaldson,AR,501,US
71942,Friendship,AR,501,US
71943,Glenwood,AR,870,US
71944,Grannis,AR,870,US
71945,Hatfield,AR,870,US
71949,Jessieville,AR,501,US
71950,Kirby,AR,870,US
71951,Hot Springs National Park,AR,501,US
71952,Langley,AR,870,US
71953,Mena,AR,"8,70,479",US
71956,Mountain Pine,AR,501,US
71957,Mount Ida,AR,870,US
71958,Murfreesboro,AR,870,US
71959,Newhope,AR,870,US
71960,Norman,AR,870,US
71961,Oden,AR,870,US
71962,Okolona,AR,870,US
71964,Pearcy,AR,501,US
71965,Pencil Bluff,AR,870,US
71966,Oden,AR,870,US
71968,Royal,AR,501,US
71969,Sims,AR,870,US
71970,Story,AR,870,US
71971,Umpire,AR,870,US
71972,Vandervoort,AR,870,US
71973,Wickes,AR,870,US
71998,Arkadelphia,AR,870,US
71999,Arkadelphia,AR,870,US
72001,Adona,AR,501,US
72002,Alexander,AR,501,US
72003,Almyra,AR,870,US
72004,Altheimer,AR,870,US
72005,Amagon,AR,"5,01,870",US
72006,Augusta,AR,870,US
72007,Austin,AR,501,US
72010,Bald Knob,AR,501,US
72011,Bauxite,AR,501,US
72012,Beebe,AR,501,US
72013,Bee Branch,AR,501,US
72014,Beedeville,AR,870,US
72015,Benton,AR,501,US
72016,Bigelow,AR,501,US
72017,Biscoe,AR,870,US
72018,Benton,AR,501,US
72019,Benton,AR,501,US
72020,Bradford,AR,"5,01,870",US
72021,Brinkley,AR,870,US
72022,Bryant,AR,501,US
72023,Cabot,AR,501,US
72024,Carlisle,AR,870,US
72025,Casa,AR,501,US
72026,Casscoe,AR,870,US
72027,Center Ridge,AR,501,US
72028,Choctaw,AR,501,US
72029,Clarendon,AR,870,US
72030,Cleveland,AR,501,US
72031,Clinton,AR,501,US
72032,Conway,AR,501,US
72033,Conway,AR,501,US
72034,Conway,AR,501,US
72035,Conway,AR,501,US
72036,Cotton Plant,AR,870,US
72037,Coy,AR,501,US
72038,Crocketts Bluff,AR,870,US
72039,Damascus,AR,501,US
72040,Des Arc,AR,870,US
72041,De Valls Bluff,AR,870,US
72042,De Witt,AR,870,US
72043,Diaz,AR,,US
72044,Edgemont,AR,"8,70,501",US
72045,El Paso,AR,501,US
72046,England,AR,501,US
72047,Enola,AR,501,US
72048,Ethel,AR,870,US
72051,Fox,AR,870,US
72052,Garner,AR,501,US
72053,College Station,AR,501,US
72055,Gillett,AR,870,US
72057,Grapevine,AR,870,US
72058,Greenbrier,AR,501,US
72059,Gregory,AR,870,US
72060,Griffithville,AR,501,US
72061,Guy,AR,501,US
72063,Hattieville,AR,501,US
72064,Hazen,AR,870,US
72065,Hensley,AR,"5,01,870",US
72066,Hickory Plains,AR,870,US
72067,Higden,AR,501,US
72068,Higginson,AR,501,US
72069,Holly Grove,AR,870,US
72070,Houston,AR,501,US
72072,Humnoke,AR,501,US
72073,Humphrey,AR,870,US
72074,Hunter,AR,870,US
72075,Jacksonport,AR,,US
72076,Jacksonville,AR,501,US
72078,Jacksonville,AR,501,US
72079,Jefferson,AR,"5,01,870",US
72080,Jerusalem,AR,501,US
72081,Judsonia,AR,501,US
72082,Kensett,AR,501,US
72083,Keo,AR,501,US
72084,Leola,AR,870,US
72085,Letona,AR,501,US
72086,Lonoke,AR,"5,01,870",US
72087,Lonsdale,AR,501,US
72088,Fairfield Bay,AR,501,US
72089,Bryant,AR,501,US
72099,Little Rock Air Force Base,AR,501,US
72101,Mc Crory,AR,870,US
72102,Mc Rae,AR,501,US
72103,Mabelvale,AR,501,US
72104,Malvern,AR,501,US
72105,Jones Mill,AR,501,US
72106,Mayflower,AR,501,US
72107,Menifee,AR,501,US
72108,Monroe,AR,870,US
72110,Morrilton,AR,501,US
72111,Mount Vernon,AR,501,US
72112,Newport,AR,870,US
72113,Maumelle,AR,501,US
72114,North Little Rock,AR,501,US
72115,North Little Rock,AR,501,US
72116,North Little Rock,AR,501,US
72117,North Little Rock,AR,501,US
72118,North Little Rock,AR,501,US
72119,North Little Rock,AR,501,US
72120,Sherwood,AR,501,US
72121,Pangburn,AR,501,US
72122,Paron,AR,501,US
72123,Patterson,AR,870,US
72124,North Little Rock,AR,501,US
72125,Perry,AR,501,US
72126,Perryville,AR,501,US
72127,Plumerville,AR,501,US
72128,Poyen,AR,"8,70,501",US
72129,Prattsville,AR,870,US
72130,Prim,AR,870,US
72131,Quitman,AR,501,US
72132,Redfield,AR,501,US
72133,Reydell,AR,870,US
72134,Roe,AR,870,US
72135,Roland,AR,501,US
72136,Romance,AR,501,US
72137,Rose Bud,AR,501,US
72139,Russell,AR,501,US
72140,Saint Charles,AR,870,US
72141,Scotland,AR,501,US
72142,Scott,AR,501,US
72143,Searcy,AR,501,US
72145,Searcy,AR,501,US
72149,Searcy,AR,501,US
72150,Sheridan,AR,870,US
72152,Sherrill,AR,870,US
72153,Shirley,AR,501,US
72156,Solgohachia,AR,501,US
72157,Springfield,AR,501,US
72158,Benton,AR,501,US
72160,Stuttgart,AR,870,US
72164,Sweet Home,AR,501,US
72165,Thida,AR,870,US
72166,Tichnor,AR,870,US
72167,Traskwood,AR,501,US
72168,Tucker,AR,501,US
72169,Tupelo,AR,870,US
72170,Ulm,AR,870,US
72173,Vilonia,AR,501,US
72175,Wabbaseka,AR,870,US
72176,Ward,AR,"5,01,870",US
72178,West Point,AR,501,US
72179,Wilburn,AR,501,US
72180,Woodson,AR,501,US
72181,Wooster,AR,501,US
72182,Wright,AR,501,US
72183,Wrightsville,AR,501,US
72189,Mc Crory,AR,870,US
72190,North Little Rock,AR,501,US
72198,North Little Rock,AR,501,US
72199,North Little Rock,AR,501,US
72201,Little Rock,AR,501,US
72202,Little Rock,AR,501,US
72203,Little Rock,AR,501,US
72204,Little Rock,AR,501,US
72205,Little Rock,AR,501,US
72206,Little Rock,AR,501,US
72207,Little Rock,AR,501,US
72209,Little Rock,AR,501,US
72210,Little Rock,AR,501,US
72211,Little Rock,AR,501,US
72212,Little Rock,AR,501,US
72214,Little Rock,AR,501,US
72215,Little Rock,AR,501,US
72216,Little Rock,AR,501,US
72217,Little Rock,AR,501,US
72219,Little Rock,AR,501,US
72221,Little Rock,AR,501,US
72222,Little Rock,AR,501,US
72223,Little Rock,AR,501,US
72225,Little Rock,AR,501,US
72227,Little Rock,AR,501,US
72231,Little Rock,AR,501,US
72260,Little Rock,AR,501,US
72295,Little Rock,AR,501,US
72301,West Memphis,AR,870,US
72303,West Memphis,AR,870,US
72310,Armorel,AR,870,US
72311,Aubrey,AR,,US
72312,Barton,AR,870,US
72313,Bassett,AR,870,US
72315,Blytheville,AR,"8,70,573",US
72316,Blytheville,AR,870,US
72319,Gosnell,AR,870,US
72320,Brickeys,AR,870,US
72321,Burdette,AR,870,US
72322,Caldwell,AR,870,US
72324,Cherry Valley,AR,870,US
72325,Clarkedale,AR,870,US
72326,Colt,AR,870,US
72327,Crawfordsville,AR,870,US
72328,Crumrod,AR,870,US
72329,Driver,AR,870,US
72330,Dyess,AR,870,US
72331,Earle,AR,870,US
72332,Edmondson,AR,870,US
72333,Elaine,AR,870,US
72335,Forrest City,AR,870,US
72336,Forrest City,AR,870,US
72338,Frenchmans Bayou,AR,870,US
72339,Gilmore,AR,870,US
72340,Goodwin,AR,870,US
72341,Haynes,AR,870,US
72342,Helena,AR,870,US
72346,Heth,AR,870,US
72347,Hickory Ridge,AR,870,US
72348,Hughes,AR,870,US
72350,Joiner,AR,870,US
72351,Keiser,AR,870,US
72352,La Grange,AR,870,US
72353,Lambrook,AR,870,US
72354,Lepanto,AR,870,US
72355,Lexa,AR,870,US
72358,Luxora,AR,870,US
72359,Madison,AR,870,US
72360,Marianna,AR,870,US
72364,Marion,AR,870,US
72365,Marked Tree,AR,"8,70,501",US
72366,Marvell,AR,870,US
72367,Mellwood,AR,870,US
72368,Moro,AR,870,US
72369,Oneida,AR,870,US
72370,Osceola,AR,870,US
72372,Palestine,AR,870,US
72373,Parkin,AR,870,US
72374,Poplar Grove,AR,870,US
72376,Proctor,AR,870,US
72377,Rivervale,AR,870,US
72379,Snow Lake,AR,870,US
72383,Turner,AR,870,US
72384,Turrell,AR,870,US
72386,Tyronza,AR,870,US
72387,Vanndale,AR,870,US
72389,Wabash,AR,870,US
72390,West Helena,AR,870,US
72391,West Ridge,AR,870,US
72392,Wheatley,AR,870,US
72394,Widener,AR,870,US
72395,Wilson,AR,870,US
72396,Wynne,AR,870,US
72401,Jonesboro,AR,870,US
72402,Jonesboro,AR,870,US
72403,Jonesboro,AR,870,US
72404,Jonesboro,AR,870,US
72410,Alicia,AR,870,US
72411,Bay,AR,870,US
72412,Beech Grove,AR,870,US
72413,Biggers,AR,870,US
72414,Black Oak,AR,870,US
72415,Black Rock,AR,870,US
72416,Bono,AR,870,US
72417,Brookland,AR,870,US
72419,Caraway,AR,870,US
72421,Cash,AR,870,US
72422,Corning,AR,870,US
72424,Datto,AR,870,US
72425,Delaplaine,AR,870,US
72426,Dell,AR,870,US
72427,Egypt,AR,870,US
72428,Etowah,AR,870,US
72429,Fisher,AR,870,US
72430,Greenway,AR,870,US
72431,Grubbs,AR,870,US
72432,Harrisburg,AR,870,US
72433,Hoxie,AR,870,US
72434,Imboden,AR,870,US
72435,Knobel,AR,870,US
72436,Lafe,AR,870,US
72437,Lake City,AR,870,US
72438,Leachville,AR,870,US
72439,Light,AR,870,US
72440,Lynn,AR,870,US
72441,Mc Dougal,AR,870,US
72442,Manila,AR,870,US
72443,Marmaduke,AR,870,US
72444,Maynard,AR,870,US
72445,Minturn,AR,870,US
72447,Monette,AR,870,US
72449,O Kean,AR,870,US
72450,Paragould,AR,870,US
72451,Paragould,AR,870,US
72453,Peach Orchard,AR,870,US
72454,Piggott,AR,870,US
72455,Pocahontas,AR,870,US
72456,Pollard,AR,870,US
72457,Portia,AR,870,US
72458,Powhatan,AR,870,US
72459,Ravenden,AR,870,US
72460,Ravenden Springs,AR,870,US
72461,Rector,AR,870,US
72462,Reyno,AR,870,US
72464,Saint Francis,AR,870,US
72465,Sedgwick,AR,870,US
72466,Smithville,AR,870,US
72467,State University,AR,870,US
72469,Strawberry,AR,870,US
72470,Success,AR,870,US
72471,Swifton,AR,870,US
72472,Trumann,AR,870,US
72473,Tuckerman,AR,870,US
72474,Walcott,AR,870,US
72475,Waldenburg,AR,870,US
72476,Walnut Ridge,AR,870,US
72478,Warm Springs,AR,870,US
72479,Weiner,AR,870,US
72482,Williford,AR,870,US
72501,Batesville,AR,870,US
72503,Batesville,AR,870,US
72512,Horseshoe Bend,AR,870,US
72513,Ash Flat,AR,870,US
72515,Bexar,AR,870,US
72517,Brockwell,AR,870,US
72519,Calico Rock,AR,870,US
72520,Camp,AR,870,US
72521,Cave City,AR,870,US
72522,Charlotte,AR,870,US
72523,Concord,AR,870,US
72524,Cord,AR,870,US
72525,Cherokee Village,AR,870,US
72526,Cushman,AR,,US
72527,Desha,AR,870,US
72528,Dolph,AR,870,US
72529,Cherokee Village,AR,870,US
72530,Drasco,AR,"8,70,501",US
72531,Elizabeth,AR,870,US
72532,Evening Shade,AR,870,US
72533,Fifty Six,AR,870,US
72534,Floral,AR,"5,01,870",US
72536,Franklin,AR,870,US
72537,Gamaliel,AR,870,US
72538,Gepp,AR,870,US
72539,Glencoe,AR,870,US
72540,Guion,AR,870,US
72542,Hardy,AR,870,US
72543,Heber Springs,AR,501,US
72544,Henderson,AR,870,US
72545,Heber Springs,AR,501,US
72546,Ida,AR,,US
72550,Locust Grove,AR,870,US
72553,Magness,AR,870,US
72554,Mammoth Spring,AR,870,US
72555,Marcella,AR,870,US
72556,Melbourne,AR,870,US
72560,Mountain View,AR,870,US
72561,Mount Pleasant,AR,870,US
72562,Newark,AR,870,US
72564,Oil Trough,AR,870,US
72565,Oxford,AR,870,US
72566,Pineville,AR,870,US
72567,Pleasant Grove,AR,870,US
72568,Pleasant Plains,AR,501,US
72569,Poughkeepsie,AR,870,US
72571,Rosie,AR,870,US
72572,Saffell,AR,870,US
72573,Sage,AR,870,US
72575,Salado,AR,,US
72576,Salem,AR,870,US
72577,Sidney,AR,870,US
72578,Sturkie,AR,870,US
72579,Sulphur Rock,AR,870,US
72581,Tumbling Shoals,AR,501,US
72583,Viola,AR,870,US
72584,Violet Hill,AR,870,US
72585,Wideman,AR,870,US
72587,Wiseman,AR,870,US
72601,Harrison,AR,"8,70,501",US
72602,Harrison,AR,870,US
72611,Alpena,AR,870,US
72613,Beaver,AR,,US
72615,Bergman,AR,870,US
72616,Berryville,AR,870,US
72617,Big Flat,AR,870,US
72619,Bull Shoals,AR,870,US
72623,Clarkridge,AR,870,US
72624,Compton,AR,870,US
72626,Cotter,AR,870,US
72628,Deer,AR,"8,70,479",US
72629,Dennard,AR,"8,70,501",US
72630,Diamond City,AR,870,US
72631,Eureka Springs,AR,"8,70,479",US
72632,Eureka Springs,AR,"5,01,479",US
72633,Everton,AR,870,US
72634,Flippin,AR,870,US
72635,Gassville,AR,870,US
72636,Gilbert,AR,870,US
72638,Green Forest,AR,870,US
72639,Harriet,AR,870,US
72640,Hasty,AR,870,US
72641,Jasper,AR,870,US
72642,Lakeview,AR,870,US
72644,Lead Hill,AR,870,US
72645,Leslie,AR,"8,70,501",US
72648,Marble Falls,AR,870,US
72650,Marshall,AR,870,US
72651,Midway,AR,870,US
72653,Mountain Home,AR,870,US
72654,Mountain Home,AR,870,US
72655,Mount Judea,AR,870,US
72657,Timbo,AR,870,US
72658,Norfork,AR,870,US
72659,Norfork,AR,870,US
72660,Oak Grove,AR,870,US
72661,Oakland,AR,870,US
72662,Omaha,AR,870,US
72663,Onia,AR,870,US
72666,Parthenon,AR,870,US
72668,Peel,AR,870,US
72669,Pindall,AR,870,US
72670,Ponca,AR,870,US
72672,Pyatt,AR,870,US
72675,Saint Joe,AR,870,US
72677,Summit,AR,870,US
72679,Tilly,AR,870,US
72680,Timbo,AR,870,US
72682,Valley Springs,AR,870,US
72683,Vendor,AR,870,US
72685,Western Grove,AR,870,US
72686,Witts Springs,AR,870,US
72687,Yellville,AR,870,US
72701,Fayetteville,AR,479,US
72702,Fayetteville,AR,479,US
72703,Fayetteville,AR,479,US
72704,Fayetteville,AR,479,US
72711,Avoca,AR,479,US
72712,Bentonville,AR,479,US
72714,Bella Vista,AR,479,US
72715,Bella Vista,AR,479,US
72716,Bentonville,AR,479,US
72717,Canehill,AR,479,US
72718,Cave Springs,AR,479,US
72719,Centerton,AR,479,US
72721,Combs,AR,,US
72722,Decatur,AR,479,US
72727,Elkins,AR,479,US
72728,Elm Springs,AR,479,US
72729,Evansville,AR,479,US
72730,Farmington,AR,479,US
72732,Garfield,AR,479,US
72733,Gateway,AR,479,US
72734,Gentry,AR,479,US
72735,Goshen,AR,479,US
72736,Gravette,AR,479,US
72737,Greenland,AR,479,US
72738,Hindsville,AR,479,US
72739,Hiwasse,AR,479,US
72740,Huntsville,AR,"8,70,479",US
72741,Johnson,AR,479,US
72742,Kingston,AR,"8,70,479",US
72744,Lincoln,AR,479,US
72745,Lowell,AR,479,US
72747,Maysville,AR,"9,18,479",US
72749,Morrow,AR,479,US
72751,Pea Ridge,AR,479,US
72752,Pettigrew,AR,"8,70,479",US
72753,Prairie Grove,AR,479,US
72756,Rogers,AR,479,US
72757,Rogers,AR,479,US
72758,Rogers,AR,479,US
72760,Saint Paul,AR,479,US
72761,Siloam Springs,AR,"9,18,479",US
72762,Springdale,AR,479,US
72764,Springdale,AR,479,US
72765,Springdale,AR,479,US
72766,Springdale,AR,479,US
72768,Sulphur Springs,AR,479,US
72769,Summers,AR,479,US
72770,Tontitown,AR,479,US
72773,Wesley,AR,479,US
72774,West Fork,AR,479,US
72776,Witter,AR,,US
72801,Russellville,AR,"5,01,479",US
72802,Russellville,AR,"5,01,479",US
72811,Russellville,AR,479,US
72812,Russellville,AR,479,US
72820,Alix,AR,479,US
72821,Altus,AR,479,US
72823,Atkins,AR,"5,01,479",US
72824,Belleville,AR,479,US
72826,Blue Mountain,AR,479,US
72827,Bluffton,AR,479,US
72828,Briggsville,AR,479,US
72829,Centerville,AR,479,US
72830,Clarksville,AR,479,US
72832,Coal Hill,AR,479,US
72833,Danville,AR,479,US
72834,Dardanelle,AR,479,US
72835,Delaware,AR,479,US
72837,Dover,AR,479,US
72838,Gravelly,AR,479,US
72839,Hagarville,AR,479,US
72840,Hartman,AR,479,US
72841,Harvey,AR,479,US
72842,Havana,AR,479,US
72843,Hector,AR,"5,01,479",US
72845,Knoxville,AR,479,US
72846,Lamar,AR,479,US
72847,London,AR,479,US
72851,New Blaine,AR,479,US
72852,Oark,AR,479,US
72853,Ola,AR,"5,01,479",US
72854,Ozone,AR,870,US
72855,Paris,AR,479,US
72856,Pelsor,AR,870,US
72857,Plainview,AR,"5,01,479",US
72858,Pottsville,AR,479,US
72860,Rover,AR,479,US
72863,Scranton,AR,479,US
72865,Subiaco,AR,479,US
72901,Fort Smith,AR,"5,01,479",US
72902,Fort Smith,AR,479,US
72903,Fort Smith,AR,479,US
72904,Fort Smith,AR,479,US
72905,Fort Smith,AR,479,US
72906,Fort Smith,AR,479,US
72908,Fort Smith,AR,479,US
72913,Fort Smith,AR,479,US
72914,Fort Smith,AR,479,US
72916,Fort Smith,AR,479,US
72917,Fort Smith,AR,479,US
72918,Fort Smith,AR,479,US
72919,Fort Smith,AR,479,US
72921,Alma,AR,479,US
72923,Barling,AR,479,US
72926,Boles,AR,479,US
72927,Booneville,AR,479,US
72928,Branch,AR,479,US
72930,Cecil,AR,479,US
72932,Cedarville,AR,479,US
72933,Charleston,AR,479,US
72934,Chester,AR,479,US
72935,Dyer,AR,479,US
72936,Greenwood,AR,479,US
72937,Hackett,AR,479,US
72938,Hartford,AR,479,US
72940,Huntington,AR,479,US
72941,Lavaca,AR,479,US
72943,Magazine,AR,479,US
72944,Mansfield,AR,479,US
72945,Midland,AR,479,US
72946,Mountainburg,AR,479,US
72947,Mulberry,AR,479,US
72948,Natural Dam,AR,479,US
72949,Ozark,AR,479,US
72950,Parks,AR,479,US
72951,Ratcliff,AR,479,US
72952,Rudy,AR,479,US
72955,Uniontown,AR,479,US
72956,Van Buren,AR,479,US
72957,Van Buren,AR,479,US
72958,Waldron,AR,479,US
72959,Winslow,AR,479,US
73001,Albert,OK,405,US
73002,Alex,OK,405,US
73003,Edmond,OK,405,US
73004,Amber,OK,405,US
73005,Anadarko,OK,"4,05,580",US
73006,Apache,OK,580,US
73007,Arcadia,OK,405,US
73008,Bethany,OK,405,US
73009,Binger,OK,405,US
73010,Blanchard,OK,405,US
73011,Bradley,OK,405,US
73012,Edmond,OK,405,US
73013,Edmond,OK,405,US
73014,Calumet,OK,405,US
73015,Carnegie,OK,"5,80,405",US
73016,Cashion,OK,405,US
73017,Cement,OK,405,US
73018,Chickasha,OK,405,US
73019,Norman,OK,405,US
73020,Choctaw,OK,405,US
73021,Colony,OK,405,US
73022,Concho,OK,405,US
73023,Chickasha,OK,405,US
73024,Corn,OK,580,US
73025,Edmond,OK,405,US
73026,Norman,OK,405,US
73027,Coyle,OK,405,US
73028,Crescent,OK,405,US
73029,Cyril,OK,580,US
73030,Davis,OK,580,US
73031,Dibble,OK,405,US
73032,Dougherty,OK,580,US
73033,Eakly,OK,405,US
73034,Edmond,OK,405,US
73036,El Reno,OK,405,US
73038,Fort Cobb,OK,405,US
73039,Davis,OK,580,US
73040,Geary,OK,405,US
73041,Gotebo,OK,580,US
73042,Gracemont,OK,405,US
73043,Greenfield,OK,580,US
73044,Guthrie,OK,405,US
73045,Harrah,OK,405,US
73047,Hinton,OK,405,US
73048,Hydro,OK,"4,05,580",US
73049,Jones,OK,405,US
73050,Langston,OK,405,US
73051,Lexington,OK,405,US
73052,Lindsay,OK,405,US
73053,Lookeba,OK,405,US
73054,Luther,OK,405,US
73055,Marlow,OK,580,US
73056,Marshall,OK,580,US
73057,Maysville,OK,405,US
73058,Meridian,OK,405,US
73059,Minco,OK,405,US
73061,Morrison,OK,580,US
73062,Mountain View,OK,580,US
73063,Mulhall,OK,405,US
73064,Mustang,OK,405,US
73065,Newcastle,OK,405,US
73066,Nicoma Park,OK,405,US
73067,Ninnekah,OK,405,US
73068,Noble,OK,405,US
73069,Norman,OK,405,US
73070,Norman,OK,405,US
73071,Norman,OK,405,US
73072,Norman,OK,405,US
73073,Orlando,OK,"5,80,405",US
73074,Paoli,OK,405,US
73075,Pauls Valley,OK,405,US
73077,Perry,OK,580,US
73078,Piedmont,OK,405,US
73079,Pocasset,OK,405,US
73080,Purcell,OK,405,US
73082,Rush Springs,OK,580,US
73083,Edmond,OK,405,US
73084,Spencer,OK,405,US
73085,Yukon,OK,405,US
73086,Sulphur,OK,580,US
73089,Tuttle,OK,405,US
73090,Union City,OK,405,US
73092,Verden,OK,405,US
73093,Washington,OK,405,US
73094,Washita,OK,,US
73095,Wayne,OK,405,US
73096,Weatherford,OK,"5,80,405",US
73097,Wheatland,OK,405,US
73098,Wynnewood,OK,"4,05,580",US
73099,Yukon,OK,405,US
73101,Oklahoma City,OK,405,US
73102,Oklahoma City,OK,"4,05,580",US
73103,Oklahoma City,OK,405,US
73104,Oklahoma City,OK,405,US
73105,Oklahoma City,OK,405,US
73106,Oklahoma City,OK,405,US
73107,Oklahoma City,OK,405,US
73108,Oklahoma City,OK,405,US
73109,Oklahoma City,OK,405,US
73110,Oklahoma City,OK,405,US
73111,Oklahoma City,OK,405,US
73112,Oklahoma City,OK,405,US
73113,Oklahoma City,OK,405,US
73114,Oklahoma City,OK,405,US
73115,Oklahoma City,OK,405,US
73116,Oklahoma City,OK,405,US
73117,Oklahoma City,OK,405,US
73118,Oklahoma City,OK,405,US
73119,Oklahoma City,OK,405,US
73120,Oklahoma City,OK,405,US
73121,Oklahoma City,OK,405,US
73122,Oklahoma City,OK,405,US
73123,Oklahoma City,OK,405,US
73124,Oklahoma City,OK,405,US
73125,Oklahoma City,OK,405,US
73126,Oklahoma City,OK,405,US
73127,Oklahoma City,OK,405,US
73128,Oklahoma City,OK,405,US
73129,Oklahoma City,OK,405,US
73130,Oklahoma City,OK,405,US
73131,Oklahoma City,OK,405,US
73132,Oklahoma City,OK,405,US
73134,Oklahoma City,OK,405,US
73135,Oklahoma City,OK,405,US
73136,Oklahoma City,OK,405,US
73137,Oklahoma City,OK,405,US
73139,Oklahoma City,OK,405,US
73140,Oklahoma City,OK,405,US
73141,Oklahoma City,OK,405,US
73142,Oklahoma City,OK,405,US
73143,Oklahoma City,OK,405,US
73144,Oklahoma City,OK,405,US
73145,Oklahoma City,OK,405,US
73146,Oklahoma City,OK,405,US
73147,Oklahoma City,OK,405,US
73148,Oklahoma City,OK,405,US
73149,Oklahoma City,OK,405,US
73150,Oklahoma City,OK,405,US
73151,Oklahoma City,OK,405,US
73152,Oklahoma City,OK,405,US
73153,Oklahoma City,OK,405,US
73154,Oklahoma City,OK,405,US
73155,Oklahoma City,OK,405,US
73156,Oklahoma City,OK,405,US
73157,Oklahoma City,OK,405,US
73159,Oklahoma City,OK,405,US
73160,Oklahoma City,OK,405,US
73162,Oklahoma City,OK,405,US
73163,Oklahoma City,OK,405,US
73164,Oklahoma City,OK,405,US
73165,Oklahoma City,OK,405,US
73167,Oklahoma City,OK,405,US
73169,Oklahoma City,OK,405,US
73170,Oklahoma City,OK,405,US
73172,Oklahoma City,OK,405,US
73173,Oklahoma City,OK,405,US
73178,Oklahoma City,OK,405,US
73179,Oklahoma City,OK,405,US
73184,Oklahoma City,OK,405,US
73185,Oklahoma City,OK,405,US
73189,Oklahoma City,OK,405,US
73190,Oklahoma City,OK,405,US
73193,Oklahoma City,OK,405,US
73194,Oklahoma City,OK,405,US
73195,Oklahoma City,OK,405,US
73196,Oklahoma City,OK,405,US
73197,Oklahoma City,OK,405,US
73198,Oklahoma City,OK,405,US
73199,Oklahoma City,OK,405,US
73301,Austin,TX,512,US
73344,Austin,TX,512,US
73401,Ardmore,OK,580,US
73402,Ardmore,OK,580,US
73403,Ardmore,OK,580,US
73425,Countyline,OK,580,US
73430,Burneyville,OK,580,US
73432,Coleman,OK,580,US
73433,Elmore City,OK,580,US
73434,Foster,OK,580,US
73435,Fox,OK,580,US
73436,Gene Autry,OK,580,US
73437,Graham,OK,580,US
73438,Healdton,OK,580,US
73439,Kingston,OK,580,US
73440,Lebanon,OK,580,US
73441,Leon,OK,580,US
73442,Loco,OK,580,US
73443,Lone Grove,OK,580,US
73444,Hennepin,OK,580,US
73446,Madill,OK,580,US
73447,Mannsville,OK,580,US
73448,Marietta,OK,580,US
73449,Mead,OK,580,US
73450,Milburn,OK,580,US
73451,Ardmore,OK,,US
73453,Overbrook,OK,580,US
73454,Ardmore,OK,,US
73455,Ravia,OK,580,US
73456,Ringling,OK,580,US
73458,Springer,OK,580,US
73459,Thackerville,OK,580,US
73460,Tishomingo,OK,580,US
73461,Wapanucka,OK,580,US
73463,Wilson,OK,580,US
73481,Ratliff City,OK,580,US
73487,Tatums,OK,580,US
73488,Tussy,OK,580,US
73491,Velma,OK,580,US
73501,Lawton,OK,580,US
73502,Lawton,OK,580,US
73503,Fort Sill,OK,580,US
73505,Lawton,OK,580,US
73506,Lawton,OK,580,US
73507,Lawton,OK,580,US
73520,Addington,OK,580,US
73521,Altus,OK,580,US
73522,Altus,OK,580,US
73523,Altus Afb,OK,580,US
73526,Blair,OK,580,US
73527,Cache,OK,580,US
73528,Chattanooga,OK,580,US
73529,Comanche,OK,580,US
73530,Davidson,OK,580,US
73531,Devol,OK,580,US
73532,Duke,OK,580,US
73533,Duncan,OK,580,US
73534,Duncan,OK,580,US
73536,Duncan,OK,580,US
73537,Eldorado,OK,580,US
73538,Elgin,OK,580,US
73539,Elmer,OK,580,US
73540,Faxon,OK,580,US
73541,Fletcher,OK,580,US
73542,Frederick,OK,580,US
73543,Geronimo,OK,580,US
73544,Gould,OK,580,US
73546,Grandfield,OK,580,US
73547,Granite,OK,580,US
73548,Hastings,OK,580,US
73549,Headrick,OK,580,US
73550,Hollis,OK,580,US
73551,Hollister,OK,580,US
73552,Indiahoma,OK,580,US
73553,Loveland,OK,580,US
73554,Mangum,OK,580,US
73555,Manitou,OK,580,US
73556,Martha,OK,580,US
73557,Medicine Park,OK,580,US
73558,Meers,OK,580,US
73559,Mountain Park,OK,580,US
73560,Olustee,OK,580,US
73561,Oscar,OK,580,US
73562,Randlett,OK,580,US
73564,Roosevelt,OK,580,US
73565,Ryan,OK,580,US
73566,Snyder,OK,580,US
73567,Sterling,OK,580,US
73568,Temple,OK,580,US
73569,Terral,OK,580,US
73570,Tipton,OK,580,US
73571,Vinson,OK,580,US
73572,Walters,OK,580,US
73573,Waurika,OK,580,US
73601,Clinton,OK,580,US
73620,Arapaho,OK,580,US
73622,Bessie,OK,580,US
73624,Burns Flat,OK,580,US
73625,Butler,OK,580,US
73626,Canute,OK,580,US
73627,Carter,OK,580,US
73628,Cheyenne,OK,580,US
73632,Cordell,OK,580,US
73638,Crawford,OK,580,US
73639,Custer City,OK,580,US
73641,Dill City,OK,580,US
73642,Durham,OK,580,US
73644,Elk City,OK,580,US
73645,Erick,OK,580,US
73646,Fay,OK,580,US
73647,Foss,OK,580,US
73648,Elk City,OK,405,US
73650,Hammon,OK,580,US
73651,Hobart,OK,580,US
73654,Leedey,OK,580,US
73655,Lone Wolf,OK,580,US
73658,Oakwood,OK,580,US
73659,Putnam,OK,580,US
73660,Reydon,OK,580,US
73661,Rocky,OK,580,US
73662,Sayre,OK,580,US
73663,Seiling,OK,580,US
73664,Sentinel,OK,580,US
73666,Sweetwater,OK,"8,06,580",US
73667,Taloga,OK,580,US
73668,Texola,OK,580,US
73669,Thomas,OK,580,US
73673,Willow,OK,580,US
73701,Enid,OK,580,US
73702,Enid,OK,580,US
73703,Enid,OK,580,US
73705,Enid,OK,580,US
73706,Enid,OK,580,US
73716,Aline,OK,580,US
73717,Alva,OK,580,US
73718,Ames,OK,580,US
73719,Amorita,OK,580,US
73720,Bison,OK,580,US
73722,Burlington,OK,580,US
73724,Canton,OK,580,US
73726,Carmen,OK,580,US
73727,Carrier,OK,580,US
73728,Cherokee,OK,580,US
73729,Cleo Springs,OK,580,US
73730,Covington,OK,580,US
73731,Dacoma,OK,580,US
73733,Douglas,OK,580,US
73734,Dover,OK,405,US
73735,Drummond,OK,580,US
73736,Fairmont,OK,580,US
73737,Fairview,OK,580,US
73738,Garber,OK,580,US
73739,Goltry,OK,580,US
73741,Helena,OK,580,US
73742,Hennessey,OK,405,US
73743,Hillsdale,OK,580,US
73744,Hitchcock,OK,"5,80,405",US
73746,Hopeton,OK,580,US
73747,Isabella,OK,580,US
73749,Jet,OK,580,US
73750,Kingfisher,OK,405,US
73753,Kremlin,OK,580,US
73754,Lahoma,OK,580,US
73755,Longdale,OK,580,US
73756,Loyal,OK,405,US
73757,Lucien,OK,580,US
73758,Manchester,OK,580,US
73759,Medford,OK,580,US
73760,Meno,OK,580,US
73761,Nash,OK,580,US
73762,Okarche,OK,405,US
73763,Okeene,OK,580,US
73764,Omega,OK,405,US
73766,Pond Creek,OK,580,US
73768,Ringwood,OK,580,US
73770,Southard,OK,,US
73771,Wakita,OK,580,US
73772,Watonga,OK,580,US
73773,Waukomis,OK,580,US
73801,Woodward,OK,580,US
73802,Woodward,OK,580,US
73832,Arnett,OK,580,US
73834,Buffalo,OK,580,US
73835,Camargo,OK,580,US
73838,Chester,OK,580,US
73840,Fargo,OK,580,US
73841,Fort Supply,OK,580,US
73842,Freedom,OK,580,US
73843,Gage,OK,580,US
73844,Gate,OK,580,US
73848,Laverne,OK,580,US
73851,May,OK,580,US
73852,Mooreland,OK,580,US
73853,Mutual,OK,580,US
73855,Rosston,OK,580,US
73857,Sharon,OK,580,US
73858,Shattuck,OK,580,US
73859,Vici,OK,580,US
73860,Waynoka,OK,580,US
73901,Adams,OK,580,US
73931,Balko,OK,580,US
73932,Beaver,OK,580,US
73933,Boise City,OK,580,US
73937,Felt,OK,580,US
73938,Forgan,OK,580,US
73939,Goodwell,OK,580,US
73942,Guymon,OK,"5,80,806",US
73944,Hardesty,OK,580,US
73945,Hooker,OK,580,US
73946,Kenton,OK,580,US
73947,Keyes,OK,580,US
73949,Texhoma,OK,"5,80,806",US
73950,Turpin,OK,580,US
73951,Tyrone,OK,580,US
74001,Avant,OK,918,US
74002,Barnsdall,OK,918,US
74003,Bartlesville,OK,918,US
74004,Bartlesville,OK,918,US
74005,Bartlesville,OK,918,US
74006,Bartlesville,OK,918,US
74008,Bixby,OK,918,US
74010,Bristow,OK,918,US
74011,Broken Arrow,OK,918,US
74012,Broken Arrow,OK,918,US
74013,Broken Arrow,OK,918,US
74014,Broken Arrow,OK,918,US
74015,Catoosa,OK,918,US
74016,Chelsea,OK,918,US
74017,Claremore,OK,918,US
74018,Claremore,OK,918,US
74019,Claremore,OK,918,US
74020,Cleveland,OK,918,US
74021,Collinsville,OK,918,US
74022,Copan,OK,918,US
74023,Cushing,OK,918,US
74026,Davenport,OK,918,US
74027,Delaware,OK,918,US
74028,Depew,OK,918,US
74029,Dewey,OK,918,US
74030,Drumright,OK,918,US
74031,Foyil,OK,918,US
74032,Glencoe,OK,580,US
74033,Glenpool,OK,918,US
74034,Hallett,OK,918,US
74035,Hominy,OK,918,US
74036,Inola,OK,918,US
74037,Jenks,OK,918,US
74038,Jennings,OK,918,US
74039,Kellyville,OK,918,US
74041,Kiefer,OK,918,US
74042,Lenapah,OK,918,US
74043,Leonard,OK,918,US
74044,Mannford,OK,918,US
74045,Maramec,OK,918,US
74046,Milfay,OK,918,US
74047,Mounds,OK,918,US
74048,Nowata,OK,918,US
74050,Oakhurst,OK,918,US
74051,Ochelata,OK,918,US
74052,Oilton,OK,918,US
74053,Oologah,OK,918,US
74054,Osage,OK,918,US
74055,Owasso,OK,918,US
74056,Pawhuska,OK,918,US
74058,Pawnee,OK,918,US
74059,Perkins,OK,"4,05,918",US
74060,Prue,OK,918,US
74061,Ramona,OK,918,US
74062,Ripley,OK,"9,18,405",US
74063,Sand Springs,OK,918,US
74066,Sapulpa,OK,918,US
74067,Sapulpa,OK,918,US
74068,Shamrock,OK,918,US
74070,Skiatook,OK,918,US
74071,Slick,OK,918,US
74072,S Coffeyville,OK,918,US
74073,Sperry,OK,918,US
74074,Stillwater,OK,405,US
74075,Stillwater,OK,405,US
74076,Stillwater,OK,405,US
74077,Stillwater,OK,405,US
74078,Stillwater,OK,405,US
74079,Stroud,OK,918,US
74080,Talala,OK,918,US
74081,Terlton,OK,918,US
74082,Vera,OK,918,US
74083,Wann,OK,918,US
74084,Wynona,OK,918,US
74085,Yale,OK,918,US
74101,Tulsa,OK,918,US
74102,Tulsa,OK,918,US
74103,Tulsa,OK,918,US
74104,Tulsa,OK,918,US
74105,Tulsa,OK,918,US
74106,Tulsa,OK,918,US
74107,Tulsa,OK,918,US
74108,Tulsa,OK,918,US
74110,Tulsa,OK,918,US
74112,Tulsa,OK,918,US
74114,Tulsa,OK,918,US
74115,Tulsa,OK,918,US
74116,Tulsa,OK,918,US
74117,Tulsa,OK,918,US
74119,Tulsa,OK,918,US
74120,Tulsa,OK,918,US
74121,Tulsa,OK,918,US
74126,Tulsa,OK,918,US
74127,Tulsa,OK,918,US
74128,Tulsa,OK,918,US
74129,Tulsa,OK,918,US
74130,Tulsa,OK,918,US
74131,Tulsa,OK,918,US
74132,Tulsa,OK,918,US
74133,Tulsa,OK,918,US
74134,Tulsa,OK,918,US
74135,Tulsa,OK,918,US
74136,Tulsa,OK,918,US
74137,Tulsa,OK,918,US
74141,Tulsa,OK,918,US
74145,Tulsa,OK,918,US
74146,Tulsa,OK,918,US
74147,Tulsa,OK,918,US
74148,Tulsa,OK,918,US
74149,Tulsa,OK,918,US
74150,Tulsa,OK,918,US
74152,Tulsa,OK,918,US
74153,Tulsa,OK,918,US
74155,Tulsa,OK,918,US
74156,Tulsa,OK,918,US
74157,Tulsa,OK,918,US
74158,Tulsa,OK,918,US
74159,Tulsa,OK,918,US
74169,Tulsa,OK,918,US
74170,Tulsa,OK,918,US
74171,Tulsa,OK,918,US
74172,Tulsa,OK,918,US
74182,Tulsa,OK,918,US
74183,Tulsa,OK,918,US
74184,Tulsa,OK,918,US
74186,Tulsa,OK,918,US
74187,Tulsa,OK,918,US
74189,Tulsa,OK,918,US
74192,Tulsa,OK,918,US
74193,Tulsa,OK,918,US
74194,Tulsa,OK,918,US
74301,Vinita,OK,918,US
74330,Adair,OK,918,US
74331,Afton,OK,918,US
74332,Big Cabin,OK,918,US
74333,Bluejacket,OK,918,US
74335,Cardin,OK,918,US
74337,Chouteau,OK,918,US
74338,Colcord,OK,918,US
74339,Commerce,OK,918,US
74340,Disney,OK,918,US
74342,Eucha,OK,918,US
74343,Fairland,OK,918,US
74344,Grove,OK,918,US
74345,Grove,OK,918,US
74346,Jay,OK,918,US
74347,Kansas,OK,918,US
74349,Ketchum,OK,918,US
74350,Langley,OK,918,US
74352,Locust Grove,OK,918,US
74354,Miami,OK,918,US
74355,Miami,OK,918,US
74358,North Miami,OK,918,US
74359,Oaks,OK,918,US
74360,Picher,OK,918,US
74361,Pryor,OK,918,US
74362,Pryor,OK,918,US
74363,Quapaw,OK,918,US
74364,Rose,OK,918,US
74365,Salina,OK,918,US
74366,Spavinaw,OK,918,US
74367,Strang,OK,918,US
74368,Twin Oaks,OK,918,US
74369,Welch,OK,918,US
74370,Wyandotte,OK,918,US
74401,Muskogee,OK,918,US
74402,Muskogee,OK,918,US
74403,Muskogee,OK,918,US
74421,Beggs,OK,918,US
74422,Boynton,OK,918,US
74423,Braggs,OK,918,US
74425,Canadian,OK,918,US
74426,Checotah,OK,918,US
74427,Cookson,OK,918,US
74428,Council Hill,OK,918,US
74429,Coweta,OK,918,US
74430,Crowder,OK,918,US
74431,Dewar,OK,918,US
74432,Eufaula,OK,918,US
74434,Fort Gibson,OK,918,US
74435,Gore,OK,918,US
74436,Haskell,OK,918,US
74437,Henryetta,OK,918,US
74438,Hitchita,OK,918,US
74439,Braggs,OK,918,US
74440,Hoyt,OK,918,US
74441,Hulbert,OK,918,US
74442,Indianola,OK,918,US
74444,Moodys,OK,918,US
74445,Morris,OK,918,US
74446,Okay,OK,918,US
74447,Okmulgee,OK,918,US
74450,Oktaha,OK,918,US
74451,Park Hill,OK,918,US
74452,Peggs,OK,918,US
74454,Porter,OK,918,US
74455,Porum,OK,918,US
74456,Preston,OK,918,US
74457,Proctor,OK,918,US
74458,Redbird,OK,918,US
74459,Rentiesville,OK,918,US
74460,Schulter,OK,918,US
74461,Stidham,OK,918,US
74462,Stigler,OK,918,US
74463,Taft,OK,918,US
74464,Tahlequah,OK,918,US
74465,Tahlequah,OK,918,US
74467,Wagoner,OK,918,US
74468,Wainwright,OK,918,US
74469,Warner,OK,918,US
74470,Webbers Falls,OK,918,US
74471,Welling,OK,918,US
74472,Whitefield,OK,918,US
74477,Wagoner,OK,918,US
74501,Mcalester,OK,918,US
74502,Mcalester,OK,"9,18,580",US
74521,Albion,OK,918,US
74522,Alderson,OK,918,US
74523,Antlers,OK,"4,05,580",US
74525,Atoka,OK,580,US
74528,Blanco,OK,918,US
74529,Blocker,OK,918,US
74530,Bromide,OK,580,US
74531,Calvin,OK,"4,05,580",US
74533,Caney,OK,580,US
74534,Centrahoma,OK,580,US
74535,Clarita,OK,580,US
74536,Clayton,OK,918,US
74538,Coalgate,OK,"5,80,918",US
74540,Daisy,OK,580,US
74542,Atoka,OK,,US
74543,Finley,OK,580,US
74545,Gowen,OK,918,US
74546,Haileyville,OK,918,US
74547,Hartshorne,OK,918,US
74549,Kiamichi Christian Mission,OK,918,US
74552,Kinta,OK,918,US
74553,Kiowa,OK,918,US
74554,Krebs,OK,918,US
74555,Lane,OK,580,US
74556,Lehigh,OK,580,US
74557,Moyers,OK,580,US
74558,Nashoba,OK,918,US
74559,Panola,OK,918,US
74560,Pittsburg,OK,918,US
74561,Quinton,OK,918,US
74562,Rattan,OK,580,US
74563,Red Oak,OK,918,US
74565,Savanna,OK,918,US
74567,Snow,OK,,US
74569,Stringtown,OK,580,US
74570,Stuart,OK,"9,18,405",US
74571,Talihina,OK,918,US
74572,Tupelo,OK,580,US
74574,Tuskahoma,OK,918,US
74576,Wardville,OK,918,US
74577,Whitesboro,OK,918,US
74578,Wilburton,OK,918,US
74601,Ponca City,OK,580,US
74602,Ponca City,OK,580,US
74604,Ponca City,OK,580,US
74630,Billings,OK,580,US
74631,Blackwell,OK,580,US
74632,Braman,OK,580,US
74633,Burbank,OK,918,US
74636,Deer Creek,OK,580,US
74637,Fairfax,OK,918,US
74640,Hunter,OK,580,US
74641,Kaw City,OK,580,US
74643,Lamont,OK,580,US
74644,Marland,OK,580,US
74646,Nardin,OK,580,US
74647,Newkirk,OK,580,US
74650,Ralston,OK,918,US
74651,Red Rock,OK,580,US
74652,Shidler,OK,918,US
74653,Tonkawa,OK,580,US
74701,Durant,OK,580,US
74702,Durant,OK,580,US
74720,Achille,OK,580,US
74721,Albany,OK,580,US
74722,Battiest,OK,580,US
74723,Bennington,OK,580,US
74724,Bethel,OK,580,US
74726,Bokchito,OK,"4,05,580",US
74727,Boswell,OK,580,US
74728,Broken Bow,OK,580,US
74729,Caddo,OK,580,US
74730,Calera,OK,580,US
74731,Cartwright,OK,580,US
74733,Colbert,OK,580,US
74734,Eagletown,OK,580,US
74735,Fort Towson,OK,580,US
74736,Garvin,OK,580,US
74737,Golden,OK,580,US
74738,Grant,OK,580,US
74740,Haworth,OK,580,US
74741,Hendrix,OK,580,US
74743,Hugo,OK,"5,80,918",US
74745,Idabel,OK,580,US
74747,Kemp,OK,580,US
74748,Kenefic,OK,580,US
74750,Millerton,OK,580,US
74752,Pickens,OK,580,US
74753,Platter,OK,580,US
74754,Ringold,OK,580,US
74755,Rufe,OK,580,US
74756,Sawyer,OK,580,US
74759,Soper,OK,580,US
74760,Spencerville,OK,580,US
74761,Swink,OK,580,US
74764,Valliant,OK,580,US
74766,Wright City,OK,580,US
74801,Shawnee,OK,405,US
74802,Shawnee,OK,405,US
74804,Shawnee,OK,405,US
74818,Seminole,OK,405,US
74820,Ada,OK,580,US
74821,Ada,OK,580,US
74824,Agra,OK,918,US
74825,Allen,OK,580,US
74826,Asher,OK,405,US
74827,Atwood,OK,580,US
74829,Boley,OK,"9,18,405",US
74830,Bowlegs,OK,405,US
74831,Byars,OK,405,US
74832,Carney,OK,405,US
74833,Castle,OK,918,US
74834,Chandler,OK,405,US
74836,Connerville,OK,580,US
74837,Cromwell,OK,405,US
74839,Dustin,OK,"9,18,405",US
74840,Earlsboro,OK,405,US
74842,Fittstown,OK,580,US
74843,Fitzhugh,OK,580,US
74844,Francis,OK,580,US
74845,Hanna,OK,918,US
74848,Holdenville,OK,405,US
74849,Konawa,OK,580,US
74850,Lamar,OK,918,US
74851,Mcloud,OK,405,US
74852,Macomb,OK,405,US
74854,Maud,OK,405,US
74855,Meeker,OK,405,US
74856,Mill Creek,OK,580,US
74857,Newalla,OK,405,US
74859,Okemah,OK,"9,18,405",US
74860,Paden,OK,405,US
74864,Prague,OK,405,US
74865,Roff,OK,580,US
74866,Saint Louis,OK,405,US
74867,Sasakwa,OK,405,US
74868,Seminole,OK,"4,05,580",US
74869,Sparks,OK,918,US
74871,Stonewall,OK,580,US
74872,Stratford,OK,580,US
74873,Tecumseh,OK,405,US
74875,Tryon,OK,918,US
74878,Wanette,OK,405,US
74880,Weleetka,OK,405,US
74881,Wellston,OK,405,US
74883,Wetumka,OK,"4,05,918",US
74884,Wewoka,OK,405,US
74901,Arkoma,OK,918,US
74902,Pocola,OK,918,US
74930,Bokoshe,OK,918,US
74931,Bunch,OK,918,US
74932,Cameron,OK,918,US
74935,Fanshawe,OK,918,US
74936,Gans,OK,918,US
74937,Heavener,OK,918,US
74939,Hodgen,OK,918,US
74940,Howe,OK,918,US
74941,Keota,OK,918,US
74942,Leflore,OK,918,US
74943,Lequire,OK,918,US
74944,Mccurtain,OK,918,US
74945,Marble City,OK,918,US
74946,Moffett,OK,918,US
74947,Monroe,OK,918,US
74948,Muldrow,OK,918,US
74949,Muse,OK,918,US
74951,Panama,OK,918,US
74953,Poteau,OK,918,US
74954,Roland,OK,918,US
74955,Sallisaw,OK,918,US
74956,Shady Point,OK,918,US
74957,Smithville,OK,"4,05,580",US
74959,Spiro,OK,918,US
74960,Stilwell,OK,918,US
74962,Vian,OK,918,US
74963,Watson,OK,"5,80,918",US
74964,Watts,OK,918,US
74965,Westville,OK,918,US
74966,Wister,OK,918,US
75001,Addison,TX,"21,49,72,469",US
75002,Allen,TX,"97,24,69,214",US
75006,Carrollton,TX,"2,14,97,24,69,830",US
75007,Carrollton,TX,"21,49,72,469",US
75009,Celina,TX,"97,22,14,469",US
75010,Carrollton,TX,"97,22,14,469",US
75011,Carrollton,TX,"2,14,972",US
75013,Allen,TX,"21,49,72,469",US
75014,Irving,TX,"2,14,972",US
75015,Irving,TX,972,US
75016,Irving,TX,214,US
75017,Irving,TX,972,US
75019,Coppell,TX,"97,22,14,469",US
75020,Denison,TX,903,US
75021,Denison,TX,903,US
75022,Flower Mound,TX,"8,17,94,09,72,21,44,69,000",US
75023,Plano,TX,"2,14,97,22,81,469",US
75024,Plano,TX,"46,99,72,214",US
75025,Plano,TX,"21,44,69,972",US
75026,Plano,TX,214,US
75027,Flower Mound,TX,"2,14,817",US
75028,Flower Mound,TX,"9,72,21,44,69,817",US
75029,Lewisville,TX,"46,99,72,214",US
75030,Rowlett,TX,"9,72,214",US
75032,Rockwall,TX,"9,72,469",US
75033,Frisco,TX,,US
75034,Frisco,TX,"4,69,21,49,72,817",US
75035,Frisco,TX,"46,99,72,214",US
75037,Irving,TX,214,US
75038,Irving,TX,"21,44,69,97,28,17,210",US
75039,Irving,TX,"21,49,72,469",US
75040,Garland,TX,"46,99,72,214",US
75041,Garland,TX,"97,22,14,469",US
75042,Garland,TX,"97,22,14,469",US
75043,Garland,TX,"21,49,72,469",US
75044,Garland,TX,"97,22,14,469",US
75045,Garland,TX,469,US
75046,Garland,TX,214,US
75047,Garland,TX,972,US
75048,Sachse,TX,"46,99,72,214",US
75049,Garland,TX,214,US
75050,Grand Prairie,TX,"2,14,46,98,17,972",US
75051,Grand Prairie,TX,"2,14,97,28,17,469",US
75052,Grand Prairie,TX,"9,72,21,48,17,469",US
75053,Grand Prairie,TX,"2,14,46,99,72,817",US
75054,Grand Prairie,TX,214,US
75056,The Colony,TX,"21,49,72,469",US
75057,Lewisville,TX,"2,14,972",US
75058,Gunter,TX,"9,03,214",US
75060,Irving,TX,"4,69,97,22,14,817",US
75061,Irving,TX,"21,44,69,972",US
75062,Irving,TX,"4,69,97,22,14,817",US
75063,Irving,TX,"9,72,21,44,69,817",US
75065,Lake Dallas,TX,"46,99,40,81,72,14,972",US
75067,Lewisville,TX,"2,14,97,24,69,817",US
75068,Little Elm,TX,"9,72,214",US
75069,Mckinney,TX,"21,44,69,972",US
75070,Mckinney,TX,"21,44,69,972",US
75071,Mckinney,TX,"46,99,72,214",US
75074,Plano,TX,"21,49,72,469",US
75075,Plano,TX,"46,99,72,214",US
75076,Pottsboro,TX,903,US
75077,Lewisville,TX,"9,72,94,04,69,21,48,17,000",US
75078,Prosper,TX,"97,22,14,469",US
75080,Richardson,TX,"9,72,21,48,17,469",US
75081,Richardson,TX,"21,49,72,81,79,15,469",US
75082,Richardson,TX,"46,92,14,972",US
75083,Richardson,TX,"2,14,972",US
75085,Richardson,TX,214,US
75086,Plano,TX,"2,14,972",US
75087,Rockwall,TX,"9,72,214",US
75088,Rowlett,TX,"97,22,14,469",US
75089,Rowlett,TX,"97,22,14,469",US
75090,Sherman,TX,"9,03,430",US
75091,Sherman,TX,903,US
75092,Sherman,TX,903,US
75093,Plano,TX,"9,72,46,98,17,214",US
75094,Plano,TX,"97,22,14,469",US
75097,Weston,TX,972,US
75098,Wylie,TX,"2,14,972",US
75099,Coppell,TX,214,US
75101,Bardwell,TX,972,US
75102,Barry,TX,903,US
75103,Canton,TX,"90,32,14,430",US
75104,Cedar Hill,TX,"46,99,72,214",US
75105,Chatfield,TX,"9,03,430",US
75106,Cedar Hill,TX,"9,72,214",US
75109,Corsicana,TX,903,US
75110,Corsicana,TX,903,US
75114,Crandall,TX,"9,72,469",US
75115,Desoto,TX,"2,14,46,99,72,817",US
75116,Duncanville,TX,"21,49,72,817",US
75117,Edgewood,TX,903,US
75118,Elmo,TX,,US
75119,Ennis,TX,"97,29,03,469",US
75120,Ennis,TX,214,US
75121,Copeville,TX,972,US
75123,Desoto,TX,"9,72,214",US
75124,Eustace,TX,"9,03,430",US
75125,Ferris,TX,"97,22,14,469",US
75126,Forney,TX,"97,22,14,469",US
75127,Fruitvale,TX,903,US
75132,Fate,TX,214,US
75134,Lancaster,TX,"9,72,469",US
75135,Caddo Mills,TX,903,US
75137,Duncanville,TX,"9,72,214",US
75138,Duncanville,TX,214,US
75140,Grand Saline,TX,"9,03,430",US
75141,Hutchins,TX,972,US
75142,Kaufman,TX,"9,72,21,49,03,469",US
75143,Kemp,TX,"90,32,14,972",US
75144,Kerens,TX,"9,03,430",US
75146,Lancaster,TX,"97,24,69,214",US
75147,Mabank,TX,"9,03,430",US
75148,Malakoff,TX,"9,03,430",US
75149,Mesquite,TX,"21,49,72,469",US
75150,Mesquite,TX,"9,72,214",US
75151,Corsicana,TX,903,US
75152,Palmer,TX,"9,72,469",US
75153,Powell,TX,903,US
75154,Red Oak,TX,"97,24,69,214",US
75155,Rice,TX,903,US
75156,Mabank,TX,903,US
75157,Rosser,TX,972,US
75158,Scurry,TX,"9,72,90,34,69,430",US
75159,Seagoville,TX,"97,22,14,469",US
75160,Terrell,TX,"9,72,214",US
75161,Terrell,TX,"9,72,469",US
75163,Trinidad,TX,"9,03,430",US
75164,Josephine,TX,972,US
75165,Waxahachie,TX,"97,22,14,469",US
75166,Lavon,TX,"2,14,972",US
75167,Waxahachie,TX,"9,72,214",US
75168,Waxahachie,TX,972,US
75169,Wills Point,TX,903,US
75172,Wilmer,TX,972,US
75173,Nevada,TX,972,US
75180,Balch Springs,TX,"9,72,214",US
75181,Mesquite,TX,"97,24,69,214",US
75182,Sunnyvale,TX,"9,72,214",US
75185,Mesquite,TX,"9,72,214",US
75187,Mesquite,TX,"9,72,214",US
75189,Royse City,TX,"46,99,72,214",US
75201,Dallas,TX,"21,49,72,51,24,69,817",US
75202,Dallas,TX,"2,14,46,99,72,817",US
75203,Dallas,TX,"2,14,972",US
75204,Dallas,TX,"21,49,72,469",US
75205,Dallas,TX,"21,49,72,469",US
75206,Dallas,TX,"21,44,69,972",US
75207,Dallas,TX,"21,49,72,469",US
75208,Dallas,TX,"21,49,72,469",US
75209,Dallas,TX,"21,49,72,469",US
75210,Dallas,TX,"21,44,69,972",US
75211,Dallas,TX,"2,14,972",US
75212,Dallas,TX,"81,79,72,21,44,69,682",US
75214,Dallas,TX,"21,49,72,469",US
75215,Dallas,TX,"9,72,214",US
75216,Dallas,TX,"97,22,14,469",US
75217,Dallas,TX,"21,44,69,972",US
75218,Dallas,TX,"2,14,972",US
75219,Dallas,TX,"21,49,72,469",US
75220,Dallas,TX,"2,14,97,28,17,469",US
75221,Dallas,TX,"2,14,972",US
75222,Dallas,TX,214,US
75223,Dallas,TX,"2,14,972",US
75224,Dallas,TX,"9,72,214",US
75225,Dallas,TX,"2,14,81,79,72,469",US
75226,Dallas,TX,"9,03,21,44,69,972",US
75227,Dallas,TX,"21,49,72,940",US
75228,Dallas,TX,"2,14,972",US
75229,Dallas,TX,"21,49,72,81,74,69,512",US
75230,Dallas,TX,"97,22,14,469",US
75231,Dallas,TX,"21,49,72,469",US
75232,Dallas,TX,"4,69,97,22,14,817",US
75233,Dallas,TX,"2,14,972",US
75234,Dallas,TX,"21,44,69,97,28,17,512",US
75235,Dallas,TX,"21,49,72,46,96,82,817",US
75236,Dallas,TX,"46,92,14,972",US
75237,Dallas,TX,"2,14,972",US
75238,Dallas,TX,"21,49,72,469",US
75240,Dallas,TX,"46,99,72,214",US
75241,Dallas,TX,"21,49,72,469",US
75242,Dallas,TX,"21,44,69,972",US
75243,Dallas,TX,"21,49,72,469",US
75244,Dallas,TX,"97,22,14,469",US
75245,Dallas,TX,214,US
75246,Dallas,TX,"21,44,69,972",US
75247,Dallas,TX,"21,49,72,469",US
75248,Dallas,TX,"21,44,69,972",US
75249,Dallas,TX,972,US
75250,Dallas,TX,972,US
75251,Dallas,TX,"21,49,72,469",US
75252,Dallas,TX,"21,49,72,469",US
75253,Dallas,TX,"9,72,21,49,40,469",US
75254,Dallas,TX,"2,14,97,24,69,817",US
75258,Dallas,TX,214,US
75260,Dallas,TX,214,US
75261,Dallas,TX,972,US
75262,Dallas,TX,214,US
75263,Dallas,TX,214,US
75264,Dallas,TX,214,US
75265,Dallas,TX,214,US
75266,Dallas,TX,214,US
75267,Dallas,TX,214,US
75270,Dallas,TX,"21,44,69,972",US
75275,Dallas,TX,214,US
75277,Dallas,TX,214,US
75283,Dallas,TX,214,US
75284,Dallas,TX,214,US
75285,Dallas,TX,214,US
75286,Dallas,TX,214,US
75287,Dallas,TX,"97,24,69,214",US
75301,Dallas,TX,469,US
75303,Dallas,TX,214,US
75310,Dallas,TX,214,US
75312,Dallas,TX,214,US
75313,Dallas,TX,214,US
75315,Dallas,TX,214,US
75320,Dallas,TX,214,US
75323,Dallas,TX,214,US
75326,Dallas,TX,214,US
75334,Dallas,TX,214,US
75336,Dallas,TX,214,US
75339,Dallas,TX,214,US
75340,Dallas,TX,214,US
75342,Dallas,TX,"21,44,69,972",US
75343,Dallas,TX,214,US
75344,Dallas,TX,214,US
75353,Dallas,TX,214,US
75354,Dallas,TX,214,US
75355,Dallas,TX,214,US
75356,Dallas,TX,214,US
75357,Dallas,TX,214,US
75358,Dallas,TX,214,US
75359,Dallas,TX,214,US
75360,Dallas,TX,214,US
75363,Dallas,TX,214,US
75364,Dallas,TX,214,US
75367,Dallas,TX,214,US
75368,Dallas,TX,214,US
75370,Dallas,TX,"2,14,972",US
75371,Dallas,TX,214,US
75372,Dallas,TX,214,US
75373,Dallas,TX,214,US
75374,Dallas,TX,214,US
75376,Dallas,TX,214,US
75378,Dallas,TX,214,US
75379,Dallas,TX,214,US
75380,Dallas,TX,972,US
75381,Dallas,TX,"2,14,972",US
75382,Dallas,TX,214,US
75386,Dallas,TX,214,US
75387,Dallas,TX,214,US
75388,Dallas,TX,214,US
75389,Dallas,TX,214,US
75390,Dallas,TX,"4,69,214",US
75391,Dallas,TX,214,US
75392,Dallas,TX,214,US
75393,Dallas,TX,214,US
75394,Dallas,TX,214,US
75395,Dallas,TX,214,US
75396,Dallas,TX,214,US
75397,Dallas,TX,214,US
75398,Dallas,TX,214,US
75401,Greenville,TX,903,US
75402,Greenville,TX,903,US
75403,Greenville,TX,903,US
75404,Greenville,TX,903,US
75407,Princeton,TX,"9,72,469",US
75409,Anna,TX,"97,22,14,469",US
75410,Alba,TX,903,US
75411,Arthur City,TX,903,US
75412,Bagwell,TX,903,US
75413,Bailey,TX,903,US
75414,Bells,TX,903,US
75415,Ben Franklin,TX,903,US
75416,Blossom,TX,903,US
75417,Bogata,TX,903,US
75418,Bonham,TX,903,US
75420,Brashear,TX,903,US
75421,Brookston,TX,903,US
75422,Campbell,TX,903,US
75423,Celeste,TX,903,US
75424,Blue Ridge,TX,"9,72,903",US
75425,Chicota,TX,903,US
75426,Clarksville,TX,903,US
75428,Commerce,TX,903,US
75429,Commerce,TX,903,US
75431,Como,TX,"9,03,430",US
75432,Cooper,TX,903,US
75433,Cumby,TX,903,US
75434,Cunningham,TX,903,US
75435,Deport,TX,903,US
75436,Detroit,TX,903,US
75437,Dike,TX,903,US
75438,Dodd City,TX,903,US
75439,Ector,TX,903,US
75440,Emory,TX,"9,03,430",US
75441,Enloe,TX,903,US
75442,Farmersville,TX,"4,69,97,29,03,214",US
75443,Gober,TX,903,US
75444,Golden,TX,903,US
75446,Honey Grove,TX,903,US
75447,Ivanhoe,TX,903,US
75448,Klondike,TX,903,US
75449,Ladonia,TX,903,US
75450,Lake Creek,TX,903,US
75451,Leesburg,TX,903,US
75452,Leonard,TX,"9,03,972",US
75453,Lone Oak,TX,903,US
75454,Melissa,TX,"9,72,21,49,03,469",US
75455,Mount Pleasant,TX,"9,03,430",US
75456,Mount Pleasant,TX,903,US
75457,Mount Vernon,TX,903,US
75458,Merit,TX,903,US
75459,Howe,TX,903,US
75460,Paris,TX,"9,03,214",US
75461,Paris,TX,903,US
75462,Paris,TX,903,US
75468,Pattonville,TX,903,US
75469,Pecan Gap,TX,903,US
75470,Petty,TX,903,US
75471,Pickton,TX,903,US
75472,Point,TX,903,US
75473,Powderly,TX,903,US
75474,Quinlan,TX,"9,03,972",US
75475,Randolph,TX,903,US
75476,Ravenna,TX,903,US
75477,Roxton,TX,903,US
75478,Saltillo,TX,903,US
75479,Savoy,TX,903,US
75480,Scroggins,TX,903,US
75481,Sulphur Bluff,TX,903,US
75482,Sulphur Springs,TX,"9,03,430",US
75483,Sulphur Springs,TX,903,US
75485,Westminster,TX,972,US
75486,Sumner,TX,903,US
75487,Talco,TX,903,US
75488,Telephone,TX,903,US
75489,Tom Bean,TX,903,US
75490,Trenton,TX,"9,03,214",US
75491,Whitewright,TX,903,US
75492,Windom,TX,"9,03,430",US
75493,Winfield,TX,903,US
75494,Winnsboro,TX,"9,03,430",US
75495,Van Alstyne,TX,"9,03,972",US
75496,Wolfe City,TX,903,US
75497,Yantis,TX,903,US
75501,Texarkana,TX,"9,03,430",US
75503,Texarkana,TX,903,US
75504,Texarkana,TX,903,US
75505,Texarkana,TX,903,US
75507,Texarkana,TX,903,US
75550,Annona,TX,903,US
75551,Atlanta,TX,"9,03,430",US
75554,Avery,TX,903,US
75555,Bivins,TX,903,US
75556,Bloomburg,TX,903,US
75558,Cookville,TX,903,US
75559,De Kalb,TX,903,US
75560,Douglassville,TX,903,US
75561,Hooks,TX,903,US
75562,Kildare,TX,903,US
75563,Linden,TX,903,US
75564,Lodi,TX,903,US
75565,Mc Leod,TX,903,US
75566,Marietta,TX,903,US
75567,Maud,TX,903,US
75568,Naples,TX,903,US
75569,Nash,TX,903,US
75570,New Boston,TX,903,US
75571,Omaha,TX,903,US
75572,Queen City,TX,903,US
75573,Redwater,TX,903,US
75574,Simms,TX,903,US
75599,Texarkana,TX,903,US
75601,Longview,TX,"9,03,214",US
75602,Longview,TX,"9,03,430",US
75603,Longview,TX,903,US
75604,Longview,TX,"9,03,430",US
75605,Longview,TX,903,US
75606,Longview,TX,903,US
75607,Longview,TX,903,US
75608,Longview,TX,903,US
75615,Longview,TX,903,US
75630,Avinger,TX,903,US
75631,Beckville,TX,903,US
75633,Carthage,TX,"9,03,430",US
75636,Cason,TX,903,US
75637,Clayton,TX,903,US
75638,Daingerfield,TX,903,US
75639,De Berry,TX,"9,03,430",US
75640,Diana,TX,903,US
75641,Easton,TX,903,US
75642,Elysian Fields,TX,903,US
75643,Gary,TX,"9,03,936",US
75644,Gilmer,TX,903,US
75645,Gilmer,TX,"9,03,430",US
75647,Gladewater,TX,"9,03,430",US
75650,Hallsville,TX,"9,03,430",US
75651,Harleton,TX,"9,03,430",US
75652,Henderson,TX,"9,03,430",US
75653,Henderson,TX,903,US
75654,Henderson,TX,903,US
75656,Hughes Springs,TX,"9,03,430",US
75657,Jefferson,TX,"9,03,430",US
75658,Joinerville,TX,,US
75659,Jonesville,TX,903,US
75660,Judson,TX,903,US
75661,Karnack,TX,903,US
75662,Kilgore,TX,903,US
75663,Kilgore,TX,903,US
75666,Laird Hill,TX,,US
75667,Laneville,TX,"9,03,430",US
75668,Lone Star,TX,903,US
75669,Long Branch,TX,430,US
75670,Marshall,TX,903,US
75671,Marshall,TX,903,US
75672,Marshall,TX,903,US
75680,Minden,TX,903,US
75681,Mount Enterprise,TX,"9,03,430",US
75682,New London,TX,903,US
75683,Ore City,TX,903,US
75684,Overton,TX,"9,03,430",US
75685,Panola,TX,903,US
75686,Pittsburg,TX,903,US
75687,Price,TX,903,US
75688,Scottsville,TX,903,US
75689,Selman City,TX,903,US
75691,Tatum,TX,903,US
75692,Waskom,TX,903,US
75693,White Oak,TX,903,US
75694,Woodlawn,TX,903,US
75701,Tyler,TX,903,US
75702,Tyler,TX,903,US
75703,Tyler,TX,"7,13,903",US
75704,Tyler,TX,903,US
75705,Tyler,TX,903,US
75706,Tyler,TX,903,US
75707,Tyler,TX,903,US
75708,Tyler,TX,903,US
75709,Tyler,TX,903,US
75710,Tyler,TX,903,US
75711,Tyler,TX,903,US
75712,Tyler,TX,903,US
75713,Tyler,TX,903,US
75750,Arp,TX,903,US
75751,Athens,TX,903,US
75752,Athens,TX,"9,03,430",US
75754,Ben Wheeler,TX,"9,03,972",US
75755,Big Sandy,TX,"9,03,430",US
75756,Brownsboro,TX,"9,03,430",US
75757,Bullard,TX,903,US
75758,Chandler,TX,"9,03,430",US
75759,Cuney,TX,,US
75760,Cushing,TX,936,US
75762,Flint,TX,903,US
75763,Frankston,TX,903,US
75764,Gallatin,TX,903,US
75765,Hawkins,TX,"9,03,430",US
75766,Jacksonville,TX,903,US
75770,Larue,TX,"9,03,430",US
75771,Lindale,TX,903,US
75772,Maydelle,TX,903,US
75773,Mineola,TX,"9,03,430",US
75778,Murchison,TX,"9,03,430",US
75779,Neches,TX,903,US
75780,New Summerfield,TX,903,US
75782,Poynor,TX,903,US
75783,Quitman,TX,903,US
75784,Reklaw,TX,936,US
75785,Rusk,TX,"9,03,430",US
75788,Sacul,TX,936,US
75789,Troup,TX,"9,03,430",US
75790,Van,TX,"9,03,972",US
75791,Whitehouse,TX,903,US
75792,Winona,TX,903,US
75797,Big Sandy,TX,903,US
75798,Tyler,TX,903,US
75799,Tyler,TX,903,US
75801,Palestine,TX,903,US
75802,Palestine,TX,903,US
75803,Palestine,TX,"9,03,430",US
75831,Buffalo,TX,903,US
75832,Cayuga,TX,903,US
75833,Centerville,TX,903,US
75834,Centralia,TX,936,US
75835,Crockett,TX,936,US
75838,Donie,TX,"2,54,903",US
75839,Elkhart,TX,903,US
75840,Fairfield,TX,903,US
75844,Grapeland,TX,"93,69,79,903",US
75845,Groveton,TX,936,US
75846,Jewett,TX,903,US
75847,Kennard,TX,936,US
75848,Kirvin,TX,903,US
75849,Latexo,TX,936,US
75850,Leona,TX,903,US
75851,Lovelady,TX,936,US
75852,Midway,TX,"9,36,903",US
75853,Montalba,TX,"9,03,430",US
75855,Oakwood,TX,903,US
75856,Pennington,TX,936,US
75858,Ratcliff,TX,936,US
75859,Streetman,TX,903,US
75860,Teague,TX,254,US
75861,Tennessee Colony,TX,"9,03,430",US
75862,Trinity,TX,"9,36,281",US
75865,Woodlake,TX,936,US
75880,Tennessee Colony,TX,903,US
75882,Palestine,TX,903,US
75884,Tennessee Colony,TX,903,US
75886,Tennessee Colony,TX,903,US
75901,Lufkin,TX,"9,03,936",US
75902,Lufkin,TX,"9,36,903",US
75903,Lufkin,TX,936,US
75904,Lufkin,TX,936,US
75915,Lufkin,TX,936,US
75925,Alto,TX,936,US
75926,Apple Springs,TX,936,US
75928,Bon Wier,TX,409,US
75929,Broaddus,TX,"9,36,409",US
75930,Bronson,TX,"4,09,936",US
75931,Brookeland,TX,"9,79,409",US
75932,Burkeville,TX,409,US
75933,Call,TX,409,US
75934,Camden,TX,936,US
75935,Center,TX,"9,36,409",US
75936,Chester,TX,936,US
75937,Chireno,TX,936,US
75938,Colmesneil,TX,409,US
75939,Corrigan,TX,936,US
75941,Diboll,TX,936,US
75942,Doucette,TX,409,US
75943,Douglass,TX,936,US
75944,Etoile,TX,936,US
75946,Garrison,TX,936,US
75948,Hemphill,TX,"4,09,281",US
75949,Huntington,TX,936,US
75951,Jasper,TX,409,US
75954,Joaquin,TX,936,US
75956,Kirbyville,TX,409,US
75958,Martinsville,TX,936,US
75959,Milam,TX,409,US
75960,Moscow,TX,936,US
75961,Nacogdoches,TX,"9,36,903",US
75962,Nacogdoches,TX,936,US
75963,Nacogdoches,TX,936,US
75964,Nacogdoches,TX,936,US
75965,Nacogdoches,TX,936,US
75966,Newton,TX,409,US
75968,Pineland,TX,409,US
75969,Pollok,TX,936,US
75972,San Augustine,TX,936,US
75973,Shelbyville,TX,936,US
75974,Tenaha,TX,"9,36,903",US
75975,Timpson,TX,936,US
75976,Wells,TX,936,US
75977,Wiergate,TX,409,US
75978,Woden,TX,936,US
75979,Woodville,TX,409,US
75980,Zavalla,TX,936,US
75990,Woodville,TX,409,US
76001,Arlington,TX,"8,17,682",US
76002,Arlington,TX,817,US
76003,Arlington,TX,817,US
76004,Arlington,TX,817,US
76005,Arlington,TX,817,US
76006,Arlington,TX,"81,72,14,972",US
76007,Arlington,TX,682,US
76008,Aledo,TX,817,US
76009,Alvarado,TX,"8,17,21,49,72,682",US
76010,Arlington,TX,"8,17,21,46,82,972",US
76011,Arlington,TX,"81,72,14,682",US
76012,Arlington,TX,"2,14,81,79,72,682",US
76013,Arlington,TX,"8,17,972",US
76014,Arlington,TX,"8,17,682",US
76015,Arlington,TX,"97,28,17,214",US
76016,Arlington,TX,"81,79,72,713",US
76017,Arlington,TX,"8,17,972",US
76018,Arlington,TX,"8,17,214",US
76019,Arlington,TX,817,US
76020,Azle,TX,817,US
76021,Bedford,TX,817,US
76022,Bedford,TX,817,US
76023,Boyd,TX,"9,40,817",US
76028,Burleson,TX,"8,17,713",US
76031,Cleburne,TX,"8,17,682",US
76033,Cleburne,TX,"8,17,972",US
76034,Colleyville,TX,"8,17,682",US
76035,Cresson,TX,817,US
76036,Crowley,TX,"8,17,972",US
76039,Euless,TX,"8,17,21,46,82,972",US
76040,Euless,TX,"81,72,14,940",US
76041,Forreston,TX,972,US
76043,Glen Rose,TX,254,US
76044,Godley,TX,817,US
76048,Granbury,TX,"8,17,682",US
76049,Granbury,TX,"8,17,682",US
76050,Grandview,TX,"81,72,54,972",US
76051,Grapevine,TX,"81,79,72,469",US
76052,Haslet,TX,817,US
76053,Hurst,TX,"8,17,682",US
76054,Hurst,TX,817,US
76055,Itasca,TX,254,US
76058,Joshua,TX,817,US
76059,Keene,TX,817,US
76060,Kennedale,TX,"81,72,14,682",US
76061,Lillian,TX,682,US
76063,Mansfield,TX,"8,17,68,25,12,972",US
76064,Maypearl,TX,"9,72,469",US
76065,Midlothian,TX,"9,72,21,48,17,469",US
76066,Millsap,TX,"9,40,817",US
76067,Mineral Wells,TX,"9,40,817",US
76068,Mineral Wells,TX,940,US
76070,Nemo,TX,254,US
76071,Newark,TX,817,US
76073,Paradise,TX,"9,40,817",US
76077,Rainbow,TX,254,US
76078,Rhome,TX,"8,17,940",US
76082,Springtown,TX,817,US
76084,Venus,TX,"9,72,469",US
76085,Weatherford,TX,"8,17,682",US
76086,Weatherford,TX,"8,17,682",US
76087,Weatherford,TX,817,US
76088,Weatherford,TX,"81,79,40,682",US
76092,Southlake,TX,"81,72,14,682",US
76093,Rio Vista,TX,817,US
76094,Arlington,TX,817,US
76095,Bedford,TX,817,US
76096,Arlington,TX,"8,17,214",US
76097,Burleson,TX,817,US
76098,Azle,TX,817,US
76099,Grapevine,TX,"8,17,972",US
76101,Fort Worth,TX,"6,82,817",US
76102,Fort Worth,TX,"8,17,682",US
76103,Fort Worth,TX,"6,82,817",US
76104,Fort Worth,TX,"8,17,682",US
76105,Fort Worth,TX,"8,17,682",US
76106,Fort Worth,TX,"8,17,682",US
76107,Fort Worth,TX,"8,17,682",US
76108,Fort Worth,TX,817,US
76109,Fort Worth,TX,"9,72,817",US
76110,Fort Worth,TX,"8,17,682",US
76111,Fort Worth,TX,"8,17,682",US
76112,Fort Worth,TX,"81,72,14,682",US
76113,Fort Worth,TX,682,US
76114,Fort Worth,TX,817,US
76115,Fort Worth,TX,"8,17,682",US
76116,Fort Worth,TX,"81,72,14,972",US
76117,Haltom City,TX,"6,82,817",US
76118,Fort Worth,TX,817,US
76119,Fort Worth,TX,"68,28,17,214",US
76120,Fort Worth,TX,"81,79,72,682",US
76121,Fort Worth,TX,817,US
76122,Fort Worth,TX,682,US
76123,Fort Worth,TX,817,US
76124,Fort Worth,TX,817,US
76126,Fort Worth,TX,817,US
76127,Naval Air Station/ Jrb,TX,817,US
76129,Fort Worth,TX,817,US
76130,Fort Worth,TX,682,US
76131,Fort Worth,TX,817,US
76132,Fort Worth,TX,817,US
76133,Fort Worth,TX,817,US
76134,Fort Worth,TX,817,US
76135,Fort Worth,TX,"6,82,817",US
76136,Fort Worth,TX,682,US
76137,Fort Worth,TX,"81,79,72,682",US
76140,Fort Worth,TX,"8,17,682",US
76147,Fort Worth,TX,817,US
76148,Fort Worth,TX,"8,17,214",US
76150,Fort Worth,TX,682,US
76155,Fort Worth,TX,"81,76,82,21,44,69,972",US
76161,Fort Worth,TX,817,US
76162,Fort Worth,TX,682,US
76163,Fort Worth,TX,682,US
76164,Fort Worth,TX,682,US
76166,Fort Worth,TX,682,US
76177,Fort Worth,TX,"8,17,682",US
76179,Fort Worth,TX,"8,17,682",US
76180,North Richland Hills,TX,"8,17,682",US
76181,Fort Worth,TX,682,US
76182,North Richland Hills,TX,817,US
76185,Fort Worth,TX,817,US
76191,Fort Worth,TX,682,US
76192,Fort Worth,TX,682,US
76193,Fort Worth,TX,682,US
76195,Fort Worth,TX,682,US
76196,Fort Worth,TX,817,US
76197,Fort Worth,TX,682,US
76198,Fort Worth,TX,682,US
76199,Fort Worth,TX,682,US
76201,Denton,TX,"9,40,21,49,72,817",US
76202,Denton,TX,"8,17,940",US
76203,Denton,TX,817,US
76204,Denton,TX,940,US
76205,Denton,TX,"81,79,40,682",US
76206,Denton,TX,940,US
76207,Denton,TX,"94,09,72,817",US
76208,Denton,TX,940,US
76209,Denton,TX,"94,06,82,817",US
76210,Denton,TX,"2,14,94,09,72,817",US
76225,Alvord,TX,"9,40,817",US
76226,Argyle,TX,"94,02,14,81,76,82,972",US
76227,Aubrey,TX,"94,02,14,972",US
76228,Bellevue,TX,940,US
76230,Bowie,TX,940,US
76233,Collinsville,TX,"9,03,817",US
76234,Decatur,TX,"9,40,817",US
76238,Era,TX,940,US
76239,Forestburg,TX,940,US
76240,Gainesville,TX,"94,02,14,903",US
76241,Gainesville,TX,940,US
76244,Keller,TX,"9,72,817",US
76245,Gordonville,TX,903,US
76246,Greenwood,TX,940,US
76247,Justin,TX,"9,40,817",US
76248,Keller,TX,"81,79,72,682",US
76249,Krum,TX,940,US
76250,Lindsay,TX,940,US
76251,Montague,TX,940,US
76252,Muenster,TX,940,US
76253,Myra,TX,940,US
76255,Nocona,TX,940,US
76258,Pilot Point,TX,"9,40,972",US
76259,Ponder,TX,940,US
76261,Ringgold,TX,940,US
76262,Roanoke,TX,"81,76,82,214",US
76263,Rosston,TX,940,US
76264,Sadler,TX,903,US
76265,Saint Jo,TX,940,US
76266,Sanger,TX,"94,02,14,817",US
76267,Slidell,TX,940,US
76268,Southmayd,TX,,US
76270,Sunset,TX,940,US
76271,Tioga,TX,940,US
76272,Valley View,TX,940,US
76273,Whitesboro,TX,"9,03,940",US
76299,Roanoke,TX,682,US
76301,Wichita Falls,TX,940,US
76302,Wichita Falls,TX,940,US
76305,Wichita Falls,TX,940,US
76306,Wichita Falls,TX,940,US
76307,Wichita Falls,TX,940,US
76308,Wichita Falls,TX,940,US
76309,Wichita Falls,TX,940,US
76310,Wichita Falls,TX,940,US
76311,Sheppard Afb,TX,940,US
76351,Archer City,TX,940,US
76352,Bluegrove,TX,940,US
76354,Burkburnett,TX,940,US
76357,Byers,TX,940,US
76360,Electra,TX,940,US
76363,Goree,TX,940,US
76364,Harrold,TX,940,US
76365,Henrietta,TX,940,US
76366,Holliday,TX,940,US
76367,Iowa Park,TX,940,US
76369,Kamay,TX,940,US
76370,Megargel,TX,940,US
76371,Munday,TX,940,US
76372,Newcastle,TX,940,US
76373,Oklaunion,TX,940,US
76374,Olney,TX,940,US
76377,Petrolia,TX,940,US
76379,Scotland,TX,940,US
76380,Seymour,TX,940,US
76384,Vernon,TX,940,US
76385,Vernon,TX,940,US
76388,Weinert,TX,940,US
76389,Windthorst,TX,940,US
76401,Stephenville,TX,254,US
76402,Stephenville,TX,254,US
76424,Breckenridge,TX,"2,54,940",US
76426,Bridgeport,TX,940,US
76427,Bryson,TX,940,US
76429,Caddo,TX,254,US
76430,Albany,TX,325,US
76431,Chico,TX,940,US
76432,Blanket,TX,"2,54,325",US
76433,Bluff Dale,TX,254,US
76435,Carbon,TX,254,US
76436,Carlton,TX,254,US
76437,Cisco,TX,"2,54,325",US
76439,Dennis,TX,,US
76442,Comanche,TX,"2,54,325",US
76443,Cross Plains,TX,254,US
76444,De Leon,TX,254,US
76445,Desdemona,TX,254,US
76446,Dublin,TX,254,US
76448,Eastland,TX,"2,54,817",US
76449,Graford,TX,940,US
76450,Graham,TX,940,US
76452,Energy,TX,,US
76453,Gordon,TX,"25,48,17,940",US
76454,Gorman,TX,254,US
76455,Gustine,TX,325,US
76457,Hico,TX,254,US
76458,Jacksboro,TX,940,US
76459,Jermyn,TX,940,US
76460,Loving,TX,940,US
76461,Lingleville,TX,254,US
76462,Lipan,TX,254,US
76463,Mingus,TX,254,US
76464,Moran,TX,325,US
76465,Morgan Mill,TX,254,US
76466,Olden,TX,254,US
76467,Paluxy,TX,254,US
76468,Proctor,TX,254,US
76469,Putnam,TX,,US
76470,Ranger,TX,254,US
76471,Rising Star,TX,254,US
76472,Santo,TX,"9,40,817",US
76474,Sidney,TX,254,US
76475,Strawn,TX,"2,54,940",US
76476,Tolar,TX,254,US
76481,South Bend,TX,940,US
76483,Throckmorton,TX,940,US
76484,Palo Pinto,TX,"9,40,817",US
76485,Peaster,TX,,US
76486,Perrin,TX,940,US
76487,Poolville,TX,"9,40,817",US
76490,Whitt,TX,940,US
76491,Woodson,TX,940,US
76501,Temple,TX,254,US
76502,Temple,TX,254,US
76503,Temple,TX,254,US
76504,Temple,TX,254,US
76505,Temple,TX,254,US
76508,Temple,TX,254,US
76511,Bartlett,TX,254,US
76513,Belton,TX,254,US
76518,Buckholts,TX,254,US
76519,Burlington,TX,254,US
76520,Cameron,TX,"25,48,17,979",US
76522,Copperas Cove,TX,"2,54,512",US
76523,Davilla,TX,254,US
76524,Eddy,TX,254,US
76525,Evant,TX,"2,54,512",US
76526,Flat,TX,254,US
76527,Florence,TX,254,US
76528,Gatesville,TX,254,US
76530,Granger,TX,512,US
76531,Hamilton,TX,"8,17,254",US
76533,Heidenheimer,TX,254,US
76534,Holland,TX,"2,54,817",US
76537,Jarrell,TX,"5,12,254",US
76538,Jonesboro,TX,254,US
76539,Kempner,TX,"5,12,254",US
76540,Killeen,TX,254,US
76541,Killeen,TX,254,US
76542,Killeen,TX,"8,17,254",US
76543,Killeen,TX,"2,54,512",US
76544,Fort Hood,TX,254,US
76545,Killeen,TX,254,US
76546,Killeen,TX,254,US
76547,Killeen,TX,254,US
76548,Harker Heights,TX,"2,54,214",US
76549,Killeen,TX,"2,54,512",US
76550,Lampasas,TX,512,US
76554,Little River Academy,TX,254,US
76556,Milano,TX,512,US
76557,Moody,TX,254,US
76558,Mound,TX,254,US
76559,Nolanville,TX,254,US
76561,Oglesby,TX,254,US
76564,Pendleton,TX,254,US
76565,Pottsville,TX,"2,54,325",US
76566,Purmela,TX,254,US
76567,Rockdale,TX,512,US
76569,Rogers,TX,254,US
76570,Rosebud,TX,254,US
76571,Salado,TX,254,US
76573,Schwertner,TX,254,US
76574,Taylor,TX,512,US
76577,Thorndale,TX,"5,12,254",US
76578,Thrall,TX,512,US
76579,Troy,TX,254,US
76596,Gatesville,TX,254,US
76597,Gatesville,TX,254,US
76598,Gatesville,TX,254,US
76599,Gatesville,TX,254,US
76621,Abbott,TX,254,US
76622,Aquilla,TX,254,US
76623,Avalon,TX,972,US
76624,Axtell,TX,254,US
76626,Blooming Grove,TX,903,US
76627,Blum,TX,254,US
76628,Brandon,TX,254,US
76629,Bremond,TX,254,US
76630,Bruceville,TX,254,US
76631,Bynum,TX,254,US
76632,Chilton,TX,254,US
76633,China Spring,TX,254,US
76634,Clifton,TX,254,US
76635,Coolidge,TX,254,US
76636,Covington,TX,254,US
76637,Cranfills Gap,TX,254,US
76638,Crawford,TX,254,US
76639,Dawson,TX,"2,54,903",US
76640,Elm Mott,TX,254,US
76641,Frost,TX,"9,03,254",US
76642,Groesbeck,TX,254,US
76643,Hewitt,TX,"2,54,512",US
76644,Laguna Park,TX,254,US
76645,Hillsboro,TX,"2,54,972",US
76648,Hubbard,TX,254,US
76649,Iredell,TX,254,US
76650,Irene,TX,254,US
76651,Italy,TX,"9,72,469",US
76652,Kopperl,TX,254,US
76653,Kosse,TX,254,US
76654,Leroy,TX,254,US
76655,Lorena,TX,254,US
76656,Lott,TX,254,US
76657,Mc Gregor,TX,254,US
76660,Malone,TX,254,US
76661,Marlin,TX,254,US
76664,Mart,TX,254,US
76665,Meridian,TX,254,US
76666,Mertens,TX,903,US
76667,Mexia,TX,254,US
76670,Milford,TX,"9,72,469",US
76671,Morgan,TX,"2,54,817",US
76673,Mount Calm,TX,254,US
76676,Penelope,TX,254,US
76678,Prairie Hill,TX,254,US
76679,Purdon,TX,"9,03,254",US
76680,Reagan,TX,254,US
76681,Richland,TX,903,US
76682,Riesel,TX,254,US
76684,Ross,TX,254,US
76685,Satin,TX,254,US
76686,Tehuacana,TX,254,US
76687,Thornton,TX,254,US
76689,Valley Mills,TX,254,US
76690,Walnut Springs,TX,254,US
76691,West,TX,254,US
76692,Whitney,TX,254,US
76693,Wortham,TX,254,US
76701,Waco,TX,254,US
76702,Waco,TX,254,US
76703,Waco,TX,254,US
76704,Waco,TX,"8,17,254",US
76705,Waco,TX,254,US
76706,Waco,TX,254,US
76707,Waco,TX,254,US
76708,Waco,TX,254,US
76710,Waco,TX,"2,54,281",US
76711,Waco,TX,254,US
76712,Woodway,TX,254,US
76714,Waco,TX,254,US
76715,Waco,TX,254,US
76716,Waco,TX,254,US
76795,Waco,TX,254,US
76797,Waco,TX,254,US
76798,Waco,TX,254,US
76799,Waco,TX,254,US
76801,Brownwood,TX,325,US
76802,Early,TX,325,US
76803,Brownwood,TX,325,US
76804,Brownwood,TX,325,US
76820,Art,TX,325,US
76821,Ballinger,TX,325,US
76823,Bangs,TX,325,US
76824,Bend,TX,325,US
76825,Brady,TX,325,US
76827,Brookesmith,TX,,US
76828,Burkett,TX,325,US
76831,Castell,TX,325,US
76832,Cherokee,TX,325,US
76834,Coleman,TX,325,US
76836,Doole,TX,325,US
76837,Eden,TX,325,US
76841,Fort Mc Kavett,TX,325,US
76842,Fredonia,TX,325,US
76844,Goldthwaite,TX,325,US
76845,Gouldbusk,TX,325,US
76848,Hext,TX,325,US
76849,Junction,TX,"8,30,325",US
76852,Lohn,TX,325,US
76853,Lometa,TX,"5,12,325",US
76854,London,TX,325,US
76855,Lowake,TX,325,US
76856,Mason,TX,"8,30,325",US
76857,May,TX,254,US
76858,Melvin,TX,325,US
76859,Menard,TX,325,US
76861,Miles,TX,325,US
76862,Millersview,TX,325,US
76864,Mullin,TX,325,US
76865,Norton,TX,325,US
76866,Paint Rock,TX,325,US
76869,Pontotoc,TX,325,US
76870,Priddy,TX,325,US
76871,Richland Springs,TX,325,US
76872,Rochelle,TX,325,US
76873,Rockwood,TX,325,US
76874,Roosevelt,TX,325,US
76875,Rowena,TX,325,US
76877,San Saba,TX,325,US
76878,Santa Anna,TX,325,US
76880,Star,TX,325,US
76882,Talpa,TX,325,US
76883,Telegraph,TX,,US
76884,Valera,TX,325,US
76885,Valley Spring,TX,325,US
76886,Veribest,TX,325,US
76887,Voca,TX,325,US
76888,Voss,TX,325,US
76890,Zephyr,TX,"2,54,325",US
76901,San Angelo,TX,325,US
76902,San Angelo,TX,325,US
76903,San Angelo,TX,325,US
76904,San Angelo,TX,325,US
76905,San Angelo,TX,325,US
76906,San Angelo,TX,325,US
76908,Goodfellow Afb,TX,325,US
76909,San Angelo,TX,325,US
76930,Barnhart,TX,325,US
76932,Big Lake,TX,325,US
76933,Bronte,TX,325,US
76934,Carlsbad,TX,325,US
76935,Christoval,TX,325,US
76936,Eldorado,TX,325,US
76937,Eola,TX,325,US
76939,Knickerbocker,TX,325,US
76940,Mereta,TX,325,US
76941,Mertzon,TX,325,US
76943,Ozona,TX,"3,25,432",US
76945,Robert Lee,TX,325,US
76949,Silver,TX,325,US
76950,Sonora,TX,325,US
76951,Sterling City,TX,325,US
76953,Tennyson,TX,325,US
76955,Vancourt,TX,325,US
76957,Wall,TX,325,US
76958,Water Valley,TX,325,US
77001,Houston,TX,"28,17,13,832",US
77002,Houston,TX,"7,13,83,22,10,281",US
77003,Houston,TX,"2,81,713",US
77004,Houston,TX,"7,13,281",US
77005,Houston,TX,"7,13,28,18,32,214",US
77006,Houston,TX,"7,13,83,22,81,210",US
77007,Houston,TX,"2,81,713",US
77008,Houston,TX,"71,38,32,281",US
77009,Houston,TX,"2,81,71,38,32,512",US
77010,Houston,TX,"28,17,13,832",US
77011,Houston,TX,"7,13,281",US
77012,Houston,TX,"7,13,281",US
77013,Houston,TX,"83,27,13,281",US
77014,Houston,TX,"28,17,13,832",US
77015,Houston,TX,"28,17,13,832",US
77016,Houston,TX,"7,13,281",US
77017,Houston,TX,"71,38,32,281",US
77018,Houston,TX,"71,32,81,832",US
77019,Houston,TX,"71,32,81,832",US
77020,Houston,TX,"2,81,713",US
77021,Houston,TX,"2,81,713",US
77022,Houston,TX,"71,32,81,512",US
77023,Houston,TX,"7,13,281",US
77024,Houston,TX,"7,13,28,18,32,972",US
77025,Houston,TX,"28,17,13,832",US
77026,Houston,TX,"2,81,713",US
77027,Houston,TX,"2,81,713",US
77028,Houston,TX,"83,27,13,281",US
77029,Houston,TX,"28,17,13,832",US
77030,Houston,TX,"28,17,13,832",US
77031,Houston,TX,"7,13,97,92,81,832",US
77032,Houston,TX,"28,17,13,832",US
77033,Houston,TX,"2,81,713",US
77034,Houston,TX,"2,81,713",US
77035,Houston,TX,"7,13,281",US
77036,Houston,TX,"71,32,81,832",US
77037,Houston,TX,"7,13,281",US
77038,Houston,TX,"28,17,13,832",US
77039,Houston,TX,"28,17,13,832",US
77040,Houston,TX,"7,13,97,92,81,832",US
77041,Houston,TX,"28,17,13,832",US
77042,Houston,TX,"71,32,81,832",US
77043,Houston,TX,"83,22,81,713",US
77044,Houston,TX,"71,38,32,281",US
77045,Houston,TX,"2,81,713",US
77046,Houston,TX,"71,32,81,832",US
77047,Houston,TX,"2,81,713",US
77048,Houston,TX,"7,13,281",US
77049,Houston,TX,"83,27,13,281",US
77050,Houston,TX,281,US
77051,Houston,TX,"71,38,32,281",US
77052,Houston,TX,713,US
77053,Houston,TX,"71,32,81,832",US
77054,Houston,TX,"71,32,81,832",US
77055,Houston,TX,"71,38,32,281",US
77056,Houston,TX,"28,17,13,832",US
77057,Houston,TX,"28,18,32,713",US
77058,Houston,TX,"28,17,13,832",US
77059,Houston,TX,"28,17,13,832",US
77060,Houston,TX,"28,17,13,832",US
77061,Houston,TX,"71,38,32,281",US
77062,Houston,TX,"7,13,281",US
77063,Houston,TX,"7,13,28,18,32,936",US
77064,Houston,TX,"2,81,71,38,32,972",US
77065,Houston,TX,"28,17,13,832",US
77066,Houston,TX,"83,22,81,713",US
77067,Houston,TX,"71,32,81,832",US
77068,Houston,TX,"28,18,32,713",US
77069,Houston,TX,"83,22,81,713",US
77070,Houston,TX,"28,18,32,713",US
77071,Houston,TX,"71,38,32,281",US
77072,Houston,TX,"71,32,81,832",US
77073,Houston,TX,"28,18,32,713",US
77074,Houston,TX,"7,13,281",US
77075,Houston,TX,"71,32,81,832",US
77076,Houston,TX,"28,17,13,832",US
77077,Houston,TX,"2,81,71,38,32,512",US
77078,Houston,TX,"2,81,713",US
77079,Houston,TX,"71,32,81,832",US
77080,Houston,TX,"28,18,32,713",US
77081,Houston,TX,"28,17,13,832",US
77082,Houston,TX,"28,18,32,713",US
77083,Houston,TX,"2,81,71,38,32,972",US
77084,Houston,TX,"28,17,13,832",US
77085,Houston,TX,"7,13,281",US
77086,Houston,TX,"2,81,832",US
77087,Houston,TX,"2,81,713",US
77088,Houston,TX,"28,17,13,832",US
77089,Houston,TX,"28,17,13,832",US
77090,Houston,TX,"7,13,28,18,32,936",US
77091,Houston,TX,"71,38,32,281",US
77092,Houston,TX,"71,32,81,832",US
77093,Houston,TX,"28,18,32,713",US
77094,Houston,TX,"7,13,281",US
77095,Houston,TX,"28,18,32,713",US
77096,Houston,TX,"7,13,281",US
77097,Houston,TX,713,US
77098,Houston,TX,"7,13,28,18,32,936",US
77099,Houston,TX,"28,18,32,713",US
77201,Houston,TX,"7,13,832",US
77202,Houston,TX,713,US
77203,Houston,TX,713,US
77204,Houston,TX,713,US
77205,Houston,TX,713,US
77206,Houston,TX,713,US
77207,Houston,TX,713,US
77208,Houston,TX,713,US
77209,Houston,TX,713,US
77210,Houston,TX,713,US
77212,Houston,TX,713,US
77213,Houston,TX,713,US
77215,Houston,TX,713,US
77216,Houston,TX,713,US
77217,Houston,TX,713,US
77218,Houston,TX,713,US
77219,Houston,TX,713,US
77220,Houston,TX,713,US
77221,Houston,TX,713,US
77222,Houston,TX,713,US
77223,Houston,TX,713,US
77224,Houston,TX,713,US
77225,Houston,TX,713,US
77226,Houston,TX,713,US
77227,Houston,TX,713,US
77228,Houston,TX,713,US
77229,Houston,TX,713,US
77230,Houston,TX,713,US
77231,Houston,TX,713,US
77233,Houston,TX,"7,13,210",US
77234,Houston,TX,713,US
77235,Houston,TX,713,US
77236,Houston,TX,713,US
77237,Houston,TX,713,US
77238,Houston,TX,713,US
77240,Houston,TX,713,US
77241,Houston,TX,713,US
77242,Houston,TX,"7,13,281",US
77243,Houston,TX,713,US
77244,Houston,TX,713,US
77245,Houston,TX,713,US
77246,Houston,TX,713,US
77247,Houston,TX,713,US
77248,Houston,TX,713,US
77249,Houston,TX,713,US
77250,Houston,TX,713,US
77251,Houston,TX,"7,13,281",US
77252,Houston,TX,"2,81,713",US
77253,Houston,TX,"8,32,713",US
77254,Houston,TX,713,US
77255,Houston,TX,713,US
77256,Houston,TX,713,US
77257,Houston,TX,713,US
77258,Houston,TX,713,US
77259,Houston,TX,281,US
77260,Houston,TX,713,US
77261,Houston,TX,713,US
77262,Houston,TX,713,US
77263,Houston,TX,"7,13,281",US
77265,Houston,TX,713,US
77266,Houston,TX,"8,32,713",US
77267,Houston,TX,713,US
77268,Houston,TX,281,US
77269,Houston,TX,"2,81,713",US
77270,Houston,TX,713,US
77271,Houston,TX,713,US
77272,Houston,TX,"7,13,281",US
77273,Houston,TX,281,US
77274,Houston,TX,281,US
77275,Houston,TX,713,US
77276,Houston,TX,713,US
77277,Houston,TX,"2,81,713",US
77278,Houston,TX,713,US
77279,Houston,TX,713,US
77280,Houston,TX,713,US
77282,Houston,TX,"2,14,281",US
77284,Houston,TX,"7,13,281",US
77285,Houston,TX,713,US
77286,Houston,TX,713,US
77287,Houston,TX,713,US
77288,Houston,TX,713,US
77289,Houston,TX,713,US
77290,Houston,TX,281,US
77291,Houston,TX,713,US
77292,Houston,TX,"2,81,713",US
77293,Houston,TX,281,US
77294,Houston,TX,713,US
77296,Houston,TX,713,US
77297,Houston,TX,713,US
77298,Houston,TX,713,US
77299,Houston,TX,713,US
77301,Conroe,TX,"4,09,93,62,81,713",US
77302,Conroe,TX,"2,81,936",US
77303,Conroe,TX,"9,36,713",US
77304,Conroe,TX,"9,79,93,62,81,713",US
77305,Conroe,TX,936,US
77306,Conroe,TX,"9,36,281",US
77315,North Houston,TX,713,US
77316,Montgomery,TX,"9,36,713",US
77318,Willis,TX,"93,67,13,281",US
77320,Huntsville,TX,936,US
77325,Kingwood,TX,713,US
77326,Ace,TX,936,US
77327,Cleveland,TX,"28,19,36,832",US
77328,Cleveland,TX,"93,62,81,832",US
77331,Coldspring,TX,936,US
77332,Dallardsville,TX,936,US
77333,Dobbin,TX,936,US
77334,Dodge,TX,936,US
77335,Goodrich,TX,936,US
77336,Huffman,TX,"2,81,713",US
77337,Hufsmith,TX,713,US
77338,Humble,TX,"2,81,713",US
77339,Kingwood,TX,"28,17,13,832",US
77340,Huntsville,TX,"4,09,936",US
77341,Huntsville,TX,936,US
77342,Huntsville,TX,936,US
77343,Huntsville,TX,936,US
77344,Huntsville,TX,936,US
77345,Kingwood,TX,"2,81,713",US
77346,Humble,TX,"2,81,713",US
77347,Humble,TX,"2,81,713",US
77348,Huntsville,TX,936,US
77349,Huntsville,TX,936,US
77350,Leggett,TX,936,US
77351,Livingston,TX,"9,36,832",US
77353,Magnolia,TX,713,US
77354,Magnolia,TX,"8,32,28,17,13,936",US
77355,Magnolia,TX,"83,22,81,936",US
77356,Montgomery,TX,"93,68,32,281",US
77357,New Caney,TX,"2,81,832",US
77358,New Waverly,TX,936,US
77359,Oakhurst,TX,936,US
77360,Onalaska,TX,"9,36,409",US
77362,Pinehurst,TX,"2,81,832",US
77363,Plantersville,TX,936,US
77364,Pointblank,TX,936,US
77365,Porter,TX,"28,19,36,832",US
77367,Riverside,TX,936,US
77368,Romayor,TX,,US
77369,Rye,TX,936,US
77371,Shepherd,TX,"93,62,81,832",US
77372,Splendora,TX,"28,17,13,832",US
77373,Spring,TX,"28,18,32,713",US
77374,Thicket,TX,409,US
77375,Tomball,TX,"28,18,32,713",US
77376,Votaw,TX,936,US
77377,Tomball,TX,"7,13,281",US
77378,Willis,TX,936,US
77379,Spring,TX,"28,17,13,832",US
77380,Spring,TX,"28,17,13,832",US
77381,Spring,TX,"2,81,93,67,13,832",US
77382,Spring,TX,"9,36,71,32,81,832",US
77383,Spring,TX,"2,81,832",US
77384,Conroe,TX,"9,36,281",US
77385,Conroe,TX,"93,62,81,832",US
77386,Spring,TX,"83,27,13,281",US
77387,Spring,TX,713,US
77388,Spring,TX,"2,81,40,97,13,832",US
77389,Spring,TX,"8,32,281",US
77391,Spring,TX,"9,36,281",US
77393,Spring,TX,281,US
77396,Humble,TX,"2,81,832",US
77399,Livingston,TX,281,US
77401,Bellaire,TX,"7,13,281",US
77402,Bellaire,TX,713,US
77404,Bay City,TX,979,US
77406,Richmond,TX,713,US
77407,Richmond,TX,713,US
77410,Cypress,TX,281,US
77411,Alief,TX,"8,32,281",US
77412,Altair,TX,979,US
77413,Barker,TX,281,US
77414,Bay City,TX,"9,79,281",US
77415,Cedar Lane,TX,,US
77417,Beasley,TX,"97,92,81,832",US
77418,Bellville,TX,979,US
77419,Blessing,TX,361,US
77420,Boling,TX,979,US
77422,Brazoria,TX,"9,79,713",US
77423,Brookshire,TX,"28,17,13,832",US
77426,Chappell Hill,TX,979,US
77428,Collegeport,TX,,US
77429,Cypress,TX,"28,17,13,832",US
77430,Damon,TX,"9,79,281",US
77431,Danciger,TX,713,US
77432,Danevang,TX,"9,79,361",US
77433,Cypress,TX,"2,81,832",US
77434,Eagle Lake,TX,979,US
77435,East Bernard,TX,979,US
77436,Egypt,TX,979,US
77437,El Campo,TX,979,US
77440,Elmaton,TX,361,US
77441,Fulshear,TX,"2,81,713",US
77442,Garwood,TX,979,US
77443,Glen Flora,TX,979,US
77444,Guy,TX,979,US
77445,Hempstead,TX,"97,94,09,936",US
77446,Prairie View,TX,"9,36,979",US
77447,Hockley,TX,"4,09,93,62,81,713",US
77448,Hungerford,TX,979,US
77449,Katy,TX,"28,17,13,832",US
77450,Katy,TX,"28,18,32,713",US
77451,Kendleton,TX,979,US
77452,Kenney,TX,979,US
77453,Lane City,TX,979,US
77454,Lissie,TX,979,US
77455,Louise,TX,"93,69,79,361",US
77456,Markham,TX,979,US
77457,Matagorda,TX,979,US
77458,Midfield,TX,361,US
77459,Missouri City,TX,"83,22,81,713",US
77460,Nada,TX,979,US
77461,Needville,TX,979,US
77463,Old Ocean,TX,979,US
77464,Orchard,TX,"7,13,979",US
77465,Palacios,TX,361,US
77466,Pattison,TX,,US
77467,Pierce,TX,979,US
77468,Pledger,TX,979,US
77469,Richmond,TX,"28,18,32,713",US
77470,Rock Island,TX,979,US
77471,Rosenberg,TX,"28,17,13,832",US
77473,San Felipe,TX,979,US
77474,Sealy,TX,"9,79,713",US
77475,Sheridan,TX,979,US
77476,Simonton,TX,281,US
77477,Stafford,TX,"28,18,32,713",US
77478,Sugar Land,TX,"28,18,32,713",US
77479,Sugar Land,TX,"28,18,32,713",US
77480,Sweeny,TX,979,US
77481,Thompsons,TX,,US
77482,Van Vleck,TX,979,US
77483,Wadsworth,TX,979,US
77484,Waller,TX,"4,09,93,67,13,979",US
77485,Wallis,TX,"9,36,97,92,81,832",US
77486,West Columbia,TX,979,US
77487,Sugar Land,TX,281,US
77488,Wharton,TX,"4,09,979",US
77489,Missouri City,TX,"28,17,13,832",US
77491,Katy,TX,281,US
77492,Katy,TX,281,US
77493,Katy,TX,"2,81,832",US
77494,Katy,TX,"2,81,832",US
77496,Sugar Land,TX,713,US
77497,Stafford,TX,281,US
77498,Sugar Land,TX,713,US
77501,Pasadena,TX,713,US
77502,Pasadena,TX,"2,81,713",US
77503,Pasadena,TX,"7,13,281",US
77504,Pasadena,TX,"7,13,281",US
77505,Pasadena,TX,"2,81,713",US
77506,Pasadena,TX,"7,13,281",US
77507,Pasadena,TX,"2,81,713",US
77508,Pasadena,TX,713,US
77510,Santa Fe,TX,"40,99,79,713",US
77511,Alvin,TX,"2,81,40,97,13,832",US
77512,Alvin,TX,"2,81,713",US
77514,Anahuac,TX,409,US
77515,Angleton,TX,"71,39,79,281",US
77516,Angleton,TX,979,US
77517,Santa Fe,TX,"8,32,409",US
77518,Bacliff,TX,281,US
77519,Batson,TX,936,US
77520,Baytown,TX,"83,02,81,832",US
77521,Baytown,TX,"28,18,32,713",US
77522,Baytown,TX,281,US
77523,Baytown,TX,713,US
77530,Channelview,TX,"28,17,13,832",US
77531,Clute,TX,"9,36,979",US
77532,Crosby,TX,"28,17,13,832",US
77533,Daisetta,TX,936,US
77534,Danbury,TX,"9,79,214",US
77535,Dayton,TX,"9,36,281",US
77536,Deer Park,TX,"28,18,32,713",US
77538,Devers,TX,"9,36,409",US
77539,Dickinson,TX,"28,17,13,832",US
77541,Freeport,TX,"9,79,281",US
77542,Freeport,TX,979,US
77545,Fresno,TX,"2,81,832",US
77546,Friendswood,TX,"71,32,81,832",US
77547,Galena Park,TX,"7,13,281",US
77549,Friendswood,TX,"7,13,281",US
77550,Galveston,TX,"4,09,281",US
77551,Galveston,TX,"4,09,713",US
77552,Galveston,TX,409,US
77553,Galveston,TX,"9,79,409",US
77554,Galveston,TX,"4,09,281",US
77555,Galveston,TX,409,US
77560,Hankamer,TX,409,US
77561,Hardin,TX,936,US
77562,Highlands,TX,"2,81,713",US
77563,Hitchcock,TX,"71,34,09,281",US
77564,Hull,TX,936,US
77565,Kemah,TX,"2,81,832",US
77566,Lake Jackson,TX,979,US
77568,La Marque,TX,409,US
77571,La Porte,TX,"28,17,13,832",US
77572,La Porte,TX,281,US
77573,League City,TX,"83,22,81,713",US
77574,League City,TX,281,US
77575,Liberty,TX,"93,67,13,409",US
77577,Liverpool,TX,"2,81,832",US
77578,Manvel,TX,"2,81,832",US
77580,Mont Belvieu,TX,281,US
77581,Pearland,TX,"28,18,32,713",US
77582,Raywood,TX,936,US
77583,Rosharon,TX,"2,81,832",US
77584,Pearland,TX,"83,27,13,281",US
77585,Saratoga,TX,936,US
77586,Seabrook,TX,"28,17,13,832",US
77587,South Houston,TX,"7,13,281",US
77588,Pearland,TX,281,US
77590,Texas City,TX,"4,09,281",US
77591,Texas City,TX,409,US
77592,Texas City,TX,409,US
77597,Wallisville,TX,"4,09,281",US
77598,Webster,TX,"28,17,13,832",US
77611,Bridge City,TX,409,US
77612,Buna,TX,409,US
77613,China,TX,409,US
77614,Deweyville,TX,409,US
77615,Evadale,TX,409,US
77616,Fred,TX,409,US
77617,Gilchrist,TX,409,US
77619,Groves,TX,409,US
77622,Hamshire,TX,409,US
77623,High Island,TX,409,US
77624,Hillister,TX,409,US
77625,Kountze,TX,409,US
77626,Mauriceville,TX,409,US
77627,Nederland,TX,409,US
77629,Nome,TX,409,US
77630,Orange,TX,409,US
77631,Orange,TX,409,US
77632,Orange,TX,409,US
77639,Orangefield,TX,409,US
77640,Port Arthur,TX,409,US
77641,Port Arthur,TX,409,US
77642,Port Arthur,TX,409,US
77643,Port Arthur,TX,409,US
77650,Port Bolivar,TX,409,US
77651,Port Neches,TX,409,US
77655,Sabine Pass,TX,409,US
77656,Silsbee,TX,409,US
77657,Lumberton,TX,409,US
77659,Sour Lake,TX,409,US
77660,Spurger,TX,409,US
77661,Stowell,TX,409,US
77662,Vidor,TX,409,US
77663,Village Mills,TX,409,US
77664,Warren,TX,409,US
77665,Winnie,TX,409,US
77670,Vidor,TX,409,US
77701,Beaumont,TX,409,US
77702,Beaumont,TX,"4,09,512",US
77703,Beaumont,TX,409,US
77704,Beaumont,TX,409,US
77705,Beaumont,TX,"4,09,936",US
77706,Beaumont,TX,409,US
77707,Beaumont,TX,409,US
77708,Beaumont,TX,409,US
77709,Beaumont,TX,409,US
77710,Beaumont,TX,409,US
77713,Beaumont,TX,"4,09,936",US
77720,Beaumont,TX,409,US
77725,Beaumont,TX,409,US
77726,Beaumont,TX,409,US
77801,Bryan,TX,979,US
77802,Bryan,TX,979,US
77803,Bryan,TX,979,US
77805,Bryan,TX,979,US
77806,Bryan,TX,979,US
77807,Bryan,TX,979,US
77808,Bryan,TX,979,US
77830,Anderson,TX,936,US
77831,Bedias,TX,936,US
77833,Brenham,TX,"9,79,93,65,12,469",US
77834,Brenham,TX,713,US
77835,Burton,TX,979,US
77836,Caldwell,TX,979,US
77837,Calvert,TX,979,US
77838,Chriesman,TX,979,US
77840,College Station,TX,979,US
77841,College Station,TX,979,US
77842,College Station,TX,979,US
77843,College Station,TX,979,US
77844,College Station,TX,979,US
77845,College Station,TX,"9,79,936",US
77850,Concord,TX,903,US
77852,Deanville,TX,979,US
77853,Dime Box,TX,979,US
77855,Flynn,TX,936,US
77856,Franklin,TX,979,US
77857,Gause,TX,,US
77859,Hearne,TX,979,US
77861,Iola,TX,936,US
77862,Kurten,TX,979,US
77863,Lyons,TX,979,US
77864,Madisonville,TX,"9,36,903",US
77865,Marquez,TX,"9,79,90,34,09,936",US
77866,Millican,TX,936,US
77867,Mumford,TX,,US
77868,Navasota,TX,"9,36,979",US
77869,Navasota,TX,936,US
77870,New Baden,TX,,US
77871,Normangee,TX,936,US
77872,North Zulch,TX,936,US
77873,Richards,TX,936,US
77875,Roans Prairie,TX,936,US
77876,Shiro,TX,936,US
77878,Snook,TX,979,US
77879,Somerville,TX,979,US
77880,Washington,TX,"9,36,979",US
77881,Wellborn,TX,979,US
77882,Wheelock,TX,979,US
77901,Victoria,TX,"36,15,12,713",US
77902,Victoria,TX,361,US
77903,Victoria,TX,361,US
77904,Victoria,TX,"3,61,512",US
77905,Victoria,TX,361,US
77950,Austwell,TX,361,US
77951,Bloomington,TX,361,US
77954,Cuero,TX,"3,61,830",US
77957,Edna,TX,"3,61,512",US
77960,Fannin,TX,361,US
77961,Francitas,TX,361,US
77962,Ganado,TX,"3,61,979",US
77963,Goliad,TX,361,US
77964,Hallettsville,TX,"3,61,979",US
77967,Hochheim,TX,361,US
77968,Inez,TX,361,US
77969,La Salle,TX,361,US
77970,La Ward,TX,361,US
77971,Lolita,TX,361,US
77973,Mcfaddin,TX,361,US
77974,Meyersville,TX,361,US
77975,Moulton,TX,"3,61,979",US
77976,Nursery,TX,361,US
77977,Placedo,TX,361,US
77978,Point Comfort,TX,361,US
77979,Port Lavaca,TX,361,US
77982,Port O Connor,TX,361,US
77983,Seadrift,TX,361,US
77984,Shiner,TX,361,US
77986,Sublime,TX,361,US
77987,Sweet Home,TX,361,US
77988,Telferner,TX,361,US
77989,Thomaston,TX,361,US
77990,Tivoli,TX,361,US
77991,Vanderbilt,TX,361,US
77993,Weesatche,TX,361,US
77994,Westhoff,TX,"8,30,361",US
77995,Yoakum,TX,361,US
78001,Artesia Wells,TX,830,US
78002,Atascosa,TX,"2,10,830",US
78003,Bandera,TX,830,US
78004,Bergheim,TX,830,US
78005,Bigfoot,TX,830,US
78006,Boerne,TX,"2,10,830",US
78007,Calliham,TX,361,US
78008,Campbellton,TX,"8,30,361",US
78009,Castroville,TX,"8,30,210",US
78010,Center Point,TX,830,US
78011,Charlotte,TX,830,US
78012,Christine,TX,830,US
78013,Comfort,TX,830,US
78014,Cotulla,TX,"8,30,956",US
78015,Boerne,TX,"8,30,210",US
78016,Devine,TX,"8,30,210",US
78017,Dilley,TX,830,US
78019,Encinal,TX,956,US
78021,Fowlerton,TX,830,US
78022,George West,TX,361,US
78023,Helotes,TX,"2,10,830",US
78024,Hunt,TX,830,US
78025,Ingram,TX,830,US
78026,Jourdanton,TX,830,US
78027,Kendalia,TX,830,US
78028,Kerrville,TX,830,US
78029,Kerrville,TX,830,US
78039,La Coste,TX,830,US
78040,Laredo,TX,956,US
78041,Laredo,TX,956,US
78042,Laredo,TX,956,US
78043,Laredo,TX,956,US
78044,Laredo,TX,956,US
78045,Laredo,TX,956,US
78046,Laredo,TX,956,US
78049,Laredo,TX,956,US
78050,Leming,TX,830,US
78052,Lytle,TX,"8,30,210",US
78054,Macdona,TX,210,US
78055,Medina,TX,830,US
78056,Mico,TX,830,US
78057,Moore,TX,830,US
78058,Mountain Home,TX,830,US
78059,Natalia,TX,830,US
78060,Oakville,TX,361,US
78061,Pearsall,TX,830,US
78062,Peggy,TX,830,US
78063,Pipe Creek,TX,"8,30,210",US
78064,Pleasanton,TX,830,US
78065,Poteet,TX,"8,30,210",US
78066,Rio Medina,TX,830,US
78067,San Ygnacio,TX,956,US
78069,Somerset,TX,830,US
78070,Spring Branch,TX,"8,30,210",US
78071,Three Rivers,TX,361,US
78072,Tilden,TX,"3,61,830",US
78073,Von Ormy,TX,"8,30,210",US
78074,Waring,TX,830,US
78075,Whitsett,TX,"8,30,361",US
78076,Zapata,TX,956,US
78101,Adkins,TX,"2,10,830",US
78102,Beeville,TX,361,US
78104,Beeville,TX,361,US
78107,Berclair,TX,361,US
78108,Cibolo,TX,"2,10,830",US
78109,Converse,TX,210,US
78111,Ecleto,TX,830,US
78112,Elmendorf,TX,210,US
78113,Falls City,TX,830,US
78114,Floresville,TX,"8,30,210",US
78115,Geronimo,TX,830,US
78116,Gillett,TX,830,US
78117,Hobson,TX,830,US
78118,Karnes City,TX,830,US
78119,Kenedy,TX,"8,30,361",US
78121,La Vernia,TX,"8,30,210",US
78122,Leesville,TX,830,US
78123,Mc Queeney,TX,"8,30,210",US
78124,Marion,TX,"8,30,210",US
78125,Mineral,TX,361,US
78130,New Braunfels,TX,"21,05,12,830",US
78131,New Braunfels,TX,830,US
78132,New Braunfels,TX,"8,30,210",US
78133,Canyon Lake,TX,"8,30,210",US
78135,New Braunfels,TX,830,US
78140,Nixon,TX,830,US
78141,Nordheim,TX,361,US
78142,Normanna,TX,361,US
78143,Pandora,TX,830,US
78144,Panna Maria,TX,830,US
78145,Pawnee,TX,361,US
78146,Pettus,TX,361,US
78147,Poth,TX,830,US
78148,Universal City,TX,210,US
78150,Randolph A F B,TX,210,US
78151,Runge,TX,"8,30,361",US
78152,Saint Hedwig,TX,"2,10,830",US
78154,Schertz,TX,210,US
78155,Seguin,TX,"83,02,10,512",US
78156,Seguin,TX,830,US
78159,Smiley,TX,830,US
78160,Stockdale,TX,830,US
78161,Sutherland Springs,TX,830,US
78162,Tuleta,TX,361,US
78163,Bulverde,TX,830,US
78164,Yorktown,TX,361,US
78201,San Antonio,TX,210,US
78202,San Antonio,TX,210,US
78203,San Antonio,TX,210,US
78204,San Antonio,TX,210,US
78205,San Antonio,TX,210,US
78206,San Antonio,TX,210,US
78207,San Antonio,TX,210,US
78208,San Antonio,TX,210,US
78209,San Antonio,TX,210,US
78210,San Antonio,TX,210,US
78211,San Antonio,TX,210,US
78212,San Antonio,TX,210,US
78213,San Antonio,TX,210,US
78214,San Antonio,TX,210,US
78215,San Antonio,TX,210,US
78216,San Antonio,TX,"2,10,713",US
78217,San Antonio,TX,210,US
78218,San Antonio,TX,210,US
78219,San Antonio,TX,210,US
78220,San Antonio,TX,210,US
78221,San Antonio,TX,210,US
78222,San Antonio,TX,210,US
78223,San Antonio,TX,210,US
78224,San Antonio,TX,210,US
78225,San Antonio,TX,210,US
78226,San Antonio,TX,210,US
78227,San Antonio,TX,210,US
78228,San Antonio,TX,210,US
78229,San Antonio,TX,210,US
78230,San Antonio,TX,"2,10,830",US
78231,San Antonio,TX,210,US
78232,San Antonio,TX,210,US
78233,San Antonio,TX,210,US
78234,San Antonio,TX,210,US
78235,San Antonio,TX,210,US
78236,Lackland A F B,TX,210,US
78237,San Antonio,TX,210,US
78238,San Antonio,TX,210,US
78239,San Antonio,TX,210,US
78240,San Antonio,TX,210,US
78241,San Antonio,TX,210,US
78242,San Antonio,TX,210,US
78243,San Antonio,TX,210,US
78244,San Antonio,TX,210,US
78245,San Antonio,TX,"2,10,830",US
78246,San Antonio,TX,210,US
78247,San Antonio,TX,"2,10,972",US
78248,San Antonio,TX,210,US
78249,San Antonio,TX,210,US
78250,San Antonio,TX,210,US
78251,San Antonio,TX,210,US
78252,San Antonio,TX,"2,10,830",US
78253,San Antonio,TX,"2,10,830",US
78254,San Antonio,TX,210,US
78255,San Antonio,TX,"2,10,830",US
78256,San Antonio,TX,210,US
78257,San Antonio,TX,210,US
78258,San Antonio,TX,"2,10,830",US
78259,San Antonio,TX,210,US
78260,San Antonio,TX,"2,10,830",US
78261,San Antonio,TX,830,US
78262,San Antonio,TX,210,US
78263,San Antonio,TX,210,US
78264,San Antonio,TX,210,US
78265,San Antonio,TX,210,US
78266,San Antonio,TX,210,US
78268,San Antonio,TX,210,US
78269,San Antonio,TX,"8,30,210",US
78270,San Antonio,TX,210,US
78275,San Antonio,TX,210,US
78278,San Antonio,TX,210,US
78279,San Antonio,TX,210,US
78280,San Antonio,TX,210,US
78283,San Antonio,TX,210,US
78284,San Antonio,TX,210,US
78285,San Antonio,TX,210,US
78286,San Antonio,TX,210,US
78287,San Antonio,TX,210,US
78288,San Antonio,TX,210,US
78289,San Antonio,TX,210,US
78291,San Antonio,TX,210,US
78292,San Antonio,TX,210,US
78293,San Antonio,TX,210,US
78294,San Antonio,TX,210,US
78295,San Antonio,TX,210,US
78296,San Antonio,TX,210,US
78297,San Antonio,TX,210,US
78298,San Antonio,TX,210,US
78299,San Antonio,TX,210,US
78330,Agua Dulce,TX,361,US
78332,Alice,TX,361,US
78333,Alice,TX,361,US
78335,Aransas Pass,TX,361,US
78336,Aransas Pass,TX,361,US
78338,Armstrong,TX,361,US
78339,Banquete,TX,361,US
78340,Bayside,TX,361,US
78341,Benavides,TX,361,US
78342,Ben Bolt,TX,361,US
78343,Bishop,TX,361,US
78344,Bruni,TX,361,US
78347,Chapman Ranch,TX,361,US
78349,Concepcion,TX,361,US
78350,Dinero,TX,361,US
78351,Driscoll,TX,361,US
78352,Edroy,TX,361,US
78353,Encino,TX,361,US
78355,Falfurrias,TX,361,US
78357,Freer,TX,361,US
78358,Fulton,TX,361,US
78359,Gregory,TX,361,US
78360,Guerra,TX,,US
78361,Hebbronville,TX,361,US
78362,Ingleside,TX,361,US
78363,Kingsville,TX,361,US
78364,Kingsville,TX,361,US
78368,Mathis,TX,361,US
78369,Mirando City,TX,361,US
78370,Odem,TX,361,US
78371,Oilton,TX,361,US
78372,Orange Grove,TX,361,US
78373,Port Aransas,TX,361,US
78374,Portland,TX,361,US
78375,Premont,TX,361,US
78376,Realitos,TX,361,US
78377,Refugio,TX,361,US
78379,Riviera,TX,361,US
78380,Robstown,TX,361,US
78381,Rockport,TX,361,US
78382,Rockport,TX,361,US
78383,Sandia,TX,361,US
78384,San Diego,TX,361,US
78385,Sarita,TX,361,US
78387,Sinton,TX,361,US
78389,Skidmore,TX,361,US
78390,Taft,TX,361,US
78391,Tynan,TX,361,US
78393,Woodsboro,TX,361,US
78401,Corpus Christi,TX,361,US
78402,Corpus Christi,TX,361,US
78403,Corpus Christi,TX,361,US
78404,Corpus Christi,TX,361,US
78405,Corpus Christi,TX,361,US
78406,Corpus Christi,TX,361,US
78407,Corpus Christi,TX,361,US
78408,Corpus Christi,TX,361,US
78409,Corpus Christi,TX,361,US
78410,Corpus Christi,TX,361,US
78411,Corpus Christi,TX,"3,61,512",US
78412,Corpus Christi,TX,"5,12,361",US
78413,Corpus Christi,TX,361,US
78414,Corpus Christi,TX,361,US
78415,Corpus Christi,TX,361,US
78416,Corpus Christi,TX,361,US
78417,Corpus Christi,TX,361,US
78418,Corpus Christi,TX,361,US
78419,Corpus Christi,TX,361,US
78426,Corpus Christi,TX,361,US
78427,Corpus Christi,TX,361,US
78460,Corpus Christi,TX,"5,12,361",US
78461,Corpus Christi,TX,361,US
78463,Corpus Christi,TX,361,US
78465,Corpus Christi,TX,361,US
78466,Corpus Christi,TX,361,US
78467,Corpus Christi,TX,361,US
78468,Corpus Christi,TX,361,US
78469,Corpus Christi,TX,361,US
78470,Corpus Christi,TX,361,US
78471,Corpus Christi,TX,361,US
78472,Corpus Christi,TX,361,US
78473,Corpus Christi,TX,361,US
78474,Corpus Christi,TX,361,US
78475,Corpus Christi,TX,361,US
78476,Corpus Christi,TX,361,US
78477,Corpus Christi,TX,361,US
78478,Corpus Christi,TX,361,US
78480,Corpus Christi,TX,361,US
78501,Mcallen,TX,956,US
78502,Mcallen,TX,956,US
78503,Mcallen,TX,956,US
78504,Mcallen,TX,"9,56,817",US
78505,Mcallen,TX,956,US
78516,Alamo,TX,956,US
78520,Brownsville,TX,956,US
78521,Brownsville,TX,956,US
78522,Brownsville,TX,956,US
78523,Brownsville,TX,956,US
78526,Brownsville,TX,956,US
78535,Combes,TX,956,US
78536,Delmita,TX,956,US
78537,Donna,TX,956,US
78538,Edcouch,TX,956,US
78539,Edinburg,TX,"9,56,210",US
78540,Edinburg,TX,956,US
78541,Edinburg,TX,956,US
78542,Edinburg,TX,956,US
78543,Elsa,TX,956,US
78545,Falcon Heights,TX,956,US
78547,Garciasville,TX,956,US
78548,Grulla,TX,956,US
78549,Hargill,TX,956,US
78550,Harlingen,TX,956,US
78551,Harlingen,TX,956,US
78552,Harlingen,TX,956,US
78553,Harlingen,TX,956,US
78557,Hidalgo,TX,956,US
78558,La Blanca,TX,956,US
78559,La Feria,TX,956,US
78560,La Joya,TX,956,US
78561,Lasara,TX,956,US
78562,La Villa,TX,956,US
78563,Linn,TX,956,US
78564,Lopeno,TX,956,US
78565,Los Ebanos,TX,956,US
78566,Los Fresnos,TX,956,US
78567,Los Indios,TX,956,US
78568,Lozano,TX,956,US
78569,Lyford,TX,956,US
78570,Mercedes,TX,956,US
78572,Mission,TX,956,US
78573,Mission,TX,956,US
78574,Mission,TX,956,US
78575,Olmito,TX,956,US
78576,Penitas,TX,956,US
78577,Pharr,TX,956,US
78578,Port Isabel,TX,956,US
78579,Progreso,TX,956,US
78580,Raymondville,TX,956,US
78582,Rio Grande City,TX,956,US
78583,Rio Hondo,TX,956,US
78584,Roma,TX,956,US
78585,Salineno,TX,956,US
78586,San Benito,TX,956,US
78588,San Isidro,TX,956,US
78589,San Juan,TX,956,US
78590,San Perlita,TX,956,US
78591,Santa Elena,TX,956,US
78592,Santa Maria,TX,956,US
78593,Santa Rosa,TX,956,US
78594,Sebastian,TX,956,US
78595,Sullivan City,TX,956,US
78596,Weslaco,TX,956,US
78597,South Padre Island,TX,956,US
78598,Port Mansfield,TX,956,US
78599,Weslaco,TX,956,US
78602,Bastrop,TX,512,US
78604,Belmont,TX,830,US
78605,Bertram,TX,512,US
78606,Blanco,TX,830,US
78607,Bluffton,TX,325,US
78608,Briggs,TX,512,US
78609,Buchanan Dam,TX,512,US
78610,Buda,TX,512,US
78611,Burnet,TX,"5,12,361",US
78612,Cedar Creek,TX,512,US
78613,Cedar Park,TX,"2,54,512",US
78614,Cost,TX,830,US
78615,Coupland,TX,512,US
78616,Dale,TX,512,US
78617,Del Valle,TX,512,US
78618,Doss,TX,830,US
78619,Driftwood,TX,512,US
78620,Dripping Springs,TX,512,US
78621,Elgin,TX,512,US
78622,Fentress,TX,512,US
78623,Fischer,TX,830,US
78624,Fredericksburg,TX,830,US
78626,Georgetown,TX,512,US
78627,Georgetown,TX,512,US
78628,Georgetown,TX,"5,12,254",US
78629,Gonzales,TX,"8,30,361",US
78630,Cedar Park,TX,512,US
78631,Harper,TX,830,US
78632,Harwood,TX,830,US
78633,Georgetown,TX,512,US
78634,Hutto,TX,512,US
78635,Hye,TX,830,US
78636,Johnson City,TX,830,US
78638,Kingsbury,TX,830,US
78639,Kingsland,TX,"51,28,30,325",US
78640,Kyle,TX,"5,12,361",US
78641,Leander,TX,512,US
78642,Liberty Hill,TX,"5,12,254",US
78643,Llano,TX,"9,15,325",US
78644,Lockhart,TX,512,US
78645,Leander,TX,512,US
78646,Leander,TX,512,US
78648,Luling,TX,"8,30,512",US
78650,Mc Dade,TX,512,US
78651,Mc Neil,TX,512,US
78652,Manchaca,TX,512,US
78653,Manor,TX,512,US
78654,Marble Falls,TX,"83,09,56,512",US
78655,Martindale,TX,512,US
78656,Maxwell,TX,512,US
78657,Horseshoe Bay,TX,830,US
78658,Ottine,TX,830,US
78659,Paige,TX,512,US
78660,Pflugerville,TX,512,US
78661,Prairie Lea,TX,512,US
78662,Red Rock,TX,"8,30,512",US
78663,Round Mountain,TX,830,US
78664,Round Rock,TX,512,US
78665,Round Rock,TX,512,US
78666,San Marcos,TX,512,US
78667,San Marcos,TX,512,US
78669,Spicewood,TX,"5,12,830",US
78670,Staples,TX,512,US
78671,Stonewall,TX,830,US
78672,Tow,TX,325,US
78673,Walburg,TX,512,US
78674,Weir,TX,512,US
78675,Willow City,TX,830,US
78676,Wimberley,TX,"5,12,830",US
78677,Wrightsboro,TX,830,US
78680,Round Rock,TX,512,US
78681,Round Rock,TX,512,US
78682,Round Rock,TX,512,US
78683,Round Rock,TX,512,US
78691,Pflugerville,TX,512,US
78701,Austin,TX,512,US
78702,Austin,TX,"5,12,361",US
78703,Austin,TX,512,US
78704,Austin,TX,512,US
78705,Austin,TX,512,US
78708,Austin,TX,512,US
78709,Austin,TX,512,US
78710,Austin,TX,512,US
78711,Austin,TX,512,US
78712,Austin,TX,512,US
78713,Austin,TX,512,US
78714,Austin,TX,512,US
78715,Austin,TX,512,US
78716,Austin,TX,512,US
78717,Austin,TX,512,US
78718,Austin,TX,512,US
78719,Austin,TX,512,US
78720,Austin,TX,512,US
78721,Austin,TX,512,US
78722,Austin,TX,512,US
78723,Austin,TX,512,US
78724,Austin,TX,512,US
78725,Austin,TX,512,US
78726,Austin,TX,512,US
78727,Austin,TX,512,US
78728,Austin,TX,512,US
78729,Austin,TX,512,US
78730,Austin,TX,512,US
78731,Austin,TX,512,US
78732,Austin,TX,512,US
78733,Austin,TX,512,US
78734,Austin,TX,512,US
78735,Austin,TX,512,US
78736,Austin,TX,512,US
78737,Austin,TX,512,US
78738,Austin,TX,512,US
78739,Austin,TX,512,US
78741,Austin,TX,512,US
78742,Austin,TX,512,US
78744,Austin,TX,"5,12,361",US
78745,Austin,TX,512,US
78746,Austin,TX,512,US
78747,Austin,TX,"3,61,512",US
78748,Austin,TX,512,US
78749,Austin,TX,512,US
78750,Austin,TX,512,US
78751,Austin,TX,512,US
78752,Austin,TX,512,US
78753,Austin,TX,512,US
78754,Austin,TX,512,US
78755,Austin,TX,512,US
78756,Austin,TX,512,US
78757,Austin,TX,512,US
78758,Austin,TX,512,US
78759,Austin,TX,512,US
78760,Austin,TX,512,US
78761,Austin,TX,512,US
78762,Austin,TX,512,US
78763,Austin,TX,512,US
78764,Austin,TX,512,US
78765,Austin,TX,512,US
78766,Austin,TX,512,US
78767,Austin,TX,512,US
78768,Austin,TX,512,US
78769,Austin,TX,512,US
78772,Austin,TX,512,US
78773,Austin,TX,512,US
78774,Austin,TX,512,US
78778,Austin,TX,512,US
78779,Austin,TX,512,US
78780,Austin,TX,512,US
78781,Austin,TX,512,US
78783,Austin,TX,512,US
78785,Austin,TX,512,US
78786,Austin,TX,512,US
78788,Austin,TX,512,US
78789,Austin,TX,512,US
78798,Austin,TX,512,US
78799,Austin,TX,512,US
78801,Uvalde,TX,"8,30,210",US
78802,Uvalde,TX,830,US
78827,Asherton,TX,830,US
78828,Barksdale,TX,830,US
78829,Batesville,TX,830,US
78830,Big Wells,TX,830,US
78832,Brackettville,TX,830,US
78833,Camp Wood,TX,830,US
78834,Carrizo Springs,TX,830,US
78836,Catarina,TX,830,US
78837,Comstock,TX,432,US
78838,Concan,TX,830,US
78839,Crystal City,TX,830,US
78840,Del Rio,TX,"8,30,432",US
78841,Del Rio,TX,432,US
78842,Del Rio,TX,432,US
78843,Laughlin A F B,TX,830,US
78847,Del Rio,TX,432,US
78850,D Hanis,TX,830,US
78851,Dryden,TX,432,US
78852,Eagle Pass,TX,830,US
78853,Eagle Pass,TX,830,US
78860,El Indio,TX,830,US
78861,Hondo,TX,830,US
78870,Knippa,TX,830,US
78871,Langtry,TX,432,US
78872,La Pryor,TX,830,US
78873,Leakey,TX,830,US
78877,Quemado,TX,830,US
78879,Rio Frio,TX,830,US
78880,Rocksprings,TX,830,US
78881,Sabinal,TX,830,US
78883,Tarpley,TX,"8,30,210",US
78884,Utopia,TX,830,US
78885,Vanderpool,TX,830,US
78886,Yancey,TX,830,US
78931,Bleiblerville,TX,979,US
78932,Carmine,TX,979,US
78933,Cat Spring,TX,979,US
78934,Columbus,TX,979,US
78935,Alleyton,TX,979,US
78938,Ellinger,TX,979,US
78940,Fayetteville,TX,979,US
78941,Flatonia,TX,"3,61,830",US
78942,Giddings,TX,"9,79,512",US
78943,Glidden,TX,979,US
78944,Industry,TX,979,US
78945,La Grange,TX,"9,79,713",US
78946,Ledbetter,TX,979,US
78947,Lexington,TX,"9,79,512",US
78948,Lincoln,TX,"5,12,979",US
78949,Muldoon,TX,"97,98,30,361",US
78950,New Ulm,TX,979,US
78951,Oakland,TX,979,US
78952,Plum,TX,979,US
78953,Rosanky,TX,"8,30,979",US
78954,Round Top,TX,979,US
78956,Schulenburg,TX,"9,79,361",US
78957,Smithville,TX,"51,28,30,979",US
78959,Waelder,TX,"8,30,361",US
78960,Warda,TX,979,US
78961,Warrenton,TX,,US
78962,Weimar,TX,979,US
78963,West Point,TX,979,US
79001,Adrian,TX,806,US
79002,Alanreed,TX,806,US
79003,Allison,TX,806,US
79005,Booker,TX,806,US
79007,Borger,TX,806,US
79008,Borger,TX,806,US
79009,Bovina,TX,806,US
79010,Boys Ranch,TX,806,US
79011,Briscoe,TX,806,US
79012,Bushland,TX,806,US
79013,Cactus,TX,806,US
79014,Canadian,TX,806,US
79015,Canyon,TX,806,US
79016,Canyon,TX,806,US
79018,Channing,TX,806,US
79019,Claude,TX,806,US
79021,Cotton Center,TX,806,US
79022,Dalhart,TX,806,US
79024,Darrouzett,TX,806,US
79025,Dawn,TX,806,US
79027,Dimmitt,TX,806,US
79029,Dumas,TX,806,US
79031,Earth,TX,806,US
79032,Edmonson,TX,806,US
79033,Farnsworth,TX,806,US
79034,Follett,TX,806,US
79035,Friona,TX,806,US
79036,Fritch,TX,806,US
79039,Groom,TX,806,US
79040,Gruver,TX,806,US
79041,Hale Center,TX,806,US
79042,Happy,TX,806,US
79043,Hart,TX,806,US
79044,Hartley,TX,806,US
79045,Hereford,TX,806,US
79046,Higgins,TX,806,US
79051,Kerrick,TX,806,US
79052,Kress,TX,806,US
79053,Lazbuddie,TX,806,US
79054,Lefors,TX,806,US
79056,Lipscomb,TX,806,US
79057,Mclean,TX,806,US
79058,Masterson,TX,,US
79059,Miami,TX,806,US
79061,Mobeetie,TX,806,US
79062,Morse,TX,806,US
79063,Nazareth,TX,806,US
79064,Olton,TX,806,US
79065,Pampa,TX,806,US
79066,Pampa,TX,806,US
79068,Panhandle,TX,806,US
79070,Perryton,TX,806,US
79072,Plainview,TX,806,US
79073,Plainview,TX,806,US
79077,Sam Norwood,TX,806,US
79078,Sanford,TX,806,US
79079,Shamrock,TX,806,US
79080,Skellytown,TX,806,US
79081,Spearman,TX,806,US
79082,Springlake,TX,806,US
79083,Stinnett,TX,806,US
79084,Stratford,TX,806,US
79085,Summerfield,TX,806,US
79086,Sunray,TX,806,US
79087,Texline,TX,806,US
79088,Tulia,TX,806,US
79091,Umbarger,TX,806,US
79092,Vega,TX,806,US
79093,Waka,TX,806,US
79094,Wayside,TX,806,US
79095,Wellington,TX,806,US
79096,Wheeler,TX,806,US
79097,White Deer,TX,"8,06,817",US
79098,Wildorado,TX,806,US
79101,Amarillo,TX,"8,06,512",US
79102,Amarillo,TX,806,US
79103,Amarillo,TX,806,US
79104,Amarillo,TX,806,US
79105,Amarillo,TX,806,US
79106,Amarillo,TX,806,US
79107,Amarillo,TX,806,US
79108,Amarillo,TX,806,US
79109,Amarillo,TX,806,US
79110,Amarillo,TX,806,US
79111,Amarillo,TX,806,US
79114,Amarillo,TX,806,US
79116,Amarillo,TX,806,US
79117,Amarillo,TX,806,US
79118,Amarillo,TX,806,US
79119,Amarillo,TX,"8,06,281",US
79120,Amarillo,TX,806,US
79121,Amarillo,TX,806,US
79124,Amarillo,TX,806,US
79159,Amarillo,TX,806,US
79166,Amarillo,TX,806,US
79168,Amarillo,TX,806,US
79172,Amarillo,TX,806,US
79174,Amarillo,TX,806,US
79178,Amarillo,TX,806,US
79185,Amarillo,TX,806,US
79187,Amarillo,TX,806,US
79189,Amarillo,TX,806,US
79201,Childress,TX,940,US
79220,Afton,TX,806,US
79221,Aiken,TX,806,US
79223,Cee Vee,TX,940,US
79225,Chillicothe,TX,940,US
79226,Clarendon,TX,806,US
79227,Crowell,TX,940,US
79229,Dickens,TX,806,US
79230,Dodson,TX,806,US
79231,Dougherty,TX,806,US
79233,Estelline,TX,806,US
79234,Flomot,TX,806,US
79235,Floydada,TX,806,US
79236,Guthrie,TX,806,US
79237,Hedley,TX,806,US
79239,Lakeview,TX,806,US
79240,Lelia Lake,TX,806,US
79241,Lockney,TX,806,US
79243,Mcadoo,TX,806,US
79244,Matador,TX,806,US
79245,Memphis,TX,806,US
79247,Odell,TX,940,US
79248,Paducah,TX,"8,06,940",US
79250,Petersburg,TX,806,US
79251,Quail,TX,806,US
79252,Quanah,TX,940,US
79255,Quitaque,TX,806,US
79256,Roaring Springs,TX,806,US
79257,Silverton,TX,806,US
79258,South Plains,TX,806,US
79259,Tell,TX,940,US
79261,Turkey,TX,806,US
79311,Abernathy,TX,806,US
79312,Amherst,TX,806,US
79313,Anton,TX,806,US
79314,Bledsoe,TX,806,US
79316,Brownfield,TX,806,US
79320,Bula,TX,806,US
79322,Crosbyton,TX,806,US
79323,Denver City,TX,"8,06,432",US
79324,Enochs,TX,806,US
79325,Farwell,TX,806,US
79326,Fieldton,TX,806,US
79329,Idalou,TX,806,US
79330,Justiceburg,TX,806,US
79331,Lamesa,TX,806,US
79336,Levelland,TX,806,US
79338,Levelland,TX,806,US
79339,Littlefield,TX,806,US
79342,Loop,TX,806,US
79343,Lorenzo,TX,806,US
79344,Maple,TX,806,US
79345,Meadow,TX,806,US
79346,Morton,TX,806,US
79347,Muleshoe,TX,806,US
79350,New Deal,TX,806,US
79351,Odonnell,TX,806,US
79353,Pep,TX,806,US
79355,Plains,TX,806,US
79356,Post,TX,806,US
79357,Ralls,TX,806,US
79358,Ropesville,TX,806,US
79359,Seagraves,TX,806,US
79360,Seminole,TX,"8,06,432",US
79363,Shallowater,TX,806,US
79364,Slaton,TX,806,US
79366,Ransom Canyon,TX,806,US
79367,Smyer,TX,806,US
79369,Spade,TX,806,US
79370,Spur,TX,806,US
79371,Sudan,TX,806,US
79372,Sundown,TX,806,US
79373,Tahoka,TX,806,US
79376,Tokio,TX,806,US
79377,Welch,TX,806,US
79378,Wellman,TX,806,US
79379,Whiteface,TX,806,US
79380,Whitharral,TX,806,US
79381,Wilson,TX,806,US
79382,Wolfforth,TX,806,US
79383,New Home,TX,806,US
79401,Lubbock,TX,806,US
79402,Lubbock,TX,806,US
79403,Lubbock,TX,806,US
79404,Lubbock,TX,806,US
79405,Lubbock,TX,806,US
79406,Lubbock,TX,806,US
79407,Lubbock,TX,806,US
79408,Lubbock,TX,806,US
79409,Lubbock,TX,806,US
79410,Lubbock,TX,806,US
79411,Lubbock,TX,806,US
79412,Lubbock,TX,806,US
79413,Lubbock,TX,806,US
79414,Lubbock,TX,806,US
79415,Lubbock,TX,806,US
79416,Lubbock,TX,806,US
79423,Lubbock,TX,806,US
79424,Lubbock,TX,806,US
79430,Lubbock,TX,806,US
79452,Lubbock,TX,806,US
79453,Lubbock,TX,806,US
79457,Lubbock,TX,806,US
79464,Lubbock,TX,806,US
79490,Lubbock,TX,806,US
79491,Lubbock,TX,806,US
79493,Lubbock,TX,806,US
79499,Lubbock,TX,806,US
79501,Anson,TX,325,US
79502,Aspermont,TX,"8,06,940",US
79503,Avoca,TX,325,US
79504,Baird,TX,325,US
79505,Benjamin,TX,940,US
79506,Blackwell,TX,325,US
79508,Buffalo Gap,TX,325,US
79510,Clyde,TX,325,US
79511,Coahoma,TX,432,US
79512,Colorado City,TX,325,US
79516,Dunn,TX,325,US
79517,Fluvanna,TX,,US
79518,Girard,TX,806,US
79519,Goldsboro,TX,325,US
79520,Hamlin,TX,325,US
79521,Haskell,TX,940,US
79525,Hawley,TX,325,US
79526,Hermleigh,TX,325,US
79527,Ira,TX,432,US
79528,Jayton,TX,806,US
79529,Knox City,TX,940,US
79530,Lawn,TX,325,US
