zip,primary_city,state,area_codes,country
95110,San Jose,CA,"4,08,65,08,31,714",US
95111,San Jose,CA,408,US
95112,San Jose,CA,"40,82,09,41,56,50,916",US
95113,San Jose,CA,"4,08,650",US
95115,San Jose,CA,408,US
95116,San Jose,CA,408,US
95117,San Jose,CA,408,US
95118,San Jose,CA,408,US
95119,San Jose,CA,408,US
95120,San Jose,CA,408,US
95121,San Jose,CA,408,US
95122,San Jose,CA,"6,50,408",US
95123,San Jose,CA,408,US
95124,San Jose,CA,"4,08,650",US
95125,San Jose,CA,"4,08,831",US
95126,San Jose,CA,408,US
95127,San Jose,CA,408,US
95128,San Jose,CA,"4,08,714",US
95129,San Jose,CA,"40,85,10,831",US
95130,San Jose,CA,"4,08,510",US
95131,San Jose,CA,"4,08,650",US
95132,San Jose,CA,408,US
95133,San Jose,CA,408,US
95134,San Jose,CA,408,US
95135,San Jose,CA,408,US
95136,San Jose,CA,408,US
95138,San Jose,CA,408,US
95139,San Jose,CA,408,US
95140,Mount Hamilton,CA,408,US
95141,San Jose,CA,408,US
95148,San Jose,CA,408,US
95150,San Jose,CA,408,US
95151,San Jose,CA,408,US
95152,San Jose,CA,408,US
95153,San Jose,CA,408,US
95154,San Jose,CA,408,US
95155,San Jose,CA,408,US
95156,San Jose,CA,408,US
95157,San Jose,CA,408,US
95158,San Jose,CA,408,US
95159,San Jose,CA,408,US
95160,San Jose,CA,408,US
95161,San Jose,CA,408,US
95164,San Jose,CA,408,US
95170,San Jose,CA,650,US
95172,San Jose,CA,408,US
95173,San Jose,CA,408,US
95190,San Jose,CA,408,US
95191,San Jose,CA,408,US
95192,San Jose,CA,408,US
95193,San Jose,CA,408,US
95194,San Jose,CA,408,US
95196,San Jose,CA,408,US
95201,Stockton,CA,209,US
95202,Stockton,CA,"2,09,530",US
95203,Stockton,CA,209,US
95204,Stockton,CA,"2,09,530",US
95205,Stockton,CA,209,US
95206,Stockton,CA,209,US
95207,Stockton,CA,"2,09,530",US
95208,Stockton,CA,209,US
95209,Stockton,CA,209,US
95210,Stockton,CA,209,US
95211,Stockton,CA,209,US
95212,Stockton,CA,"2,09,510",US
95213,Stockton,CA,209,US
95215,Stockton,CA,209,US
95219,Stockton,CA,209,US
95220,Acampo,CA,209,US
95221,Altaville,CA,209,US
95222,Angels Camp,CA,209,US
95223,Arnold,CA,209,US
95224,Avery,CA,209,US
95225,Burson,CA,209,US
95226,Campo Seco,CA,209,US
95227,Clements,CA,209,US
95228,Copperopolis,CA,209,US
95229,Douglas Flat,CA,209,US
95230,Farmington,CA,209,US
95231,French Camp,CA,209,US
95232,Glencoe,CA,209,US
95233,Hathaway Pines,CA,209,US
95234,Holt,CA,209,US
95236,Linden,CA,209,US
95237,Lockeford,CA,209,US
95240,Lodi,CA,209,US
95241,Lodi,CA,209,US
95242,Lodi,CA,209,US
95245,Mokelumne Hill,CA,209,US
95246,Mountain Ranch,CA,209,US
95247,Murphys,CA,209,US
95248,Rail Road Flat,CA,209,US
95249,San Andreas,CA,"2,09,916",US
95250,San Andreas,CA,209,US
95251,Vallecito,CA,209,US
95252,Valley Springs,CA,209,US
95253,Victor,CA,209,US
95254,Wallace,CA,209,US
95255,West Point,CA,209,US
95257,Wilseyville,CA,209,US
95258,Woodbridge,CA,209,US
95267,Stockton,CA,209,US
95269,Stockton,CA,209,US
95296,Stockton,CA,209,US
95297,Stockton,CA,209,US
95301,Atwater,CA,209,US
95303,Ballico,CA,209,US
95304,Tracy,CA,"92,52,09,805",US
95305,Big Oak Flat,CA,209,US
95306,Catheys Valley,CA,209,US
95307,Ceres,CA,"20,94,15,559",US
95309,Chinese Camp,CA,209,US
95310,Columbia,CA,209,US
95311,Coulterville,CA,209,US
95312,Cressey,CA,209,US
95313,Crows Landing,CA,209,US
95314,Pinecrest,CA,209,US
95315,Delhi,CA,209,US
95316,Denair,CA,"2,09,559",US
95317,El Nido,CA,209,US
95318,El Portal,CA,209,US
95319,Empire,CA,209,US
95320,Escalon,CA,209,US
95321,Groveland,CA,209,US
95322,Gustine,CA,209,US
95323,Hickman,CA,209,US
95324,Hilmar,CA,209,US
95325,Hornitos,CA,209,US
95326,Hughson,CA,209,US
95327,Jamestown,CA,209,US
95328,Keyes,CA,209,US
95329,La Grange,CA,209,US
95330,Lathrop,CA,209,US
95333,Le Grand,CA,"2,09,559",US
95334,Livingston,CA,209,US
95335,Long Barn,CA,209,US
95336,Manteca,CA,209,US
95337,Manteca,CA,209,US
95338,Mariposa,CA,209,US
95340,Merced,CA,209,US
95341,Merced,CA,209,US
95343,Merced,CA,209,US
95344,Merced,CA,209,US
95345,Midpines,CA,209,US
95346,Mi Wuk Village,CA,209,US
95347,Moccasin,CA,209,US
95348,Merced,CA,209,US
95350,Modesto,CA,"2,09,559",US
95351,Modesto,CA,"2,09,650",US
95352,Modesto,CA,209,US
95353,Modesto,CA,209,US
95354,Modesto,CA,"2,09,559",US
95355,Modesto,CA,"2,09,562",US
95356,Modesto,CA,209,US
95357,Modesto,CA,209,US
95358,Modesto,CA,209,US
95360,Newman,CA,209,US
95361,Oakdale,CA,209,US
95363,Patterson,CA,209,US
95364,Pinecrest,CA,209,US
95365,Planada,CA,209,US
95366,Ripon,CA,209,US
95367,Riverbank,CA,209,US
95368,Salida,CA,209,US
95369,Snelling,CA,209,US
95370,Sonora,CA,209,US
95372,Soulsbyville,CA,209,US
95373,Standard,CA,209,US
95374,Stevinson,CA,209,US
95375,Strawberry,CA,209,US
95376,Tracy,CA,"2,09,510",US
95377,Tracy,CA,"5,10,209",US
95378,Tracy,CA,209,US
95379,Tuolumne,CA,209,US
95380,Turlock,CA,209,US
95381,Turlock,CA,209,US
95382,Turlock,CA,"20,95,10,916",US
95383,Twain Harte,CA,209,US
95385,Vernalis,CA,209,US
95386,Waterford,CA,209,US
95387,Westley,CA,209,US
95388,Winton,CA,209,US
95389,Yosemite National Park,CA,209,US
95391,Tracy,CA,209,US
95397,Modesto,CA,209,US
95401,Santa Rosa,CA,707,US
95402,Santa Rosa,CA,707,US
95403,Santa Rosa,CA,"7,07,408",US
95404,Santa Rosa,CA,707,US
95405,Santa Rosa,CA,707,US
95406,Santa Rosa,CA,707,US
95407,Santa Rosa,CA,707,US
95409,Santa Rosa,CA,707,US
95410,Albion,CA,707,US
95412,Annapolis,CA,707,US
95415,Boonville,CA,707,US
95416,Boyes Hot Springs,CA,707,US
95417,Branscomb,CA,707,US
95418,Calpella,CA,707,US
95419,Camp Meeker,CA,707,US
95420,Caspar,CA,707,US
95421,Cazadero,CA,707,US
95422,Clearlake,CA,707,US
95423,Clearlake Oaks,CA,707,US
95424,Clearlake Park,CA,707,US
95425,Cloverdale,CA,707,US
95426,Cobb,CA,707,US
95427,Comptche,CA,707,US
95428,Covelo,CA,707,US
95429,Dos Rios,CA,707,US
95430,Duncans Mills,CA,707,US
95431,Eldridge,CA,707,US
95432,Elk,CA,707,US
95433,El Verano,CA,707,US
95435,Finley,CA,707,US
95436,Forestville,CA,"7,07,415",US
95437,Fort Bragg,CA,707,US
95439,Fulton,CA,707,US
95441,Geyserville,CA,707,US
95442,Glen Ellen,CA,707,US
95443,Glenhaven,CA,707,US
95444,Graton,CA,707,US
95445,Gualala,CA,707,US
95446,Guerneville,CA,707,US
95448,Healdsburg,CA,707,US
95449,Hopland,CA,707,US
95450,Jenner,CA,707,US
95451,Kelseyville,CA,707,US
95452,Kenwood,CA,707,US
95453,Lakeport,CA,707,US
95454,Laytonville,CA,707,US
95456,Little River,CA,707,US
95457,Lower Lake,CA,707,US
95458,Lucerne,CA,707,US
95459,Manchester,CA,707,US
95460,Mendocino,CA,707,US
95461,Middletown,CA,707,US
95462,Monte Rio,CA,707,US
95463,Navarro,CA,707,US
95464,Nice,CA,707,US
95465,Occidental,CA,707,US
95466,Philo,CA,707,US
95467,Hidden Valley Lake,CA,707,US
95468,Point Arena,CA,707,US
95469,Potter Valley,CA,707,US
95470,Redwood Valley,CA,707,US
95471,Rio Nido,CA,707,US
95472,Sebastopol,CA,707,US
95473,Sebastopol,CA,707,US
95476,Sonoma,CA,707,US
95480,Stewarts Point,CA,707,US
95481,Talmage,CA,707,US
95482,Ukiah,CA,"7,07,831",US
95485,Upper Lake,CA,707,US
95486,Villa Grande,CA,707,US
95487,Vineburg,CA,707,US
95488,Westport,CA,707,US
95490,Willits,CA,707,US
95492,Windsor,CA,707,US
95493,Witter Springs,CA,707,US
95494,Yorkville,CA,707,US
95497,The Sea Ranch,CA,707,US
95501,Eureka,CA,"7,07,510",US
95502,Eureka,CA,707,US
95503,Eureka,CA,707,US
95511,Alderpoint,CA,707,US
95514,Blocksburg,CA,707,US
95518,Arcata,CA,707,US
95519,Mckinleyville,CA,707,US
95521,Arcata,CA,707,US
95524,Bayside,CA,707,US
95525,Blue Lake,CA,"7,07,530",US
95526,Bridgeville,CA,707,US
95527,Burnt Ranch,CA,530,US
95528,Carlotta,CA,707,US
95531,Crescent City,CA,707,US
95532,Crescent City,CA,707,US
95534,Cutten,CA,,US
95536,Ferndale,CA,707,US
95537,Fields Landing,CA,,US
95538,Fort Dick,CA,707,US
95540,Fortuna,CA,707,US
95542,Garberville,CA,707,US
95543,Gasquet,CA,707,US
95545,Honeydew,CA,707,US
95546,Hoopa,CA,530,US
95547,Hydesville,CA,707,US
95548,Klamath,CA,707,US
95549,Kneeland,CA,707,US
95550,Korbel,CA,707,US
95551,Loleta,CA,707,US
95552,Mad River,CA,707,US
95553,Miranda,CA,707,US
95554,Myers Flat,CA,707,US
95555,Orick,CA,707,US
95556,Orleans,CA,"5,30,707",US
95558,Petrolia,CA,707,US
95559,Phillipsville,CA,707,US
95560,Redway,CA,707,US
95562,Rio Dell,CA,707,US
95563,Salyer,CA,530,US
95564,Samoa,CA,,US
95565,Scotia,CA,707,US
95567,Smith River,CA,707,US
95568,Somes Bar,CA,530,US
95569,Redcrest,CA,707,US
95570,Trinidad,CA,707,US
95571,Weott,CA,707,US
95573,Willow Creek,CA,530,US
95585,Leggett,CA,707,US
95587,Piercy,CA,707,US
95589,Whitethorn,CA,707,US
95595,Zenia,CA,707,US
95601,Amador City,CA,209,US
95602,Auburn,CA,530,US
95603,Auburn,CA,"5,30,916",US
95604,Auburn,CA,"5,30,916",US
95605,West Sacramento,CA,"9,16,530",US
95606,Brooks,CA,530,US
95607,Capay,CA,530,US
95608,Carmichael,CA,916,US
95609,Carmichael,CA,916,US
95610,Citrus Heights,CA,"9,16,530",US
95611,Citrus Heights,CA,916,US
95612,Clarksburg,CA,916,US
95613,Coloma,CA,,US
95614,Cool,CA,530,US
95615,Courtland,CA,916,US
95616,Davis,CA,"53,07,07,916",US
95617,Davis,CA,"5,30,916",US
95618,Davis,CA,530,US
95619,Diamond Springs,CA,"9,16,530",US
95620,Dixon,CA,"53,07,07,916",US
95621,Citrus Heights,CA,916,US
95623,El Dorado,CA,"5,30,916",US
95624,Elk Grove,CA,916,US
95625,Elmira,CA,707,US
95626,Elverta,CA,916,US
95627,Esparto,CA,530,US
95628,Fair Oaks,CA,"9,16,415",US
95629,Fiddletown,CA,209,US
95630,Folsom,CA,"9,16,408",US
95631,Foresthill,CA,530,US
95632,Galt,CA,"9,16,209",US
95633,Garden Valley,CA,530,US
95634,Georgetown,CA,530,US
95635,Greenwood,CA,530,US
95636,Grizzly Flats,CA,,US
95637,Guinda,CA,530,US
95638,Herald,CA,209,US
95639,Hood,CA,916,US
95640,Ione,CA,209,US
95641,Isleton,CA,916,US
95642,Jackson,CA,"2,09,916",US
95644,Kit Carson,CA,,US
95645,Knights Landing,CA,530,US
95646,Kirkwood,CA,209,US
95648,Lincoln,CA,916,US
95650,Loomis,CA,916,US
95651,Lotus,CA,"9,16,530",US
95652,Mcclellan,CA,"9,16,805",US
95653,Madison,CA,,US
95654,Martell,CA,209,US
95655,Mather,CA,916,US
95656,Mount Aukum,CA,530,US
95658,Newcastle,CA,"9,16,530",US
95659,Nicolaus,CA,"5,30,916",US
95660,North Highlands,CA,916,US
95661,Roseville,CA,916,US
95662,Orangevale,CA,916,US
95663,Penryn,CA,916,US
95664,Pilot Hill,CA,530,US
95665,Pine Grove,CA,209,US
95666,Pioneer,CA,209,US
95667,Placerville,CA,"5,30,916",US
95668,Pleasant Grove,CA,"9,16,530",US
95669,Plymouth,CA,"2,09,916",US
95670,Rancho Cordova,CA,"9,16,650",US
95671,Represa,CA,,US
95672,Rescue,CA,"9,16,530",US
95673,Rio Linda,CA,916,US
95674,Rio Oso,CA,530,US
95675,River Pines,CA,209,US
95676,Robbins,CA,530,US
95677,Rocklin,CA,"9,16,530",US
95678,Roseville,CA,"9,16,530",US
95679,Rumsey,CA,530,US
95680,Ryde,CA,,US
95681,Sheridan,CA,530,US
95682,Shingle Springs,CA,"5,30,916",US
95683,Sloughhouse,CA,916,US
95684,Somerset,CA,530,US
95685,Sutter Creek,CA,209,US
95686,Thornton,CA,209,US
95687,Vacaville,CA,707,US
95688,Vacaville,CA,"7,07,916",US
95689,Volcano,CA,209,US
95690,Walnut Grove,CA,"9,16,209",US
95691,West Sacramento,CA,916,US
95692,Wheatland,CA,530,US
95693,Wilton,CA,916,US
95694,Winters,CA,530,US
95695,Woodland,CA,"5,30,916",US
95696,Vacaville,CA,"7,07,925",US
95697,Yolo,CA,,US
95698,Zamora,CA,,US
95699,Drytown,CA,209,US
95701,Alta,CA,530,US
95703,Applegate,CA,530,US
95709,Camino,CA,"9,16,530",US
95712,Chicago Park,CA,530,US
95713,Colfax,CA,530,US
95714,Dutch Flat,CA,530,US
95715,Emigrant Gap,CA,530,US
95717,Gold Run,CA,530,US
95720,Kyburz,CA,530,US
95721,Echo Lake,CA,,US
95722,Meadow Vista,CA,530,US
95724,Norden,CA,530,US
95726,Pollock Pines,CA,"5,30,916",US
95728,Soda Springs,CA,530,US
95735,Twin Bridges,CA,530,US
95736,Weimar,CA,530,US
95741,Rancho Cordova,CA,916,US
95742,Rancho Cordova,CA,916,US
95746,Granite Bay,CA,916,US
95747,Roseville,CA,916,US
95757,Elk Grove,CA,916,US
95758,Elk Grove,CA,916,US
95759,Elk Grove,CA,916,US
95762,El Dorado Hills,CA,"91,65,10,530",US
95763,Folsom,CA,916,US
95765,Rocklin,CA,"9,16,619",US
95776,Woodland,CA,"5,30,916",US
95798,West Sacramento,CA,916,US
95799,West Sacramento,CA,916,US
95811,Sacramento,CA,916,US
95812,Sacramento,CA,916,US
95813,Sacramento,CA,916,US
95814,Sacramento,CA,"4,15,91,62,09,714",US
95815,Sacramento,CA,"9,16,408",US
95816,Sacramento,CA,"9,16,530",US
95817,Sacramento,CA,916,US
95818,Sacramento,CA,"9,16,530",US
95819,Sacramento,CA,916,US
95820,Sacramento,CA,916,US
95821,Sacramento,CA,916,US
95822,Sacramento,CA,916,US
95823,Sacramento,CA,"9,16,510",US
95824,Sacramento,CA,916,US
95825,Sacramento,CA,916,US
95826,Sacramento,CA,916,US
95827,Sacramento,CA,916,US
95828,Sacramento,CA,916,US
95829,Sacramento,CA,916,US
95830,Sacramento,CA,916,US
95831,Sacramento,CA,916,US
95832,Sacramento,CA,916,US
95833,Sacramento,CA,"9,16,530",US
95834,Sacramento,CA,916,US
95835,Sacramento,CA,916,US
95836,Sacramento,CA,916,US
95837,Sacramento,CA,916,US
95838,Sacramento,CA,916,US
95840,Sacramento,CA,916,US
95841,Sacramento,CA,"9,16,530",US
95842,Sacramento,CA,916,US
95843,Antelope,CA,916,US
95851,Sacramento,CA,916,US
95852,Sacramento,CA,916,US
95853,Sacramento,CA,916,US
95860,Sacramento,CA,916,US
95864,Sacramento,CA,916,US
95865,Sacramento,CA,916,US
95866,Sacramento,CA,916,US
95867,Sacramento,CA,916,US
95887,Sacramento,CA,916,US
95894,Sacramento,CA,916,US
95899,Sacramento,CA,916,US
95901,Marysville,CA,"5,30,916",US
95903,Beale Afb,CA,530,US
95910,Alleghany,CA,530,US
95912,Arbuckle,CA,530,US
95913,Artois,CA,530,US
95914,Bangor,CA,530,US
95915,Belden,CA,530,US
95916,Berry Creek,CA,530,US
95917,Biggs,CA,530,US
95918,Browns Valley,CA,530,US
95919,Brownsville,CA,530,US
95920,Butte City,CA,530,US
95922,Camptonville,CA,530,US
95923,Canyon Dam,CA,530,US
95924,Cedar Ridge,CA,530,US
95925,Challenge,CA,530,US
95926,Chico,CA,"5,30,916",US
95927,Chico,CA,530,US
95928,Chico,CA,"53,07,14,916",US
95929,Chico,CA,530,US
95930,Clipper Mills,CA,530,US
95932,Colusa,CA,530,US
95934,Crescent Mills,CA,530,US
95935,Dobbins,CA,530,US
95936,Downieville,CA,530,US
95937,Dunnigan,CA,530,US
95938,Durham,CA,530,US
95939,Elk Creek,CA,530,US
95940,Feather Falls,CA,530,US
95941,Forbestown,CA,530,US
95942,Forest Ranch,CA,530,US
95943,Glenn,CA,530,US
95944,Goodyears Bar,CA,530,US
95945,Grass Valley,CA,"5,30,916",US
95946,Penn Valley,CA,530,US
95947,Greenville,CA,530,US
95948,Gridley,CA,530,US
95949,Grass Valley,CA,530,US
95950,Grimes,CA,530,US
95951,Hamilton City,CA,530,US
95953,Live Oak,CA,530,US
95954,Magalia,CA,530,US
95955,Maxwell,CA,530,US
95956,Meadow Valley,CA,530,US
95957,Meridian,CA,530,US
95958,Nelson,CA,530,US
95959,Nevada City,CA,530,US
95960,North San Juan,CA,530,US
95961,Olivehurst,CA,530,US
95962,Oregon House,CA,530,US
95963,Orland,CA,530,US
95965,Oroville,CA,"9,16,530",US
95966,Oroville,CA,530,US
95967,Paradise,CA,530,US
95968,Palermo,CA,530,US
95969,Paradise,CA,530,US
95970,Princeton,CA,530,US
95971,Quincy,CA,530,US
95972,Rackerby,CA,530,US
95973,Chico,CA,"5,30,916",US
95974,Richvale,CA,530,US
95975,Rough And Ready,CA,530,US
95976,Chico,CA,530,US
95977,Smartsville,CA,530,US
95978,Stirling City,CA,530,US
95979,Stonyford,CA,530,US
95980,Storrie,CA,916,US
95981,Strawberry Valley,CA,530,US
95982,Sutter,CA,530,US
95983,Taylorsville,CA,530,US
95984,Twain,CA,530,US
95986,Washington,CA,530,US
95987,Williams,CA,530,US
95988,Willows,CA,530,US
95991,Yuba City,CA,"5,30,916",US
95992,Yuba City,CA,530,US
95993,Yuba City,CA,530,US
96001,Redding,CA,530,US
96002,Redding,CA,530,US
96003,Redding,CA,530,US
96006,Adin,CA,530,US
96007,Anderson,CA,530,US
96008,Bella Vista,CA,530,US
96009,Bieber,CA,530,US
96010,Big Bar,CA,530,US
96011,Big Bend,CA,530,US
96013,Burney,CA,530,US
96014,Callahan,CA,530,US
96015,Canby,CA,530,US
96016,Cassel,CA,530,US
96017,Castella,CA,530,US
96019,Shasta Lake,CA,530,US
96020,Chester,CA,530,US
96021,Corning,CA,530,US
96022,Cottonwood,CA,530,US
96023,Dorris,CA,530,US
96024,Douglas City,CA,530,US
96025,Dunsmuir,CA,530,US
96027,Etna,CA,530,US
96028,Fall River Mills,CA,530,US
96029,Flournoy,CA,530,US
96031,Forks Of Salmon,CA,530,US
96032,Fort Jones,CA,530,US
96033,French Gulch,CA,530,US
96034,Gazelle,CA,530,US
96035,Gerber,CA,530,US
96037,Greenview,CA,530,US
96038,Grenada,CA,530,US
96039,Happy Camp,CA,530,US
96040,Hat Creek,CA,530,US
96041,Hayfork,CA,530,US
96044,Hornbrook,CA,530,US
96046,Hyampom,CA,,US
96047,Igo,CA,530,US
96048,Junction City,CA,530,US
96049,Redding,CA,530,US
96050,Klamath River,CA,"5,30,916",US
96051,Lakehead,CA,530,US
96052,Lewiston,CA,530,US
96054,Lookout,CA,530,US
96055,Los Molinos,CA,530,US
96056,Mcarthur,CA,530,US
96057,Mccloud,CA,530,US
96058,Macdoel,CA,530,US
96059,Manton,CA,530,US
96061,Mill Creek,CA,530,US
96062,Millville,CA,530,US
96063,Mineral,CA,530,US
96064,Montague,CA,530,US
96065,Montgomery Creek,CA,530,US
96067,Mount Shasta,CA,530,US
96068,Nubieber,CA,530,US
96069,Oak Run,CA,530,US
96070,Obrien,CA,530,US
96071,Old Station,CA,530,US
96073,Palo Cedro,CA,530,US
96074,Paskenta,CA,530,US
96075,Paynes Creek,CA,530,US
96076,Platina,CA,530,US
96078,Proberta,CA,530,US
96079,Shasta Lake,CA,530,US
96080,Red Bluff,CA,530,US
96084,Round Mountain,CA,530,US
96085,Scott Bar,CA,530,US
96086,Seiad Valley,CA,530,US
96087,Shasta,CA,530,US
96088,Shingletown,CA,530,US
96089,Shasta Lake,CA,530,US
96090,Tehama,CA,530,US
96091,Trinity Center,CA,530,US
96092,Vina,CA,530,US
96093,Weaverville,CA,530,US
96094,Weed,CA,530,US
96095,Whiskeytown,CA,530,US
96096,Whitmore,CA,530,US
96097,Yreka,CA,530,US
96099,Redding,CA,530,US
96101,Alturas,CA,530,US
96103,Blairsden-graeagle,CA,530,US
96104,Cedarville,CA,530,US
96105,Chilcoot,CA,530,US
96106,Clio,CA,530,US
96107,Coleville,CA,530,US
96108,Davis Creek,CA,530,US
96109,Doyle,CA,530,US
96110,Eagleville,CA,530,US
96111,Floriston,CA,530,US
96112,Fort Bidwell,CA,530,US
96113,Herlong,CA,530,US
96114,Janesville,CA,530,US
96115,Lake City,CA,530,US
96116,Likely,CA,530,US
96117,Litchfield,CA,530,US
96118,Loyalton,CA,530,US
96119,Madeline,CA,530,US
96120,Markleeville,CA,530,US
96121,Milford,CA,530,US
96122,Portola,CA,530,US
96123,Ravendale,CA,530,US
96124,Calpine,CA,530,US
96125,Sierra City,CA,530,US
96126,Sierraville,CA,530,US
96127,Susanville,CA,530,US
96128,Standish,CA,530,US
96129,Beckwourth,CA,530,US
96130,Susanville,CA,530,US
96132,Termo,CA,530,US
96133,Topaz,CA,530,US
96134,Tulelake,CA,530,US
96135,Vinton,CA,530,US
96136,Wendel,CA,530,US
96137,Westwood,CA,530,US
96140,Carnelian Bay,CA,530,US
96141,Homewood,CA,530,US
96142,Tahoma,CA,530,US
96143,Kings Beach,CA,"5,30,775",US
96145,Tahoe City,CA,"5,30,775",US
96146,Olympic Valley,CA,"5,30,775",US
96148,Tahoe Vista,CA,"5,30,775",US
96150,South Lake Tahoe,CA,"5,30,775",US
96151,South Lake Tahoe,CA,530,US
96152,South Lake Tahoe,CA,530,US
96154,South Lake Tahoe,CA,530,US
96155,South Lake Tahoe,CA,530,US
96156,South Lake Tahoe,CA,530,US
96157,South Lake Tahoe,CA,530,US
96158,South Lake Tahoe,CA,530,US
96160,Truckee,CA,530,US
96161,Truckee,CA,"53,07,75,415",US
96162,Truckee,CA,530,US
96201,Apo,AP,,KR
96202,Apo,AP,,KR
96203,Apo,AP,,KR
96204,Apo,AP,,KR
96205,Apo,AP,,KR
96206,Apo,AP,,KR
96207,Apo,AP,,KR
96209,Dpo,AP,,US
96212,Apo,AP,,US
96213,Apo,AP,,KR
96214,Apo,AP,,KR
96215,Apo,AP,,US
96217,Apo,AP,,US
96218,Apo,AP,,KR
96219,Apo,AP,,US
96220,Apo,AP,,US
96221,Apo,AP,,US
96224,Apo,AP,,KR
96257,Apo,AP,,KR
96258,Apo,AP,,KR
96259,Apo,AP,,US
96260,Apo,AP,,KR
96262,Apo,AP,,KR
96264,Apo,AP,,KR
96266,Apo,AP,,KR
96267,Apo,AP,,KR
96269,Fpo,AP,,KR
96271,Apo,AP,,KR
96275,Apo,AP,,KR
96276,Apo,AP,,KR
96278,Apo,AP,,KR
96283,Apo,AP,,KR
96284,Apo,AP,,US
96297,Apo,AP,,KR
96303,Dpo,AP,,US
96306,Fpo,AP,,KR
96309,Fpo,AP,,JP
96310,Fpo,AP,,JP
96311,Apo,AP,,US
96313,Fpo,AP,,US
96319,Apo,AP,,JP
96321,Fpo,AP,,JP
96322,Fpo,AP,,JP
96323,Apo,AP,,JP
96326,Apo,AP,,JP
96328,Apo,AP,,JP
96330,Apo,AP,,JP
96336,Apo,AP,,JP
96337,Apo,AP,,JP
96338,Apo,AP,,JP
96339,Fpo,AP,,JP
96343,Apo,AP,,JP
96346,Fpo,AP,,JP
96347,Fpo,AP,,JP
96348,Fpo,AP,,JP
96349,Fpo,AP,,JP
96350,Fpo,AP,,JP
96351,Fpo,AP,,JP
96362,Fpo,AP,,JP
96365,Apo,AP,,JP
96367,Apo,AP,,JP
96368,Apo,AP,,JP
96370,Fpo,AP,,JP
96372,Fpo,AP,,JP
96373,Fpo,AP,,JP
96374,Fpo,AP,,JP
96375,Fpo,AP,,JP
96376,Apo,AP,,JP
96377,Fpo,AP,,JP
96378,Apo,AP,,JP
96379,Fpo,AP,,JP
96384,Apo,AP,,JP
96386,Apo,AP,,JP
96387,Fpo,AP,,JP
96388,Fpo,AP,,JP
96400,Apo,AP,,TH
96401,Apo,AP,,PH
96426,Fpo,AP,,IQ
96427,Fpo,AP,,AF
96444,Fpo,AP,,US
96447,Apo,AP,,TH
96501,Fpo,AP,,US
96502,Fpo,AP,,ID
96503,Fpo,AP,,TH
96507,Dpo,AP,,US
96510,Fpo,AP,,CA
96511,Fpo,AP,,CA
96515,Dpo,AP,,PH
96516,Fpo,AP,,PH
96517,Fpo,AP,,US
96518,Fpo,AP,,US
96520,Dpo,AP,,US
96521,Dpo,AP,,US
96522,Fpo,AP,,CN
96530,Dpo,AP,,US
96531,Fpo,AP,,NZ
96532,Dpo,AP,,US
96534,Fpo,AP,,SG
96535,Dpo,AP,,US
96536,Fpo,AP,,US
96537,Fpo,AP,,US
96538,Fpo,AP,,US
96540,Fpo,AP,,US
96541,Apo,AP,,US
96542,Apo,AP,,US
96543,Apo,AP,,US
96544,Fpo,AP,,TH
96546,Apo,AP,,TH
96547,Apo,AP,,TH
96548,Apo,AP,,AU
96549,Dpo,AP,,US
96550,Apo,AP,,AU
96551,Dpo,AP,,US
96552,Apo,AP,,TH
96553,Apo,AP,,AU
96554,Dpo,AP,,AU
96555,Apo,AP,,MH
96557,Apo,AP,,MH
96562,Dpo,AP,,US
96577,Apo,AP,,AU
96595,Fpo,AP,,IO
96598,Fpo,AP,,US
96599,Fpo,AP,,AQ
96601,Fpo,AP,,JP
96602,Fpo,AP,,US
96603,Fpo,AP,,US
96604,Fpo,AP,,US
96605,Fpo,AP,,US
96606,Fpo,AP,,US
96607,Fpo,AP,,US
96608,Fpo,AP,,US
96609,Fpo,AP,,US
96610,Fpo,AP,,US
96611,Fpo,AP,,US
96612,Fpo,AP,,US
96613,Fpo,AP,,US
96614,Fpo,AP,,US
96615,Fpo,AP,,US
96616,Fpo,AP,,US
96617,Fpo,AP,,US
96619,Fpo,AP,,US
96620,Fpo,AP,,US
96621,Fpo,AP,,US
96622,Fpo,AP,,US
96624,Fpo,AP,,US
96628,Fpo,AP,,US
96629,Fpo,AP,,US
96634,Fpo,AP,,US
96643,Fpo,AP,,US
96650,Fpo,AP,,US
96657,Fpo,AP,,US
96660,Fpo,AP,,US
96661,Fpo,AP,,US
96662,Fpo,AP,,US
96663,Fpo,AP,,US
96664,Fpo,AP,,US
96665,Fpo,AP,,US
96666,Fpo,AP,,US
96667,Fpo,AP,,US
96668,Fpo,AP,,US
96669,Fpo,AP,,US
96670,Fpo,AP,,US
96671,Fpo,AP,,US
96672,Fpo,AP,,US
96673,Fpo,AP,,US
96674,Fpo,AP,,US
96675,Fpo,AP,,US
96677,Fpo,AP,,US
96678,Fpo,AP,,US
96679,Fpo,AP,,US
96681,Fpo,AP,,US
96682,Fpo,AP,,US
96683,Fpo,AP,,US
96686,Fpo,AP,,US
96687,Fpo,AP,,US
96698,Fpo,AP,,US
96701,Aiea,HI,808,US
96703,Anahola,HI,808,US
96704,Captain Cook,HI,808,US
96705,Eleele,HI,808,US
96706,Ewa Beach,HI,808,US
96707,Kapolei,HI,808,US
96708,Haiku,HI,808,US
96709,Kapolei,HI,808,US
96710,Hakalau,HI,808,US
96712,Haleiwa,HI,808,US
96713,Hana,HI,808,US
96714,Hanalei,HI,808,US
96715,Hanamaulu,HI,808,US
96716,Hanapepe,HI,808,US
96717,Hauula,HI,808,US
96718,Hawaii National Park,HI,808,US
96719,Hawi,HI,808,US
96720,Hilo,HI,808,US
96721,Hilo,HI,808,US
96722,Princeville,HI,808,US
96725,Holualoa,HI,808,US
96726,Honaunau,HI,808,US
96727,Honokaa,HI,808,US
96728,Honomu,HI,808,US
96729,Hoolehua,HI,808,US
96730,Kaaawa,HI,808,US
96731,Kahuku,HI,808,US
96732,Kahului,HI,808,US
96733,Kahului,HI,808,US
96734,Kailua,HI,808,US
96737,Ocean View,HI,808,US
96738,Waikoloa,HI,808,US
96739,Keauhou,HI,808,US
96740,Kailua Kona,HI,808,US
96741,Kalaheo,HI,808,US
96742,Kalaupapa,HI,808,US
96743,Kamuela,HI,808,US
96744,Kaneohe,HI,808,US
96745,Kailua Kona,HI,808,US
96746,Kapaa,HI,808,US
96747,Kaumakani,HI,808,US
96748,Kaunakakai,HI,808,US
96749,Keaau,HI,808,US
96750,Kealakekua,HI,808,US
96751,Kealia,HI,808,US
96752,Kekaha,HI,808,US
96753,Kihei,HI,808,US
96754,Kilauea,HI,808,US
96755,Kapaau,HI,808,US
96756,Koloa,HI,808,US
96757,Kualapuu,HI,808,US
96759,Kunia,HI,808,US
96760,Kurtistown,HI,808,US
96761,Lahaina,HI,808,US
96762,Laie,HI,808,US
96763,Lanai City,HI,808,US
96764,Laupahoehoe,HI,808,US
96765,Lawai,HI,808,US
96766,Lihue,HI,808,US
96767,Lahaina,HI,808,US
96768,Makawao,HI,808,US
96769,Makaweli,HI,808,US
96770,Maunaloa,HI,808,US
96771,Mountain View,HI,808,US
96772,Naalehu,HI,808,US
96773,Ninole,HI,808,US
96774,Ookala,HI,808,US
96776,Paauilo,HI,808,US
96777,Pahala,HI,808,US
96778,Pahoa,HI,808,US
96779,Paia,HI,808,US
96780,Papaaloa,HI,808,US
96781,Papaikou,HI,808,US
96782,Pearl City,HI,808,US
96783,Pepeekeo,HI,808,US
96784,Puunene,HI,808,US
96785,Volcano,HI,808,US
96786,Wahiawa,HI,808,US
96788,Pukalani,HI,808,US
96789,Mililani,HI,808,US
96790,Kula,HI,808,US
96791,Waialua,HI,808,US
96792,Waianae,HI,808,US
96793,Wailuku,HI,808,US
96795,Waimanalo,HI,808,US
96796,Waimea,HI,808,US
96797,Waipahu,HI,808,US
96799,Pago Pago,AS,684,US
96801,Honolulu,HI,808,US
96802,Honolulu,HI,808,US
96803,Honolulu,HI,808,US
96804,Honolulu,HI,808,US
96805,Honolulu,HI,808,US
96806,Honolulu,HI,808,US
96807,Honolulu,HI,808,US
96808,Honolulu,HI,808,US
96809,Honolulu,HI,808,US
96810,Honolulu,HI,808,US
96811,Honolulu,HI,808,US
96812,Honolulu,HI,808,US
96813,Honolulu,HI,808,US
96814,Honolulu,HI,808,US
96815,Honolulu,HI,808,US
96816,Honolulu,HI,808,US
96817,Honolulu,HI,808,US
96818,Honolulu,HI,808,US
96819,Honolulu,HI,808,US
96820,Honolulu,HI,808,US
96821,Honolulu,HI,808,US
96822,Honolulu,HI,808,US
96823,Honolulu,HI,808,US
96824,Honolulu,HI,808,US
96825,Honolulu,HI,808,US
96826,Honolulu,HI,808,US
96827,Honolulu,HI,808,US
96828,Honolulu,HI,808,US
96830,Honolulu,HI,808,US
96835,Honolulu,HI,808,US
96836,Honolulu,HI,808,US
96837,Honolulu,HI,808,US
96838,Honolulu,HI,808,US
96839,Honolulu,HI,808,US
96840,Honolulu,HI,808,US
96841,Honolulu,HI,808,US
96843,Honolulu,HI,808,US
96844,Honolulu,HI,808,US
96846,Honolulu,HI,808,US
96847,Honolulu,HI,808,US
96848,Honolulu,HI,808,US
96849,Honolulu,HI,808,US
96850,Honolulu,HI,808,US
96853,J B P H H,HI,808,US
96854,Wheeler Army Airfield,HI,808,US
96857,Schofield Barracks,HI,808,US
96858,Fort Shafter,HI,808,US
96859,Tripler Army Medical Center,HI,808,US
96860,J B P H H,HI,808,US
96861,Camp H M Smith,HI,808,US
96863,M C B H Kaneohe Bay,HI,808,US
96898,Wake Island,HI,808,US
96910,Hagatna,GU,,US
96912,Dededo,GU,,US
96913,Barrigada,GU,,US
96915,Santa Rita,GU,671,US
96916,Merizo,GU,,US
96917,Inarajan,GU,,US
96919,Agana Heights,GU,671,US
96921,Barrigada,GU,,US
96923,Mangilao,GU,,US
96928,Agat,GU,,US
96929,Yigo,GU,,US
96931,Tamuning,GU,,US
96932,Hagatna,GU,671,US
96939,Palau,PW,,US
96940,Palau,PW,,US
96941,Pohnpei,FM,,US
96942,Chuuk,FM,,US
96943,Yap,FM,,US
96944,Kosrae,FM,,US
96950,Saipan,MP,,US
96951,Rota,MP,,US
96952,Tinian,MP,,US
96960,Majuro,MH,,US
96970,Ebeye,MH,,US
97001,Antelope,OR,541,US
97002,Aurora,OR,503,US
97004,Beavercreek,OR,503,US
97005,Beaverton,OR,503,US
97006,Beaverton,OR,"5,03,971",US
97007,Beaverton,OR,"5,03,971",US
97008,Beaverton,OR,"5,03,971",US
97009,Boring,OR,503,US
97010,Bridal Veil,OR,971,US
97011,Brightwood,OR,503,US
97013,Canby,OR,503,US
97014,Cascade Locks,OR,541,US
97015,Clackamas,OR,503,US
97016,Clatskanie,OR,503,US
97017,Colton,OR,503,US
97018,Columbia City,OR,503,US
97019,Corbett,OR,503,US
97020,Donald,OR,503,US
97021,Dufur,OR,541,US
97022,Eagle Creek,OR,503,US
97023,Estacada,OR,503,US
97024,Fairview,OR,503,US
97026,Gervais,OR,503,US
97027,Gladstone,OR,"5,03,971",US
97028,Government Camp,OR,503,US
97029,Grass Valley,OR,541,US
97030,Gresham,OR,503,US
97031,Hood River,OR,541,US
97032,Hubbard,OR,503,US
97033,Kent,OR,541,US
97034,Lake Oswego,OR,503,US
97035,Lake Oswego,OR,"5,03,509",US
97036,Marylhurst,OR,971,US
97037,Maupin,OR,541,US
97038,Molalla,OR,503,US
97039,Moro,OR,541,US
97040,Mosier,OR,541,US
97041,Mount Hood Parkdale,OR,"5,41,503",US
97042,Mulino,OR,503,US
97044,Odell,OR,541,US
97045,Oregon City,OR,503,US
97048,Rainier,OR,503,US
97049,Rhododendron,OR,503,US
97050,Rufus,OR,541,US
97051,Saint Helens,OR,"5,03,971",US
97053,Warren,OR,503,US
97054,Deer Island,OR,503,US
97055,Sandy,OR,503,US
97056,Scappoose,OR,503,US
97057,Shaniko,OR,541,US
97058,The Dalles,OR,541,US
97060,Troutdale,OR,503,US
97062,Tualatin,OR,503,US
97063,Tygh Valley,OR,541,US
97064,Vernonia,OR,"5,03,971",US
97065,Wasco,OR,541,US
97067,Welches,OR,503,US
97068,West Linn,OR,"5,03,971",US
97070,Wilsonville,OR,"5,03,971",US
97071,Woodburn,OR,"5,03,971",US
97075,Beaverton,OR,503,US
97076,Beaverton,OR,971,US
97077,Beaverton,OR,971,US
97078,Beaverton,OR,971,US
97080,Gresham,OR,"5,03,971",US
97086,Happy Valley,OR,971,US
97089,Damascus,OR,,US
97101,Amity,OR,"5,03,971",US
97102,Arch Cape,OR,503,US
97103,Astoria,OR,503,US
97106,Banks,OR,503,US
97107,Bay City,OR,503,US
97108,Beaver,OR,503,US
97109,Buxton,OR,503,US
97110,Cannon Beach,OR,503,US
97111,Carlton,OR,503,US
97112,Cloverdale,OR,503,US
97113,Cornelius,OR,"5,03,971",US
97114,Dayton,OR,"5,03,971",US
97115,Dundee,OR,503,US
97116,Forest Grove,OR,503,US
97117,Gales Creek,OR,503,US
97118,Garibaldi,OR,503,US
97119,Gaston,OR,503,US
97121,Hammond,OR,503,US
97122,Hebo,OR,503,US
97123,Hillsboro,OR,503,US
97124,Hillsboro,OR,"5,03,971",US
97125,Manning,OR,503,US
97127,Lafayette,OR,503,US
97128,Mcminnville,OR,"5,03,971",US
97130,Manzanita,OR,503,US
97131,Nehalem,OR,503,US
97132,Newberg,OR,"5,03,971",US
97133,North Plains,OR,503,US
97134,Oceanside,OR,503,US
97135,Pacific City,OR,503,US
97136,Rockaway Beach,OR,503,US
97137,Saint Paul,OR,503,US
97138,Seaside,OR,503,US
97140,Sherwood,OR,503,US
97141,Tillamook,OR,503,US
97143,Netarts,OR,503,US
97144,Timber,OR,971,US
97145,Tolovana Park,OR,503,US
97146,Warrenton,OR,503,US
97147,Wheeler,OR,503,US
97148,Yamhill,OR,503,US
97149,Neskowin,OR,503,US
97201,Portland,OR,"5,03,971",US
97202,Portland,OR,503,US
97203,Portland,OR,"5,03,971",US
97204,Portland,OR,"5,03,971",US
97205,Portland,OR,"5,03,971",US
97206,Portland,OR,503,US
97207,Portland,OR,503,US
97208,Portland,OR,503,US
97209,Portland,OR,"5,03,971",US
97210,Portland,OR,"5,03,971",US
97211,Portland,OR,"2,08,503",US
97212,Portland,OR,503,US
97213,Portland,OR,"5,03,971",US
97214,Portland,OR,503,US
97215,Portland,OR,503,US
97216,Portland,OR,503,US
97217,Portland,OR,"5,03,971",US
97218,Portland,OR,"5,03,971",US
97219,Portland,OR,"5,03,971",US
97220,Portland,OR,"5,03,971",US
97221,Portland,OR,503,US
97222,Portland,OR,503,US
97223,Portland,OR,503,US
97224,Portland,OR,"5,03,971",US
97225,Portland,OR,"5,03,971",US
97227,Portland,OR,"5,03,971",US
97228,Portland,OR,503,US
97229,Portland,OR,"5,03,971",US
97230,Portland,OR,"5,03,971",US
97231,Portland,OR,503,US
97232,Portland,OR,"5,03,971",US
97233,Portland,OR,503,US
97236,Portland,OR,503,US
97238,Portland,OR,971,US
97239,Portland,OR,971,US
97240,Portland,OR,971,US
97242,Portland,OR,971,US
97251,Portland,OR,971,US
97253,Portland,OR,971,US
97254,Portland,OR,971,US
97255,Portland,OR,971,US
97256,Portland,OR,971,US
97258,Portland,OR,"5,03,971",US
97259,Portland,OR,971,US
97266,Portland,OR,503,US
97267,Portland,OR,503,US
97268,Portland,OR,971,US
97269,Portland,OR,503,US
97271,Portland,OR,971,US
97272,Portland,OR,971,US
97280,Portland,OR,971,US
97281,Portland,OR,503,US
97282,Portland,OR,971,US
97283,Portland,OR,971,US
97286,Portland,OR,503,US
97290,Portland,OR,971,US
97291,Portland,OR,971,US
97292,Portland,OR,503,US
97293,Portland,OR,503,US
97294,Portland,OR,971,US
97296,Portland,OR,503,US
97298,Portland,OR,503,US
97299,Portland,OR,971,US
97301,Salem,OR,503,US
97302,Salem,OR,503,US
97303,Salem,OR,"5,03,971",US
97304,Salem,OR,"54,15,03,971",US
97305,Salem,OR,503,US
97306,Salem,OR,503,US
97307,Keizer,OR,971,US
97308,Salem,OR,503,US
97309,Salem,OR,503,US
97310,Salem,OR,503,US
97311,Salem,OR,503,US
97312,Salem,OR,971,US
97313,Salem,OR,971,US
97314,Salem,OR,503,US
97317,Salem,OR,971,US
97321,Albany,OR,541,US
97322,Albany,OR,541,US
97324,Alsea,OR,541,US
97325,Aumsville,OR,503,US
97326,Blodgett,OR,541,US
97327,Brownsville,OR,541,US
97329,Cascadia,OR,541,US
97330,Corvallis,OR,541,US
97331,Corvallis,OR,541,US
97333,Corvallis,OR,541,US
97335,Crabtree,OR,541,US
97336,Crawfordsville,OR,541,US
97338,Dallas,OR,503,US
97339,Corvallis,OR,541,US
97341,Depoe Bay,OR,541,US
97342,Detroit,OR,503,US
97343,Eddyville,OR,541,US
97344,Falls City,OR,"5,03,971",US
97345,Foster,OR,541,US
97346,Gates,OR,503,US
97347,Grand Ronde,OR,503,US
97348,Halsey,OR,541,US
97350,Idanha,OR,503,US
97351,Independence,OR,503,US
97352,Jefferson,OR,541,US
97355,Lebanon,OR,541,US
97357,Logsden,OR,541,US
97358,Lyons,OR,503,US
97360,Mill City,OR,503,US
97361,Monmouth,OR,503,US
97362,Mount Angel,OR,503,US
97364,Neotsu,OR,541,US
97365,Newport,OR,541,US
97366,South Beach,OR,541,US
97367,Lincoln City,OR,541,US
97368,Otis,OR,541,US
97369,Otter Rock,OR,541,US
97370,Philomath,OR,541,US
97371,Rickreall,OR,503,US
97372,Rose Lodge,OR,541,US
97373,Saint Benedict,OR,971,US
97374,Scio,OR,503,US
97375,Scotts Mills,OR,503,US
97376,Seal Rock,OR,541,US
97377,Shedd,OR,541,US
97378,Sheridan,OR,503,US
97380,Siletz,OR,541,US
97381,Silverton,OR,"5,03,971",US
97383,Stayton,OR,503,US
97384,Mehama,OR,503,US
97385,Sublimity,OR,503,US
97386,Sweet Home,OR,541,US
97388,Gleneden Beach,OR,541,US
97389,Tangent,OR,541,US
97390,Tidewater,OR,541,US
97391,Toledo,OR,541,US
97392,Turner,OR,503,US
97394,Waldport,OR,541,US
97396,Willamina,OR,503,US
97401,Eugene,OR,541,US
97402,Eugene,OR,541,US
97403,Eugene,OR,541,US
97404,Eugene,OR,541,US
97405,Eugene,OR,541,US
97406,Agness,OR,541,US
97407,Allegany,OR,541,US
97408,Eugene,OR,541,US
97409,Alvadore,OR,541,US
97410,Azalea,OR,541,US
97411,Bandon,OR,541,US
97412,Blachly,OR,541,US
97413,Blue River,OR,541,US
97414,Broadbent,OR,541,US
97415,Brookings,OR,541,US
97416,Camas Valley,OR,541,US
97417,Canyonville,OR,541,US
97419,Cheshire,OR,541,US
97420,Coos Bay,OR,541,US
97423,Coquille,OR,541,US
97424,Cottage Grove,OR,541,US
97425,Crescent Lake,OR,541,US
97426,Creswell,OR,541,US
97427,Culp Creek,OR,541,US
97428,Curtin,OR,541,US
97429,Days Creek,OR,541,US
97430,Deadwood,OR,541,US
97431,Dexter,OR,541,US
97432,Dillard,OR,541,US
97434,Dorena,OR,541,US
97435,Drain,OR,541,US
97436,Elkton,OR,541,US
97437,Elmira,OR,541,US
97438,Fall Creek,OR,541,US
97439,Florence,OR,541,US
97440,Eugene,OR,541,US
97441,Gardiner,OR,541,US
97442,Glendale,OR,541,US
97443,Glide,OR,541,US
97444,Gold Beach,OR,541,US
97446,Harrisburg,OR,541,US
97447,Idleyld Park,OR,541,US
97448,Junction City,OR,541,US
97449,Lakeside,OR,541,US
97450,Langlois,OR,541,US
97451,Lorane,OR,"5,03,541",US
97452,Lowell,OR,541,US
97453,Mapleton,OR,541,US
97454,Marcola,OR,541,US
97455,Pleasant Hill,OR,541,US
97456,Monroe,OR,541,US
97457,Myrtle Creek,OR,541,US
97458,Myrtle Point,OR,541,US
97459,North Bend,OR,541,US
97461,Noti,OR,541,US
97462,Oakland,OR,541,US
97463,Oakridge,OR,541,US
97464,Ophir,OR,541,US
97465,Port Orford,OR,541,US
97466,Powers,OR,541,US
97467,Reedsport,OR,541,US
97469,Riddle,OR,541,US
97470,Roseburg,OR,541,US
97471,Roseburg,OR,541,US
97472,Cottage Grove,OR,541,US
97473,Scottsburg,OR,541,US
97475,Springfield,OR,,US
97476,Sixes,OR,541,US
97477,Springfield,OR,541,US
97478,Springfield,OR,541,US
97479,Sutherlin,OR,541,US
97480,Swisshome,OR,541,US
97481,Tenmile,OR,541,US
97482,Thurston,OR,541,US
97484,Tiller,OR,541,US
97486,Umpqua,OR,541,US
97487,Veneta,OR,541,US
97488,Vida,OR,541,US
97489,Walterville,OR,541,US
97490,Walton,OR,541,US
97491,Wedderburn,OR,541,US
97492,Westfir,OR,541,US
97493,Westlake,OR,541,US
97494,Wilbur,OR,541,US
97495,Winchester,OR,541,US
97496,Winston,OR,541,US
97497,Wolf Creek,OR,541,US
97498,Yachats,OR,541,US
97499,Yoncalla,OR,541,US
97501,Medford,OR,541,US
97502,Central Point,OR,541,US
97503,White City,OR,541,US
97504,Medford,OR,541,US
97520,Ashland,OR,541,US
97522,Butte Falls,OR,541,US
97523,Cave Junction,OR,541,US
97524,Eagle Point,OR,541,US
97525,Gold Hill,OR,541,US
97526,Grants Pass,OR,541,US
97527,Grants Pass,OR,541,US
97528,Grants Pass,OR,541,US
97530,Jacksonville,OR,541,US
97531,Kerby,OR,541,US
97532,Merlin,OR,541,US
97533,Murphy,OR,541,US
97534,O Brien,OR,541,US
97535,Phoenix,OR,541,US
97536,Prospect,OR,541,US
97537,Rogue River,OR,541,US
97538,Selma,OR,541,US
97539,Shady Cove,OR,541,US
97540,Talent,OR,541,US
97541,Trail,OR,541,US
97543,Wilderville,OR,541,US
97544,Williams,OR,541,US
97601,Klamath Falls,OR,541,US
97602,Klamath Falls,OR,541,US
97603,Klamath Falls,OR,541,US
97604,Crater Lake,OR,541,US
97620,Adel,OR,541,US
97621,Beatty,OR,541,US
97622,Bly,OR,541,US
97623,Bonanza,OR,541,US
97624,Chiloquin,OR,541,US
97625,Dairy,OR,541,US
97626,Fort Klamath,OR,541,US
97627,Keno,OR,541,US
97630,Lakeview,OR,541,US
97632,Malin,OR,541,US
97633,Merrill,OR,541,US
97634,Midland,OR,541,US
97635,New Pine Creek,OR,"5,30,541",US
97636,Paisley,OR,541,US
97637,Plush,OR,541,US
97638,Silver Lake,OR,541,US
97639,Sprague River,OR,541,US
97640,Summer Lake,OR,541,US
97641,Christmas Valley,OR,541,US
97701,Bend,OR,541,US
97702,Bend,OR,541,US
97707,Bend,OR,541,US
97708,Bend,OR,541,US
97709,Bend,OR,541,US
97710,Fields,OR,541,US
97711,Ashwood,OR,541,US
97712,Brothers,OR,,US
97720,Burns,OR,541,US
97721,Princeton,OR,541,US
97722,Diamond,OR,541,US
97730,Camp Sherman,OR,541,US
97731,Chemult,OR,541,US
97732,Crane,OR,541,US
97733,Crescent,OR,541,US
97734,Culver,OR,541,US
97735,Fort Rock,OR,541,US
97736,Frenchglen,OR,541,US
97737,Gilchrist,OR,541,US
97738,Hines,OR,541,US
97739,La Pine,OR,541,US
97741,Madras,OR,541,US
97750,Mitchell,OR,541,US
97751,Paulina,OR,541,US
97752,Post,OR,541,US
97753,Powell Butte,OR,541,US
97754,Prineville,OR,541,US
97756,Redmond,OR,541,US
97758,Riley,OR,541,US
97759,Sisters,OR,541,US
97760,Terrebonne,OR,541,US
97761,Warm Springs,OR,541,US
97801,Pendleton,OR,541,US
97810,Adams,OR,541,US
97812,Arlington,OR,541,US
97813,Athena,OR,541,US
97814,Baker City,OR,541,US
97817,Bates,OR,541,US
97818,Boardman,OR,541,US
97819,Bridgeport,OR,541,US
97820,Canyon City,OR,541,US
97823,Condon,OR,541,US
97824,Cove,OR,541,US
97825,Dayville,OR,541,US
97826,Echo,OR,541,US
97827,Elgin,OR,541,US
97828,Enterprise,OR,541,US
97830,Fossil,OR,541,US
97833,Haines,OR,541,US
97834,Halfway,OR,541,US
97835,Helix,OR,541,US
97836,Heppner,OR,541,US
97837,Hereford,OR,541,US
97838,Hermiston,OR,"5,09,541",US
97839,Lexington,OR,541,US
97840,Oxbow,OR,541,US
97841,Imbler,OR,541,US
97842,Imnaha,OR,541,US
97843,Ione,OR,541,US
97844,Irrigon,OR,541,US
97845,John Day,OR,541,US
97846,Joseph,OR,541,US
97848,Kimberly,OR,541,US
97850,La Grande,OR,541,US
97856,Long Creek,OR,541,US
97857,Lostine,OR,541,US
97859,Meacham,OR,541,US
97861,Mikkalo,OR,541,US
97862,Milton Freewater,OR,541,US
97864,Monument,OR,541,US
97865,Mount Vernon,OR,541,US
97867,North Powder,OR,541,US
97868,Pilot Rock,OR,541,US
97869,Prairie City,OR,541,US
97870,Richland,OR,541,US
97873,Seneca,OR,541,US
97874,Spray,OR,541,US
97875,Stanfield,OR,541,US
97876,Summerville,OR,541,US
97877,Sumpter,OR,541,US
97880,Ukiah,OR,541,US
97882,Umatilla,OR,541,US
97883,Union,OR,541,US
97884,Unity,OR,541,US
97885,Wallowa,OR,541,US
97886,Weston,OR,541,US
97901,Adrian,OR,541,US
97902,Arock,OR,541,US
97903,Brogan,OR,541,US
97904,Drewsey,OR,541,US
97905,Durkee,OR,541,US
97906,Harper,OR,541,US
97907,Huntington,OR,541,US
97908,Ironside,OR,541,US
97909,Jamieson,OR,541,US
97910,Jordan Valley,OR,"5,41,208",US
97911,Juntura,OR,541,US
97913,Nyssa,OR,541,US
97914,Ontario,OR,541,US
97917,Riverside,OR,541,US
97918,Vale,OR,541,US
97920,Westfall,OR,541,US
98001,Auburn,WA,"2,06,253",US
98002,Auburn,WA,"2,53,206",US
98003,Federal Way,WA,"2,06,253",US
98004,Bellevue,WA,"42,52,06,253",US
98005,Bellevue,WA,"4,25,206",US
98006,Bellevue,WA,"36,04,25,206",US
98007,Bellevue,WA,"4,25,206",US
98008,Bellevue,WA,"2,06,425",US
98009,Bellevue,WA,425,US
98010,Black Diamond,WA,"3,60,206",US
98011,Bothell,WA,"20,64,25,360",US
98012,Bothell,WA,"4,25,206",US
98013,Burton,WA,206,US
98014,Carnation,WA,425,US
98015,Bellevue,WA,425,US
98019,Duvall,WA,"4,25,206",US
98020,Edmonds,WA,"2,06,425",US
98021,Bothell,WA,"4,25,206",US
98022,Enumclaw,WA,"25,33,60,206",US
98023,Federal Way,WA,253,US
98024,Fall City,WA,425,US
98025,Hobart,WA,,US
98026,Edmonds,WA,"4,25,206",US
98027,Issaquah,WA,"4,25,206",US
98028,Kenmore,WA,"2,06,425",US
98029,Issaquah,WA,"4,25,206",US
98030,Kent,WA,253,US
98031,Kent,WA,"20,62,53,425",US
98032,Kent,WA,"25,34,25,206",US
98033,Kirkland,WA,"2,06,425",US
98034,Kirkland,WA,"4,25,206",US
98035,Kent,WA,253,US
98036,Lynnwood,WA,"42,53,60,206",US
98037,Lynnwood,WA,"4,25,206",US
98038,Maple Valley,WA,"2,53,42,52,06,360",US
98039,Medina,WA,425,US
98040,Mercer Island,WA,"4,25,206",US
98041,Bothell,WA,425,US
98042,Kent,WA,"2,53,42,52,06,360",US
98043,Mountlake Terrace,WA,"2,06,425",US
98045,North Bend,WA,425,US
98046,Lynnwood,WA,206,US
98047,Pacific,WA,253,US
98050,Preston,WA,425,US
98051,Ravensdale,WA,"3,60,425",US
98052,Redmond,WA,"4,25,206",US
98053,Redmond,WA,"4,25,206",US
98054,Redondo,WA,,US
98055,Renton,WA,"20,64,25,253",US
98056,Renton,WA,"4,25,206",US
98057,Renton,WA,206,US
98058,Renton,WA,"42,52,53,206",US
98059,Renton,WA,"4,25,206",US
98061,Rollingbay,WA,,US
98062,Seahurst,WA,,US
98063,Federal Way,WA,253,US
98064,Kent,WA,253,US
98065,Snoqualmie,WA,425,US
98068,Snoqualmie Pass,WA,425,US
98070,Vashon,WA,206,US
98071,Auburn,WA,"2,06,253",US
98072,Woodinville,WA,"42,52,06,360",US
98073,Redmond,WA,206,US
98074,Sammamish,WA,"4,25,206",US
98075,Sammamish,WA,"4,25,206",US
98077,Woodinville,WA,425,US
98082,Mill Creek,WA,,US
98083,Kirkland,WA,425,US
98087,Lynnwood,WA,425,US
98089,Kent,WA,253,US
98092,Auburn,WA,"20,62,53,360",US
98093,Federal Way,WA,253,US
98101,Seattle,WA,"20,64,25,360",US
98102,Seattle,WA,"2,06,42,52,53,360",US
98103,Seattle,WA,"2,06,425",US
98104,Seattle,WA,"2,06,42,53,60,253",US
98105,Seattle,WA,"2,06,425",US
98106,Seattle,WA,206,US
98107,Seattle,WA,206,US
98108,Seattle,WA,"2,06,425",US
98109,Seattle,WA,"20,64,25,360",US
98110,Bainbridge Island,WA,206,US
98111,Seattle,WA,206,US
98112,Seattle,WA,"2,06,425",US
98113,Seattle,WA,206,US
98114,Seattle,WA,206,US
98115,Seattle,WA,"2,06,425",US
98116,Seattle,WA,"4,25,206",US
98117,Seattle,WA,206,US
98118,Seattle,WA,206,US
98119,Seattle,WA,"2,06,425",US
98121,Seattle,WA,"2,06,25,33,60,425",US
98122,Seattle,WA,"2,06,425",US
98124,Seattle,WA,206,US
98125,Seattle,WA,"2,06,425",US
98126,Seattle,WA,206,US
98127,Seattle,WA,206,US
98129,Seattle,WA,206,US
98131,Seattle,WA,206,US
98132,Seattle,WA,206,US
98133,Seattle,WA,"2,06,425",US
98134,Seattle,WA,206,US
98136,Seattle,WA,206,US
98138,Seattle,WA,206,US
98139,Seattle,WA,206,US
98141,Seattle,WA,206,US
98144,Seattle,WA,"2,06,425",US
98145,Seattle,WA,206,US
98146,Seattle,WA,"2,06,253",US
98148,Seattle,WA,"2,06,253",US
98151,Seattle,WA,206,US
98154,Seattle,WA,"2,06,42,52,53,360",US
98155,Seattle,WA,"2,06,425",US
98158,Seattle,WA,"42,53,60,206",US
98160,Seattle,WA,206,US
98161,Seattle,WA,"2,06,425",US
98164,Seattle,WA,206,US
98165,Seattle,WA,206,US
98166,Seattle,WA,"20,63,60,253",US
98168,Seattle,WA,"4,25,20,63,60,253",US
98170,Seattle,WA,206,US
98171,Seattle,WA,206,US
98174,Seattle,WA,206,US
98175,Seattle,WA,206,US
98177,Seattle,WA,"2,06,425",US
98178,Seattle,WA,"20,64,25,253",US
98181,Seattle,WA,206,US
98184,Seattle,WA,206,US
98185,Seattle,WA,206,US
98188,Seattle,WA,"2,06,42,53,60,253",US
98189,Seattle,WA,,US
98190,Seattle,WA,206,US
98191,Seattle,WA,206,US
98194,Seattle,WA,206,US
98195,Seattle,WA,206,US
98198,Seattle,WA,"2,06,253",US
98199,Seattle,WA,"2,06,425",US
98201,Everett,WA,"4,25,206",US
98203,Everett,WA,"4,25,360",US
98204,Everett,WA,425,US
98205,Everett,WA,425,US
98206,Everett,WA,425,US
98207,Everett,WA,425,US
98208,Everett,WA,"4,25,206",US
98213,Everett,WA,425,US
98220,Acme,WA,360,US
98221,Anacortes,WA,360,US
98222,Blakely Island,WA,360,US
98223,Arlington,WA,"42,53,60,206",US
98224,Baring,WA,360,US
98225,Bellingham,WA,"3,60,206",US
98226,Bellingham,WA,360,US
98227,Bellingham,WA,360,US
98228,Bellingham,WA,360,US
98229,Bellingham,WA,360,US
98230,Blaine,WA,360,US
98231,Blaine,WA,360,US
98232,Bow,WA,360,US
98233,Burlington,WA,360,US
98235,Clearlake,WA,360,US
98236,Clinton,WA,360,US
98237,Concrete,WA,360,US
98238,Conway,WA,360,US
98239,Coupeville,WA,360,US
98240,Custer,WA,360,US
98241,Darrington,WA,360,US
98243,Deer Harbor,WA,360,US
98244,Deming,WA,360,US
98245,Eastsound,WA,360,US
98247,Everson,WA,360,US
98248,Ferndale,WA,360,US
98249,Freeland,WA,360,US
98250,Friday Harbor,WA,360,US
98251,Gold Bar,WA,360,US
98252,Granite Falls,WA,360,US
98253,Greenbank,WA,360,US
98255,Hamilton,WA,360,US
98256,Index,WA,360,US
98257,La Conner,WA,360,US
98258,Lake Stevens,WA,"4,25,360",US
98259,North Lakewood,WA,,US
98260,Langley,WA,"4,25,360",US
98261,Lopez Island,WA,360,US
98262,Lummi Island,WA,360,US
98263,Lyman,WA,360,US
98264,Lynden,WA,360,US
98266,Maple Falls,WA,360,US
98267,Marblemount,WA,360,US
98270,Marysville,WA,"3,60,425",US
98271,Marysville,WA,"36,04,25,206",US
98272,Monroe,WA,"36,04,25,206",US
98273,Mount Vernon,WA,360,US
98274,Mount Vernon,WA,360,US
98275,Mukilteo,WA,"4,25,206",US
98276,Nooksack,WA,360,US
98277,Oak Harbor,WA,360,US
98278,Oak Harbor,WA,360,US
98279,Olga,WA,360,US
98280,Orcas,WA,360,US
98281,Point Roberts,WA,360,US
98282,Camano Island,WA,360,US
98283,Rockport,WA,360,US
98284,Sedro Woolley,WA,"3,60,425",US
98286,Shaw Island,WA,360,US
98287,Silvana,WA,206,US
98288,Skykomish,WA,360,US
98290,Snohomish,WA,"3,60,425",US
98291,Snohomish,WA,206,US
98292,Stanwood,WA,"4,25,360",US
98293,Startup,WA,360,US
98294,Sultan,WA,360,US
98295,Sumas,WA,360,US
98296,Snohomish,WA,"36,02,06,425",US
98297,Waldron,WA,360,US
98303,Anderson Island,WA,253,US
98304,Ashford,WA,"3,60,503",US
98305,Beaver,WA,360,US
98310,Bremerton,WA,"3,60,206",US
98311,Bremerton,WA,"36,04,25,206",US
98312,Bremerton,WA,360,US
98314,Bremerton,WA,360,US
98315,Silverdale,WA,360,US
98320,Brinnon,WA,360,US
98321,Buckley,WA,"3,60,253",US
98322,Burley,WA,253,US
98323,Carbonado,WA,360,US
98324,Carlsborg,WA,360,US
98325,Chimacum,WA,360,US
98326,Clallam Bay,WA,360,US
98327,Dupont,WA,253,US
98328,Eatonville,WA,"3,60,253",US
98329,Gig Harbor,WA,253,US
98330,Elbe,WA,360,US
98331,Forks,WA,360,US
98332,Gig Harbor,WA,253,US
98333,Fox Island,WA,253,US
98335,Gig Harbor,WA,"25,33,60,206",US
98336,Glenoma,WA,360,US
98337,Bremerton,WA,360,US
98338,Graham,WA,"2,53,360",US
98339,Port Hadlock,WA,360,US
98340,Hansville,WA,360,US
98342,Indianola,WA,360,US
98343,Joyce,WA,360,US
98344,Kapowsin,WA,360,US
98345,Keyport,WA,360,US
98346,Kingston,WA,360,US
98348,La Grande,WA,,US
98349,Lakebay,WA,253,US
98350,La Push,WA,360,US
98351,Longbranch,WA,253,US
98352,Sumner,WA,253,US
98353,Manchester,WA,,US
98354,Milton,WA,253,US
98355,Mineral,WA,360,US
98356,Morton,WA,360,US
98357,Neah Bay,WA,360,US
98358,Nordland,WA,360,US
98359,Olalla,WA,253,US
98360,Orting,WA,"2,53,360",US
98361,Packwood,WA,360,US
98362,Port Angeles,WA,360,US
98363,Port Angeles,WA,360,US
98364,Port Gamble,WA,360,US
98365,Port Ludlow,WA,360,US
98366,Port Orchard,WA,360,US
98367,Port Orchard,WA,"3,60,253",US
98368,Port Townsend,WA,360,US
98370,Poulsbo,WA,"3,60,425",US
98371,Puyallup,WA,253,US
98372,Puyallup,WA,253,US
98373,Puyallup,WA,253,US
98374,Puyallup,WA,"2,53,360",US
98375,Puyallup,WA,253,US
98376,Quilcene,WA,360,US
98377,Randle,WA,360,US
98378,Retsil,WA,,US
98380,Seabeck,WA,360,US
98381,Sekiu,WA,360,US
98382,Sequim,WA,360,US
98383,Silverdale,WA,360,US
98384,South Colby,WA,,US
98385,South Prairie,WA,360,US
98386,Southworth,WA,,US
98387,Spanaway,WA,"2,06,253",US
98388,Steilacoom,WA,253,US
98390,Sumner,WA,"25,33,60,206",US
98391,Bonney Lake,WA,,US
98392,Suquamish,WA,"2,06,360",US
98393,Tracyton,WA,360,US
98394,Vaughn,WA,253,US
98395,Wauna,WA,,US
98396,Wilkeson,WA,360,US
98397,Longmire,WA,,US
98398,Paradise Inn,WA,,US
98401,Tacoma,WA,253,US
98402,Tacoma,WA,253,US
98403,Tacoma,WA,253,US
98404,Tacoma,WA,253,US
98405,Tacoma,WA,253,US
98406,Tacoma,WA,"2,53,206",US
98407,Tacoma,WA,253,US
98408,Tacoma,WA,253,US
98409,Tacoma,WA,253,US
98411,Tacoma,WA,253,US
98412,Tacoma,WA,253,US
98413,Tacoma,WA,253,US
98415,Tacoma,WA,253,US
98416,Tacoma,WA,253,US
98417,Tacoma,WA,253,US
98418,Tacoma,WA,253,US
98419,Tacoma,WA,253,US
98421,Tacoma,WA,253,US
98422,Tacoma,WA,253,US
98424,Tacoma,WA,"2,53,206",US
98430,Camp Murray,WA,,US
98431,Tacoma,WA,253,US
98433,Tacoma,WA,253,US
98438,Mcchord Afb,WA,253,US
98439,Lakewood,WA,253,US
98442,Tacoma,WA,253,US
98443,Tacoma,WA,253,US
98444,Tacoma,WA,"2,53,206",US
98445,Tacoma,WA,253,US
98446,Tacoma,WA,253,US
98447,Tacoma,WA,253,US
98448,Tacoma,WA,253,US
98450,Tacoma,WA,253,US
98455,Tacoma,WA,253,US
98460,Tacoma,WA,253,US
98464,Tacoma,WA,253,US
98465,Tacoma,WA,253,US
98466,Tacoma,WA,253,US
98467,University Place,WA,"2,53,206",US
98471,Tacoma,WA,253,US
98477,Tacoma,WA,253,US
98481,Tacoma,WA,253,US
98490,Tacoma,WA,253,US
98492,Tacoma,WA,253,US
98493,Tacoma,WA,253,US
98496,Lakewood,WA,253,US
98497,Lakewood,WA,253,US
98498,Lakewood,WA,253,US
98499,Lakewood,WA,253,US
98501,Olympia,WA,360,US
98502,Olympia,WA,360,US
98503,Lacey,WA,"20,64,25,360",US
98504,Olympia,WA,360,US
98505,Olympia,WA,360,US
98506,Olympia,WA,360,US
98507,Olympia,WA,360,US
98508,Olympia,WA,360,US
98509,Lacey,WA,360,US
98511,Tumwater,WA,360,US
98512,Olympia,WA,360,US
98513,Olympia,WA,360,US
98516,Olympia,WA,"3,60,253",US
98520,Aberdeen,WA,360,US
98522,Adna,WA,360,US
98524,Allyn,WA,360,US
98526,Amanda Park,WA,360,US
98527,Bay Center,WA,360,US
98528,Belfair,WA,360,US
98530,Bucoda,WA,360,US
98531,Centralia,WA,360,US
98532,Chehalis,WA,360,US
98533,Cinebar,WA,360,US
98535,Copalis Beach,WA,360,US
98536,Copalis Crossing,WA,360,US
98537,Cosmopolis,WA,360,US
98538,Curtis,WA,360,US
98539,Doty,WA,360,US
98540,East Olympia,WA,360,US
98541,Elma,WA,360,US
98542,Ethel,WA,360,US
98544,Galvin,WA,360,US
98546,Grapeview,WA,360,US
98547,Grayland,WA,360,US
98548,Hoodsport,WA,360,US
98550,Hoquiam,WA,360,US
98552,Humptulips,WA,360,US
98554,Lebam,WA,360,US
98555,Lilliwaup,WA,360,US
98556,Littlerock,WA,360,US
98557,Mccleary,WA,360,US
98558,Mckenna,WA,360,US
98559,Malone,WA,360,US
98560,Matlock,WA,,US
98561,Menlo,WA,360,US
98562,Moclips,WA,360,US
98563,Montesano,WA,360,US
98564,Mossyrock,WA,360,US
98565,Napavine,WA,360,US
98566,Neilton,WA,360,US
98568,Oakville,WA,360,US
98569,Ocean Shores,WA,360,US
98570,Onalaska,WA,360,US
98571,Pacific Beach,WA,360,US
98572,Pe Ell,WA,360,US
98575,Quinault,WA,360,US
98576,Rainier,WA,360,US
98577,Raymond,WA,360,US
98579,Rochester,WA,360,US
98580,Roy,WA,"2,53,360",US
98581,Ryderwood,WA,360,US
98582,Salkum,WA,360,US
98583,Satsop,WA,360,US
98584,Shelton,WA,360,US
98585,Silver Creek,WA,360,US
98586,South Bend,WA,360,US
98587,Taholah,WA,360,US
98588,Tahuya,WA,360,US
98589,Tenino,WA,360,US
98590,Tokeland,WA,360,US
98591,Toledo,WA,360,US
98592,Union,WA,360,US
98593,Vader,WA,360,US
98595,Westport,WA,360,US
98596,Winlock,WA,360,US
98597,Yelm,WA,360,US
98599,Olympia,WA,360,US
98601,Amboy,WA,360,US
98602,Appleton,WA,509,US
98603,Ariel,WA,360,US
98604,Battle Ground,WA,360,US
98605,Bingen,WA,509,US
98606,Brush Prairie,WA,360,US
98607,Camas,WA,360,US
98609,Carrolls,WA,360,US
98610,Carson,WA,509,US
98611,Castle Rock,WA,360,US
98612,Cathlamet,WA,360,US
98613,Centerville,WA,509,US
98614,Chinook,WA,360,US
98616,Cougar,WA,360,US
98617,Dallesport,WA,509,US
98619,Glenwood,WA,509,US
98620,Goldendale,WA,509,US
98621,Grays River,WA,360,US
98622,Heisson,WA,360,US
98623,Husum,WA,509,US
98624,Ilwaco,WA,360,US
98625,Kalama,WA,360,US
98626,Kelso,WA,360,US
98628,Klickitat,WA,509,US
98629,La Center,WA,360,US
98631,Long Beach,WA,360,US
98632,Longview,WA,360,US
98635,Lyle,WA,509,US
98637,Nahcotta,WA,360,US
98638,Naselle,WA,360,US
98639,North Bonneville,WA,509,US
98640,Ocean Park,WA,360,US
98641,Oysterville,WA,360,US
98642,Ridgefield,WA,360,US
98643,Rosburg,WA,360,US
98644,Seaview,WA,360,US
98645,Silverlake,WA,360,US
98647,Skamokawa,WA,360,US
98648,Stevenson,WA,509,US
98649,Toutle,WA,360,US
98650,Trout Lake,WA,509,US
98651,Underwood,WA,509,US
98660,Vancouver,WA,360,US
98661,Vancouver,WA,360,US
98662,Vancouver,WA,360,US
98663,Vancouver,WA,360,US
98664,Vancouver,WA,360,US
98665,Vancouver,WA,360,US
98666,Vancouver,WA,"3,60,503",US
98667,Vancouver,WA,360,US
98668,Vancouver,WA,360,US
98670,Wahkiacus,WA,509,US
98671,Washougal,WA,360,US
98672,White Salmon,WA,509,US
98673,Wishram,WA,509,US
98674,Woodland,WA,360,US
98675,Yacolt,WA,360,US
98682,Vancouver,WA,360,US
98683,Vancouver,WA,360,US
98684,Vancouver,WA,360,US
98685,Vancouver,WA,360,US
98686,Vancouver,WA,360,US
98687,Vancouver,WA,360,US
98801,Wenatchee,WA,509,US
98802,East Wenatchee,WA,509,US
98807,Wenatchee,WA,509,US
98811,Ardenvoir,WA,509,US
98812,Brewster,WA,509,US
98813,Bridgeport,WA,509,US
98814,Carlton,WA,509,US
98815,Cashmere,WA,509,US
98816,Chelan,WA,509,US
98817,Chelan Falls,WA,509,US
98819,Conconully,WA,509,US
98821,Dryden,WA,509,US
98822,Entiat,WA,509,US
98823,Ephrata,WA,509,US
98824,George,WA,509,US
98826,Leavenworth,WA,"5,09,360",US
98827,Loomis,WA,509,US
98828,Malaga,WA,509,US
98829,Malott,WA,509,US
98830,Mansfield,WA,509,US
98831,Manson,WA,509,US
98832,Marlin,WA,509,US
98833,Mazama,WA,509,US
98834,Methow,WA,509,US
98836,Monitor,WA,509,US
98837,Moses Lake,WA,509,US
98840,Okanogan,WA,509,US
98841,Omak,WA,509,US
98843,Orondo,WA,509,US
98844,Oroville,WA,509,US
98845,Palisades,WA,509,US
98846,Pateros,WA,509,US
98847,Peshastin,WA,509,US
98848,Quincy,WA,509,US
98849,Riverside,WA,509,US
98850,Rock Island,WA,509,US
98851,Soap Lake,WA,509,US
98852,Stehekin,WA,509,US
98853,Stratford,WA,509,US
98855,Tonasket,WA,509,US
98856,Twisp,WA,509,US
98857,Warden,WA,509,US
98858,Waterville,WA,509,US
98859,Wauconda,WA,509,US
98860,Wilson Creek,WA,509,US
98862,Winthrop,WA,509,US
98901,Yakima,WA,509,US
98902,Yakima,WA,509,US
98903,Yakima,WA,509,US
98904,Yakima,WA,509,US
98907,Yakima,WA,509,US
98908,Yakima,WA,509,US
98909,Yakima,WA,509,US
98920,Brownstown,WA,509,US
98921,Buena,WA,509,US
98922,Cle Elum,WA,509,US
98923,Cowiche,WA,509,US
98925,Easton,WA,509,US
98926,Ellensburg,WA,509,US
98929,Naches,WA,509,US
98930,Grandview,WA,509,US
98932,Granger,WA,509,US
98933,Harrah,WA,509,US
98934,Kittitas,WA,509,US
98935,Mabton,WA,509,US
98936,Moxee,WA,509,US
98937,Naches,WA,509,US
98938,Outlook,WA,509,US
98939,Parker,WA,509,US
98940,Ronald,WA,509,US
98941,Roslyn,WA,509,US
98942,Selah,WA,509,US
98943,South Cle Elum,WA,509,US
98944,Sunnyside,WA,509,US
98946,Thorp,WA,509,US
98947,Tieton,WA,509,US
98948,Toppenish,WA,509,US
98950,Vantage,WA,509,US
98951,Wapato,WA,509,US
98952,White Swan,WA,509,US
98953,Zillah,WA,509,US
99001,Airway Heights,WA,509,US
99003,Chattaroy,WA,509,US
99004,Cheney,WA,509,US
99005,Colbert,WA,509,US
99006,Deer Park,WA,509,US
99008,Edwall,WA,509,US
99009,Elk,WA,509,US
99011,Fairchild Air Force Base,WA,509,US
99012,Fairfield,WA,509,US
99013,Ford,WA,509,US
99014,Four Lakes,WA,509,US
99016,Greenacres,WA,509,US
99017,Lamont,WA,509,US
99018,Latah,WA,509,US
99019,Liberty Lake,WA,509,US
99020,Marshall,WA,509,US
99021,Mead,WA,509,US
99022,Medical Lake,WA,509,US
99023,Mica,WA,509,US
99025,Newman Lake,WA,509,US
99026,Nine Mile Falls,WA,509,US
99027,Otis Orchards,WA,509,US
99029,Reardan,WA,509,US
99030,Rockford,WA,"5,09,208",US
99031,Spangle,WA,509,US
99032,Sprague,WA,509,US
99033,Tekoa,WA,509,US
99034,Tumtum,WA,509,US
99036,Valleyford,WA,509,US
99037,Veradale,WA,509,US
99039,Waverly,WA,509,US
99040,Wellpinit,WA,509,US
99101,Addy,WA,509,US
99102,Albion,WA,509,US
99103,Almira,WA,509,US
99104,Belmont,WA,509,US
99105,Benge,WA,509,US
99107,Boyds,WA,509,US
99109,Chewelah,WA,509,US
99110,Clayton,WA,509,US
99111,Colfax,WA,509,US
99113,Colton,WA,509,US
99114,Colville,WA,509,US
99115,Coulee City,WA,509,US
99116,Coulee Dam,WA,509,US
99117,Creston,WA,509,US
99118,Curlew,WA,509,US
99119,Cusick,WA,509,US
99121,Danville,WA,509,US
99122,Davenport,WA,509,US
99123,Electric City,WA,509,US
99124,Elmer City,WA,509,US
99125,Endicott,WA,509,US
99126,Evans,WA,509,US
99128,Farmington,WA,"5,09,208",US
99129,Fruitland,WA,509,US
99130,Garfield,WA,509,US
99131,Gifford,WA,509,US
99133,Grand Coulee,WA,509,US
99134,Harrington,WA,509,US
99135,Hartline,WA,509,US
99136,Hay,WA,509,US
99137,Hunters,WA,509,US
99138,Inchelium,WA,509,US
99139,Ione,WA,509,US
99140,Keller,WA,509,US
99141,Kettle Falls,WA,509,US
99143,Lacrosse,WA,509,US
99144,Lamona,WA,509,US
99146,Laurier,WA,509,US
99147,Lincoln,WA,509,US
99148,Loon Lake,WA,509,US
99149,Malden,WA,509,US
99150,Malo,WA,509,US
99151,Marcus,WA,509,US
99152,Metaline,WA,509,US
99153,Metaline Falls,WA,509,US
99154,Mohler,WA,509,US
99155,Nespelem,WA,509,US
99156,Newport,WA,509,US
99157,Northport,WA,509,US
99158,Oakesdale,WA,509,US
99159,Odessa,WA,509,US
99160,Orient,WA,509,US
99161,Palouse,WA,509,US
99163,Pullman,WA,509,US
99164,Pullman,WA,509,US
99165,Pullman,WA,509,US
99166,Republic,WA,509,US
99167,Rice,WA,509,US
99169,Ritzville,WA,509,US
99170,Rosalia,WA,509,US
99171,Saint John,WA,509,US
99173,Springdale,WA,509,US
99174,Steptoe,WA,509,US
99176,Thornton,WA,509,US
99179,Uniontown,WA,509,US
99180,Usk,WA,509,US
99181,Valley,WA,509,US
99185,Wilbur,WA,509,US
99201,Spokane,WA,509,US
99202,Spokane,WA,509,US
99203,Spokane,WA,509,US
99204,Spokane,WA,509,US
99205,Spokane,WA,509,US
99206,Spokane,WA,509,US
99207,Spokane,WA,509,US
99208,Spokane,WA,509,US
99209,Spokane,WA,509,US
99210,Spokane,WA,509,US
99211,Spokane,WA,509,US
99212,Spokane,WA,509,US
99213,Spokane,WA,509,US
99214,Spokane,WA,509,US
99215,Spokane,WA,509,US
99216,Spokane,WA,509,US
99217,Spokane,WA,509,US
99218,Spokane,WA,509,US
99219,Spokane,WA,509,US
99220,Spokane,WA,509,US
99223,Spokane,WA,509,US
99224,Spokane,WA,509,US
99228,Spokane,WA,509,US
99251,Spokane,WA,509,US
99252,Spokane,WA,509,US
99256,Spokane,WA,509,US
99258,Spokane,WA,509,US
99260,Spokane,WA,509,US
99299,Spokane,WA,509,US
99301,Pasco,WA,509,US
99302,Pasco,WA,509,US
99320,Benton City,WA,509,US
99321,Beverly,WA,509,US
99322,Bickleton,WA,509,US
99323,Burbank,WA,509,US
99324,College Place,WA,509,US
99326,Connell,WA,509,US
99328,Dayton,WA,509,US
99329,Dixie,WA,509,US
99330,Eltopia,WA,509,US
99333,Hooper,WA,509,US
99335,Kahlotus,WA,509,US
99336,Kennewick,WA,509,US
99337,Kennewick,WA,509,US
99338,Kennewick,WA,509,US
99341,Lind,WA,509,US
99343,Mesa,WA,509,US
99344,Othello,WA,509,US
99345,Paterson,WA,509,US
99346,Plymouth,WA,509,US
99347,Pomeroy,WA,509,US
99348,Prescott,WA,509,US
99349,Mattawa,WA,509,US
99350,Prosser,WA,509,US
99352,Richland,WA,509,US
99353,West Richland,WA,509,US
99354,Richland,WA,509,US
99356,Roosevelt,WA,509,US
99357,Royal City,WA,509,US
99359,Starbuck,WA,509,US
99360,Touchet,WA,509,US
99361,Waitsburg,WA,509,US
99362,Walla Walla,WA,509,US
99363,Wallula,WA,509,US
99371,Washtucna,WA,509,US
99401,Anatone,WA,509,US
99402,Asotin,WA,509,US
99403,Clarkston,WA,509,US
99501,Anchorage,AK,907,US
99502,Anchorage,AK,907,US
99503,Anchorage,AK,907,US
99504,Anchorage,AK,907,US
99505,Jber,AK,907,US
99506,Jber,AK,907,US
99507,Anchorage,AK,907,US
99508,Anchorage,AK,907,US
99509,Anchorage,AK,907,US
99510,Anchorage,AK,907,US
99511,Anchorage,AK,907,US
99513,Anchorage,AK,907,US
99514,Anchorage,AK,907,US
99515,Anchorage,AK,907,US
99516,Anchorage,AK,907,US
99517,Anchorage,AK,907,US
99518,Anchorage,AK,907,US
99519,Anchorage,AK,907,US
99520,Anchorage,AK,907,US
99521,Anchorage,AK,907,US
99522,Anchorage,AK,907,US
99523,Anchorage,AK,907,US
99524,Anchorage,AK,907,US
99529,Anchorage,AK,907,US
99530,Anchorage,AK,907,US
99540,Indian,AK,907,US
99545,Kongiganak,AK,907,US
99546,Adak,AK,907,US
99547,Atka,AK,907,US
99548,Chignik Lake,AK,907,US
99549,Port Heiden,AK,907,US
99550,Port Lions,AK,907,US
99551,Akiachak,AK,907,US
99552,Akiak,AK,907,US
99553,Akutan,AK,907,US
99554,Alakanuk,AK,907,US
99555,Aleknagik,AK,907,US
99556,Anchor Point,AK,907,US
99557,Aniak,AK,907,US
99558,Anvik,AK,907,US
99559,Bethel,AK,907,US
99561,Chefornak,AK,907,US
99563,Chevak,AK,907,US
99564,Chignik,AK,907,US
99565,Chignik Lagoon,AK,907,US
99566,Chitina,AK,907,US
99567,Chugiak,AK,907,US
99568,Clam Gulch,AK,907,US
99569,Clarks Point,AK,907,US
99571,Cold Bay,AK,907,US
99572,Cooper Landing,AK,907,US
99573,Copper Center,AK,907,US
99574,Cordova,AK,907,US
99575,Crooked Creek,AK,907,US
99576,Dillingham,AK,907,US
99577,Eagle River,AK,907,US
99578,Eek,AK,907,US
99579,Egegik,AK,907,US
99580,Ekwok,AK,907,US
99581,Emmonak,AK,907,US
99583,False Pass,AK,907,US
99585,Marshall,AK,907,US
99586,Gakona,AK,907,US
99587,Girdwood,AK,907,US
99588,Glennallen,AK,907,US
99589,Goodnews Bay,AK,907,US
99590,Grayling,AK,907,US
99591,Saint George Island,AK,907,US
99599,Anchorage,AK,907,US
99602,Holy Cross,AK,907,US
99603,Homer,AK,907,US
99604,Hooper Bay,AK,907,US
99605,Hope,AK,907,US
99606,Iliamna,AK,907,US
99607,Kalskag,AK,907,US
99608,Karluk,AK,907,US
99609,Kasigluk,AK,907,US
99610,Kasilof,AK,907,US
99611,Kenai,AK,907,US
99612,King Cove,AK,907,US
99613,King Salmon,AK,907,US
99614,Kipnuk,AK,907,US
99615,Kodiak,AK,907,US
99619,Kodiak,AK,907,US
99620,Kotlik,AK,907,US
99621,Kwethluk,AK,907,US
99622,Kwigillingok,AK,907,US
99623,Wasilla,AK,,US
99624,Larsen Bay,AK,907,US
99625,Levelock,AK,907,US
99626,Lower Kalskag,AK,907,US
99627,Mc Grath,AK,907,US
99628,Manokotak,AK,907,US
99629,Wasilla,AK,907,US
99630,Mekoryuk,AK,907,US
99631,Moose Pass,AK,907,US
99632,Mountain Village,AK,907,US
99633,Naknek,AK,907,US
99634,Napakiak,AK,907,US
99635,Nikiski,AK,907,US
99636,New Stuyahok,AK,907,US
99637,Toksook Bay,AK,907,US
99638,Nikolski,AK,907,US
99639,Ninilchik,AK,907,US
99640,Nondalton,AK,907,US
99641,Nunapitchuk,AK,907,US
99643,Old Harbor,AK,907,US
99644,Ouzinkie,AK,907,US
99645,Palmer,AK,907,US
99647,Pedro Bay,AK,907,US
99648,Perryville,AK,907,US
99649,Pilot Point,AK,907,US
99650,Pilot Station,AK,907,US
99651,Platinum,AK,907,US
99652,Big Lake,AK,907,US
99653,Port Alsworth,AK,907,US
99654,Wasilla,AK,907,US
99655,Quinhagak,AK,907,US
99656,Red Devil,AK,907,US
99657,Russian Mission,AK,907,US
99658,Saint Marys,AK,907,US
99659,Saint Michael,AK,907,US
99660,Saint Paul Island,AK,907,US
99661,Sand Point,AK,907,US
99662,Scammon Bay,AK,907,US
99663,Seldovia,AK,907,US
99664,Seward,AK,907,US
99665,Shageluk,AK,907,US
99666,Nunam Iqua,AK,907,US
99667,Skwentna,AK,907,US
99668,Sleetmute,AK,907,US
99669,Soldotna,AK,907,US
99670,South Naknek,AK,907,US
99671,Stebbins,AK,907,US
99672,Sterling,AK,907,US
99674,Sutton,AK,907,US
99675,Takotna,AK,907,US
99676,Talkeetna,AK,907,US
99677,Tatitlek,AK,907,US
99678,Togiak,AK,907,US
99679,Tuluksak,AK,907,US
99680,Tuntutuliak,AK,907,US
99681,Tununak,AK,907,US
99682,Tyonek,AK,907,US
99683,Trapper Creek,AK,907,US
99684,Unalakleet,AK,907,US
99685,Unalaska,AK,907,US
99686,Valdez,AK,907,US
99687,Wasilla,AK,907,US
99688,Willow,AK,907,US
99689,Yakutat,AK,907,US
99690,Nightmute,AK,907,US
99691,Nikolai,AK,907,US
99692,Dutch Harbor,AK,907,US
99693,Whittier,AK,907,US
99694,Houston,AK,907,US
99695,Anchorage,AK,907,US
99697,Kodiak,AK,907,US
99701,Fairbanks,AK,907,US
99702,Eielson Afb,AK,907,US
99703,Fort Wainwright,AK,907,US
99704,Clear,AK,907,US
99705,North Pole,AK,907,US
99706,Fairbanks,AK,907,US
99707,Fairbanks,AK,907,US
99708,Fairbanks,AK,907,US
99709,Fairbanks,AK,907,US
99710,Fairbanks,AK,907,US
99711,Fairbanks,AK,907,US
99712,Fairbanks,AK,907,US
99714,Salcha,AK,907,US
99716,Two Rivers,AK,907,US
99720,Allakaket,AK,907,US
99721,Anaktuvuk Pass,AK,907,US
99722,Arctic Village,AK,907,US
99723,Barrow,AK,907,US
99724,Beaver,AK,907,US
99725,Ester,AK,907,US
99726,Bettles Field,AK,907,US
99727,Buckland,AK,907,US
99729,Cantwell,AK,907,US
99730,Central,AK,907,US
99731,Fort Greely,AK,907,US
99732,Chicken,AK,907,US
99733,Circle,AK,907,US
99734,Prudhoe Bay,AK,907,US
99736,Deering,AK,907,US
99737,Delta Junction,AK,907,US
99738,Eagle,AK,907,US
99739,Elim,AK,907,US
99740,Fort Yukon,AK,907,US
99741,Galena,AK,907,US
99742,Gambell,AK,907,US
99743,Healy,AK,907,US
99744,Anderson,AK,907,US
99745,Hughes,AK,907,US
99746,Huslia,AK,907,US
99747,Kaktovik,AK,907,US
99748,Kaltag,AK,907,US
99749,Kiana,AK,907,US
99750,Kivalina,AK,907,US
99751,Kobuk,AK,907,US
99752,Kotzebue,AK,907,US
99753,Koyuk,AK,907,US
99754,Koyukuk,AK,907,US
99755,Denali National Park,AK,907,US
99756,Manley Hot Springs,AK,907,US
99757,Lake Minchumina,AK,907,US
99758,Minto,AK,907,US
99759,Point Lay,AK,907,US
99760,Nenana,AK,907,US
99761,Noatak,AK,907,US
99762,Nome,AK,907,US
99763,Noorvik,AK,907,US
99764,Northway,AK,907,US
99765,Nulato,AK,907,US
99766,Point Hope,AK,907,US
99767,Rampart,AK,907,US
99768,Ruby,AK,907,US
99769,Savoonga,AK,907,US
99770,Selawik,AK,907,US
99771,Shaktoolik,AK,907,US
99772,Shishmaref,AK,907,US
99773,Shungnak,AK,907,US
99774,Stevens Village,AK,907,US
99775,Fairbanks,AK,907,US
99776,Tanacross,AK,907,US
99777,Tanana,AK,907,US
99778,Teller,AK,907,US
99779,Tok,AK,907,US
99780,Tok,AK,907,US
99781,Venetie,AK,907,US
99782,Wainwright,AK,907,US
99783,Wales,AK,907,US
99784,White Mountain,AK,907,US
99785,Brevig Mission,AK,907,US
99786,Ambler,AK,907,US
99788,Chalkyitsik,AK,907,US
99789,Nuiqsut,AK,907,US
99790,Fairbanks,AK,907,US
99791,Atqasuk,AK,907,US
99801,Juneau,AK,907,US
99802,Juneau,AK,907,US
99803,Juneau,AK,907,US
99811,Juneau,AK,907,US
99812,Juneau,AK,907,US
99820,Angoon,AK,907,US
99821,Auke Bay,AK,907,US
99824,Douglas,AK,907,US
99825,Elfin Cove,AK,907,US
99826,Gustavus,AK,907,US
99827,Haines,AK,907,US
99829,Hoonah,AK,907,US
99830,Kake,AK,907,US
99832,Pelican,AK,907,US
99833,Petersburg,AK,907,US
99835,Sitka,AK,907,US
99836,Port Alexander,AK,907,US
99840,Skagway,AK,907,US
99841,Tenakee Springs,AK,907,US
99850,Juneau,AK,907,US
99901,Ketchikan,AK,907,US
99903,Meyers Chuck,AK,907,US
99918,Coffman Cove,AK,907,US
99919,Thorne Bay,AK,907,US
99921,Craig,AK,907,US
99922,Hydaburg,AK,907,US
99923,Hyder,AK,907,US
99925,Klawock,AK,907,US
99926,Metlakatla,AK,907,US
99927,Point Baker,AK,907,US
99928,Ward Cove,AK,907,US
99929,Wrangell,AK,907,US
99950,Ketchikan,AK,907,US
99950,Ketchikan,AK,907,US
